{
  "type": "FeatureCollection",
  "features": [
    {
      "type": "Feature",
      "properties": {
        "kind": "hull_outline",
        "platform_id": "destroyer_baseline"
      },
      "geometry": {
        "type": "Polygon",
        "coordinates": [
          [
            [
              4.8,
              7.5
            ],
            [
              14.399999999999999,
              3.3
            ],
            [
              33.6,
              1.7999999999999998
            ],
            [
              86.39999999999999,
              1.2
            ],
            [
              110.4,
              3.3
            ],
            [
              117.6,
              7.5
            ],
            [
              110.4,
              11.700000000000001
            ],
            [
              86.39999999999999,
              13.8
            ],
            [
              33.6,
              13.2
            ],
            [
              14.399999999999999,
              11.700000000000001
            ],
            [
              4.8,
              7.5
            ]
          ]
        ]
      }
    },
    {
      "type": "Feature",
      "properties": {
        "kind": "hull_waterline",
        "platform_id": "destroyer_baseline"
      },
      "geometry": {
        "type": "Polygon",
        "coordinates": [
          [
            [
              9.311999999999998,
              7.5
            ],
            [
              18.144,
              3.6359999999999997
            ],
            [
              35.808,
              2.2559999999999993
            ],
            [
              84.38399999999999,
              1.7039999999999997
            ],
            [
              106.464,
              3.6359999999999997
            ],
            [
              113.088,
              7.5
            ],
            [
              106.464,
              11.364
            ],
            [
              84.38399999999999,
              13.296000000000001
            ],
            [
              35.808,
              12.744
            ],
            [
              18.144,
              11.364
            ],
            [
              9.311999999999998,
              7.5
            ]
          ]
        ]
      }
    },
    {
      "type": "Feature",
      "properties": {
        "kind": "compartment",
        "zone_id": "Bridge",
        "deck": "upper",
        "room_type": "Free"
      },
      "geometry": {
        "type": "Polygon",
        "coordinates": [
          [
            [
              95.0,
              10.0
            ],
            [
              105.0,
              10.0
            ],
            [
              105.0,
              14.0
            ],
            [
              95.0,
              14.0
            ],
            [
              95.0,
              10.0
            ]
          ]
        ]
      }
    },
    {
      "type": "Feature",
      "properties": {
        "kind": "compartment",
        "zone_id": "MedBay",
        "deck": "main",
        "room_type": "Free"
      },
      "geometry": {
        "type": "Polygon",
        "coordinates": [
          [
            [
              70.0,
              3.0
            ],
            [
              80.0,
              3.0
            ],
            [
              80.0,
              7.0
            ],
            [
              70.0,
              7.0
            ],
            [
              70.0,
              3.0
            ]
          ]
        ]
      }
    },
    {
      "type": "Feature",
      "properties": {
        "kind": "compartment",
        "zone_id": "Mess_Hall",
        "deck": "main",
        "room_type": "Dining"
      },
      "geometry": {
        "type": "Polygon",
        "coordinates": [
          [
            [
              48.0,
              5.0
            ],
            [
              62.0,
              5.0
            ],
            [
              62.0,
              11.0
            ],
            [
              48.0,
              11.0
            ],
            [
              48.0,
              5.0
            ]
          ]
        ]
      }
    },
    {
      "type": "Feature",
      "properties": {
        "kind": "compartment",
        "zone_id": "Engine_Room",
        "deck": "lower",
        "room_type": "Room"
      },
      "geometry": {
        "type": "Polygon",
        "coordinates": [
          [
            [
              10.0,
              4.0
            ],
            [
              30.0,
              4.0
            ],
            [
              30.0,
              10.0
            ],
            [
              10.0,
              10.0
            ],
            [
              10.0,
              4.0
            ]
          ]
        ]
      }
    },
    {
      "type": "Feature",
      "properties": {
        "kind": "compartment",
        "zone_id": "Galley",
        "deck": "main",
        "room_type": "Dining"
      },
      "geometry": {
        "type": "Polygon",
        "coordinates": [
          [
            [
              44.0,
              10.0
            ],
            [
              56.0,
              10.0
            ],
            [
              56.0,
              14.0
            ],
            [
              44.0,
              14.0
            ],
            [
              44.0,
              10.0
            ]
          ]
        ]
      }
    },
    {
      "type": "Feature",
      "properties": {
        "kind": "compartment",
        "zone_id": "Berthing",
        "deck": "lower",
        "room_type": "Room"
      },
      "geometry": {
        "type": "Polygon",
        "coordinates": [
          [
            [
              28.0,
              1.0
            ],
            [
              42.0,
              1.0
            ],
            [
              42.0,
              5.0
            ],
            [
              28.0,
              5.0
            ],
            [
              28.0,
              1.0
            ]
          ]
        ]
      }
    },
    {
      "type": "Feature",
      "properties": {
        "kind": "hvac_path"
      },
      "geometry": {
        "type": "LineString",
        "coordinates": [
          [
            100.0,
            10.0
          ],
          [
            75.0,
            5.0
          ]
        ]
      }
    },
    {
      "type": "Feature",
      "properties": {
        "kind": "hvac_path"
      },
      "geometry": {
        "type": "LineString",
        "coordinates": [
          [
            75.0,
            5.0
          ],
          [
            55.0,
            8.0
          ]
        ]
      }
    },
    {
      "type": "Feature",
      "properties": {
        "kind": "hvac_path"
      },
      "geometry": {
        "type": "LineString",
        "coordinates": [
          [
            55.0,
            8.0
          ],
          [
            50.0,
            12.0
          ]
        ]
      }
    },
    {
      "type": "Feature",
      "properties": {
        "kind": "hvac_path"
      },
      "geometry": {
        "type": "LineString",
        "coordinates": [
          [
            50.0,
            12.0
          ],
          [
            35.0,
            3.0
          ]
        ]
      }
    },
    {
      "type": "Feature",
      "properties": {
        "kind": "hvac_path"
      },
      "geometry": {
        "type": "LineString",
        "coordinates": [
          [
            35.0,
            3.0
          ],
          [
            20.0,
            7.0
          ]
        ]
      }
    },
    {
      "type": "Feature",
      "properties": {
        "kind": "hvac_path"
      },
      "geometry": {
        "type": "LineString",
        "coordinates": [
          [
            100.0,
            12.0
          ],
          [
            20.0,
            7.0
          ]
        ]
      }
    }
  ]
}