{
  "type": "FeatureCollection",
  "features": [
    {
      "type": "Feature",
      "properties": {
        "kind": "hull_outline",
        "platform_id": "fletcher_class_destroyer"
      },
      "geometry": {
        "type": "Polygon",
        "coordinates": [
          [
            [
              4.588,
              6.0
            ],
            [
              13.764,
              2.64
            ],
            [
              32.11600000000001,
              1.44
            ],
            [
              82.584,
              0.96
            ],
            [
              105.524,
              2.64
            ],
            [
              112.406,
              6.0
            ],
            [
              105.524,
              9.36
            ],
            [
              82.584,
              11.040000000000001
            ],
            [
              32.11600000000001,
              10.56
            ],
            [
              13.764,
              9.36
            ],
            [
              4.588,
              6.0
            ]
          ]
        ]
      }
    },
    {
      "type": "Feature",
      "properties": {
        "kind": "hull_waterline",
        "platform_id": "fletcher_class_destroyer"
      },
      "geometry": {
        "type": "Polygon",
        "coordinates": [
          [
            [
              8.90072,
              6.0
            ],
            [
              17.342639999999996,
              2.9088
            ],
            [
              34.22648000000001,
              1.8047999999999993
            ],
            [
              80.65704000000001,
              1.3632
            ],
            [
              101.76184,
              2.9088
            ],
            [
              108.09328000000001,
              6.0
            ],
            [
              101.76184,
              9.0912
            ],
            [
              80.65704000000001,
              10.636800000000001
            ],
            [
              34.22648000000001,
              10.1952
            ],
            [
              17.342639999999996,
              9.0912
            ],
            [
              8.90072,
              6.0
            ]
          ]
        ]
      }
    },
    {
      "type": "Feature",
      "properties": {
        "kind": "compartment",
        "zone_id": "Bridge",
        "deck": "03_level",
        "room_type": "Free"
      },
      "geometry": {
        "type": "Polygon",
        "coordinates": [
          [
            [
              55.9716,
              7.72
            ],
            [
              58.7284,
              7.72
            ],
            [
              59.45,
              8.4416
            ],
            [
              59.45,
              10.2784
            ],
            [
              58.7284,
              11.0
            ],
            [
              55.9716,
              11.0
            ],
            [
              55.25,
              10.2784
            ],
            [
              55.25,
              8.4416
            ],
            [
              55.9716,
              7.72
            ]
          ]
        ]
      }
    },
    {
      "type": "Feature",
      "properties": {
        "kind": "compartment",
        "zone_id": "HD_03L_M",
        "deck": "03_level",
        "room_type": "Sanitary"
      },
      "geometry": {
        "type": "Polygon",
        "coordinates": [
          [
            [
              55.9716,
              0.9999999999999993
            ],
            [
              58.7284,
              0.9999999999999993
            ],
            [
              59.45,
              1.7215999999999994
            ],
            [
              59.45,
              3.5584
            ],
            [
              58.7284,
              4.279999999999999
            ],
            [
              55.9716,
              4.279999999999999
            ],
            [
              55.25,
              3.5584
            ],
            [
              55.25,
              1.7215999999999994
            ],
            [
              55.9716,
              0.9999999999999993
            ]
          ]
        ]
      }
    },
    {
      "type": "Feature",
      "properties": {
        "kind": "compartment",
        "zone_id": "CIC",
        "deck": "02_level",
        "room_type": "Free"
      },
      "geometry": {
        "type": "Polygon",
        "coordinates": [
          [
            [
              109.3216,
              5.16
            ],
            [
              112.0784,
              5.16
            ],
            [
              112.8,
              5.8816
            ],
            [
              112.8,
              7.7184
            ],
            [
              112.0784,
              8.44
            ],
            [
              109.3216,
              8.44
            ],
            [
              108.60000000000001,
              7.7184
            ],
            [
              108.60000000000001,
              5.8816
            ],
            [
              109.3216,
              5.16
            ]
          ]
        ]
      }
    },
    {
      "type": "Feature",
      "properties": {
        "kind": "compartment",
        "zone_id": "Radio_Room",
        "deck": "02_level",
        "room_type": "Free"
      },
      "geometry": {
        "type": "Polygon",
        "coordinates": [
          [
            [
              2.6216,
              7.72
            ],
            [
              5.3784,
              7.72
            ],
            [
              6.1,
              8.4416
            ],
            [
              6.1,
              10.2784
            ],
            [
              5.3784,
              11.0
            ],
            [
              2.6216,
              11.0
            ],
            [
              1.8999999999999995,
              10.2784
            ],
            [
              1.8999999999999995,
              8.4416
            ],
            [
              2.6216,
              7.72
            ]
          ]
        ]
      }
    },
    {
      "type": "Feature",
      "properties": {
        "kind": "compartment",
        "zone_id": "HD_02L_M",
        "deck": "02_level",
        "room_type": "Sanitary"
      },
      "geometry": {
        "type": "Polygon",
        "coordinates": [
          [
            [
              53.94430656,
              1.1285759999999998
            ],
            [
              56.484973440000005,
              1.1285759999999998
            ],
            [
              57.150000000000006,
              1.7936025599999996
            ],
            [
              57.150000000000006,
              3.4863974399999993
            ],
            [
              56.484973440000005,
              4.151424
            ],
            [
              53.94430656,
              4.151424
            ],
            [
              53.27928,
              3.4863974399999993
            ],
            [
              53.27928,
              1.7936025599999996
            ],
            [
              53.94430656,
              1.1285759999999998
            ]
          ]
        ]
      }
    },
    {
      "type": "Feature",
      "properties": {
        "kind": "compartment",
        "zone_id": "HD_02L_F",
        "deck": "02_level",
        "room_type": "Sanitary"
      },
      "geometry": {
        "type": "Polygon",
        "coordinates": [
          [
            [
              58.21502656,
              1.1285759999999998
            ],
            [
              60.75569344,
              1.1285759999999998
            ],
            [
              61.42072,
              1.7936025599999996
            ],
            [
              61.42072,
              3.4863974399999993
            ],
            [
              60.75569344,
              4.151424
            ],
            [
              58.21502656,
              4.151424
            ],
            [
              57.55,
              3.4863974399999993
            ],
            [
              57.55,
              1.7936025599999996
            ],
            [
              58.21502656,
              1.1285759999999998
            ]
          ]
        ]
      }
    },
    {
      "type": "Feature",
      "properties": {
        "kind": "compartment",
        "zone_id": "Officers_Quarters",
        "deck": "main_deck",
        "room_type": "Room"
      },
      "geometry": {
        "type": "Polygon",
        "coordinates": [
          [
            [
              109.32400000000001,
              2.5666666666666655
            ],
            [
              112.076,
              2.5666666666666655
            ],
            [
              113.0,
              3.490666666666666
            ],
            [
              113.0,
              5.842666666666665
            ],
            [
              112.076,
              6.766666666666666
            ],
            [
              109.32400000000001,
              6.766666666666666
            ],
            [
              108.4,
              5.842666666666665
            ],
            [
              108.4,
              3.490666666666666
            ],
            [
              109.32400000000001,
              2.5666666666666655
            ]
          ]
        ]
      }
    },
    {
      "type": "Feature",
      "properties": {
        "kind": "compartment",
        "zone_id": "CPO_Quarters",
        "deck": "main_deck",
        "room_type": "Room"
      },
      "geometry": {
        "type": "Polygon",
        "coordinates": [
          [
            [
              20.40733333333333,
              5.2333333333333325
            ],
            [
              23.159333333333333,
              5.2333333333333325
            ],
            [
              24.083333333333332,
              6.157333333333333
            ],
            [
              24.083333333333332,
              8.509333333333334
            ],
            [
              23.159333333333333,
              9.433333333333334
            ],
            [
              20.40733333333333,
              9.433333333333334
            ],
            [
              19.48333333333333,
              8.509333333333334
            ],
            [
              19.48333333333333,
              6.157333333333333
            ],
            [
              20.40733333333333,
              5.2333333333333325
            ]
          ]
        ]
      }
    },
    {
      "type": "Feature",
      "properties": {
        "kind": "compartment",
        "zone_id": "Wardroom",
        "deck": "main_deck",
        "room_type": "Dining"
      },
      "geometry": {
        "type": "Polygon",
        "coordinates": [
          [
            [
              95.87201904761905,
              5.573333333333333
            ],
            [
              100.12321904761906,
              5.573333333333333
            ],
            [
              100.89761904761906,
              6.347733333333333
            ],
            [
              100.89761904761906,
              8.318933333333334
            ],
            [
              100.12321904761906,
              9.093333333333334
            ],
            [
              95.87201904761905,
              9.093333333333334
            ],
            [
              95.09761904761905,
              8.318933333333334
            ],
            [
              95.09761904761905,
              6.347733333333333
            ],
            [
              95.87201904761905,
              5.573333333333333
            ]
          ]
        ]
      }
    },
    {
      "type": "Feature",
      "properties": {
        "kind": "compartment",
        "zone_id": "Galley",
        "deck": "main_deck",
        "room_type": "Dining"
      },
      "geometry": {
        "type": "Polygon",
        "coordinates": [
          [
            [
              1.8744000000000005,
              7.48
            ],
            [
              6.1256,
              7.48
            ],
            [
              6.9,
              8.2544
            ],
            [
              6.9,
              10.2256
            ],
            [
              6.1256,
              11.0
            ],
            [
              1.8744000000000005,
              11.0
            ],
            [
              1.1000000000000005,
              10.2256
            ],
            [
              1.1000000000000005,
              8.2544
            ],
            [
              1.8744000000000005,
              7.48
            ]
          ]
        ]
      }
    },
    {
      "type": "Feature",
      "properties": {
        "kind": "compartment",
        "zone_id": "Sickbay",
        "deck": "main_deck",
        "room_type": "Free"
      },
      "geometry": {
        "type": "Polygon",
        "coordinates": [
          [
            [
              71.21445714285716,
              7.72
            ],
            [
              73.97125714285716,
              7.72
            ],
            [
              74.69285714285715,
              8.4416
            ],
            [
              74.69285714285715,
              10.2784
            ],
            [
              73.97125714285716,
              11.0
            ],
            [
              71.21445714285716,
              11.0
            ],
            [
              70.49285714285716,
              10.2784
            ],
            [
              70.49285714285716,
              8.4416
            ],
            [
              71.21445714285716,
              7.72
            ]
          ]
        ]
      }
    },
    {
      "type": "Feature",
      "properties": {
        "kind": "compartment",
        "zone_id": "Torpedo_Mount_Midships",
        "deck": "main_deck",
        "room_type": "Free"
      },
      "geometry": {
        "type": "Polygon",
        "coordinates": [
          [
            [
              25.48588571428571,
              3.026666666666666
            ],
            [
              28.242685714285717,
              3.026666666666666
            ],
            [
              28.964285714285715,
              3.748266666666666
            ],
            [
              28.964285714285715,
              5.585066666666666
            ],
            [
              28.242685714285717,
              6.306666666666667
            ],
            [
              25.48588571428571,
              6.306666666666667
            ],
            [
              24.764285714285712,
              5.585066666666666
            ],
            [
              24.764285714285712,
              3.748266666666666
            ],
            [
              25.48588571428571,
              3.026666666666666
            ]
          ]
        ]
      }
    },
    {
      "type": "Feature",
      "properties": {
        "kind": "compartment",
        "zone_id": "Passageway_Main",
        "deck": "main_deck",
        "room_type": "Free"
      },
      "geometry": {
        "type": "Polygon",
        "coordinates": [
          [
            [
              33.10731428571428,
              3.026666666666666
            ],
            [
              35.86411428571428,
              3.026666666666666
            ],
            [
              36.58571428571428,
              3.748266666666666
            ],
            [
              36.58571428571428,
              5.585066666666666
            ],
            [
              35.86411428571428,
              6.306666666666667
            ],
            [
              33.10731428571428,
              6.306666666666667
            ],
            [
              32.38571428571428,
              5.585066666666666
            ],
            [
              32.38571428571428,
              3.748266666666666
            ],
            [
              33.10731428571428,
              3.026666666666666
            ]
          ]
        ]
      }
    },
    {
      "type": "Feature",
      "properties": {
        "kind": "compartment",
        "zone_id": "HD_MAINDEC_M",
        "deck": "main_deck",
        "room_type": "Sanitary"
      },
      "geometry": {
        "type": "Polygon",
        "coordinates": [
          [
            [
              43.782401798095236,
              1.1285759999999998
            ],
            [
              46.32306867809524,
              1.1285759999999998
            ],
            [
              46.98809523809524,
              1.7936025599999996
            ],
            [
              46.98809523809524,
              3.4863974399999993
            ],
            [
              46.32306867809524,
              4.151424
            ],
            [
              43.782401798095236,
              4.151424
            ],
            [
              43.117375238095235,
              3.4863974399999993
            ],
            [
              43.117375238095235,
              1.7936025599999996
            ],
            [
              43.782401798095236,
              1.1285759999999998
            ]
          ]
        ]
      }
    },
    {
      "type": "Feature",
      "properties": {
        "kind": "compartment",
        "zone_id": "HD_MAINDEC_F",
        "deck": "main_deck",
        "room_type": "Sanitary"
      },
      "geometry": {
        "type": "Polygon",
        "coordinates": [
          [
            [
              48.05312179809523,
              1.1285759999999998
            ],
            [
              50.59378867809524,
              1.1285759999999998
            ],
            [
              51.25881523809524,
              1.7936025599999996
            ],
            [
              51.25881523809524,
              3.4863974399999993
            ],
            [
              50.59378867809524,
              4.151424
            ],
            [
              48.05312179809523,
              4.151424
            ],
            [
              47.38809523809523,
              3.4863974399999993
            ],
            [
              47.38809523809523,
              1.7936025599999996
            ],
            [
              48.05312179809523,
              1.1285759999999998
            ]
          ]
        ]
      }
    },
    {
      "type": "Feature",
      "properties": {
        "kind": "compartment",
        "zone_id": "Enlisted_Berthing_Fwd",
        "deck": "second_deck",
        "room_type": "Room"
      },
      "geometry": {
        "type": "Polygon",
        "coordinates": [
          [
            [
              30.36220716388737,
              3.323426630932751
            ],
            [
              33.86979283611264,
              3.323426630932751
            ],
            [
              35.04748511850223,
              4.50111891332234
            ],
            [
              35.04748511850223,
              7.498881086677659
            ],
            [
              33.86979283611264,
              8.676573369067249
            ],
            [
              30.36220716388737,
              8.676573369067249
            ],
            [
              29.18451488149778,
              7.498881086677659
            ],
            [
              29.18451488149778,
              4.50111891332234
            ],
            [
              30.36220716388737,
              3.323426630932751
            ]
          ]
        ]
      }
    },
    {
      "type": "Feature",
      "properties": {
        "kind": "compartment",
        "zone_id": "Enlisted_Berthing_Aft",
        "deck": "second_deck",
        "room_type": "Room"
      },
      "geometry": {
        "type": "Polygon",
        "coordinates": [
          [
            [
              92.2053400312659,
              3.1786439430656745
            ],
            [
              95.9026599687341,
              3.1786439430656745
            ],
            [
              97.14405663378521,
              4.420040608116778
            ],
            [
              97.14405663378521,
              7.5799593918832215
            ],
            [
              95.9026599687341,
              8.821356056934324
            ],
            [
              92.2053400312659,
              8.821356056934324
            ],
            [
              90.96394336621479,
              7.5799593918832215
            ],
            [
              90.96394336621479,
              4.420040608116778
            ],
            [
              92.2053400312659,
              3.1786439430656745
            ]
          ]
        ]
      }
    },
    {
      "type": "Feature",
      "properties": {
        "kind": "compartment",
        "zone_id": "Mess_Deck",
        "deck": "second_deck",
        "room_type": "Dining"
      },
      "geometry": {
        "type": "Polygon",
        "coordinates": [
          [
            [
              47.60297142857143,
              7.48
            ],
            [
              51.854171428571426,
              7.48
            ],
            [
              52.628571428571426,
              8.2544
            ],
            [
              52.628571428571426,
              10.2256
            ],
            [
              51.854171428571426,
              11.0
            ],
            [
              47.60297142857143,
              11.0
            ],
            [
              46.82857142857143,
              10.2256
            ],
            [
              46.82857142857143,
              8.2544
            ],
            [
              47.60297142857143,
              7.48
            ]
          ]
        ]
      }
    },
    {
      "type": "Feature",
      "properties": {
        "kind": "compartment",
        "zone_id": "HD_SECONDD_M",
        "deck": "second_deck",
        "room_type": "Sanitary"
      },
      "geometry": {
        "type": "Polygon",
        "coordinates": [
          [
            [
              46.32287798857143,
              1.1285759999999998
            ],
            [
              48.86354486857143,
              1.1285759999999998
            ],
            [
              49.52857142857143,
              1.7936025599999996
            ],
            [
              49.52857142857143,
              3.4863974399999993
            ],
            [
              48.86354486857143,
              4.151424
            ],
            [
              46.32287798857143,
              4.151424
            ],
            [
              45.657851428571426,
              3.4863974399999993
            ],
            [
              45.657851428571426,
              1.7936025599999996
            ],
            [
              46.32287798857143,
              1.1285759999999998
            ]
          ]
        ]
      }
    },
    {
      "type": "Feature",
      "properties": {
        "kind": "compartment",
        "zone_id": "HD_SECONDD_F",
        "deck": "second_deck",
        "room_type": "Sanitary"
      },
      "geometry": {
        "type": "Polygon",
        "coordinates": [
          [
            [
              50.593597988571425,
              1.1285759999999998
            ],
            [
              53.13426486857143,
              1.1285759999999998
            ],
            [
              53.79929142857143,
              1.7936025599999996
            ],
            [
              53.79929142857143,
              3.4863974399999993
            ],
            [
              53.13426486857143,
              4.151424
            ],
            [
              50.593597988571425,
              4.151424
            ],
            [
              49.92857142857142,
              3.4863974399999993
            ],
            [
              49.92857142857142,
              1.7936025599999996
            ],
            [
              50.593597988571425,
              1.1285759999999998
            ]
          ]
        ]
      }
    },
    {
      "type": "Feature",
      "properties": {
        "kind": "compartment",
        "zone_id": "Boiler_Room_1",
        "deck": "lower_deck",
        "room_type": "Free"
      },
      "geometry": {
        "type": "Polygon",
        "coordinates": [
          [
            [
              108.17054735103736,
              5.785934714639642
            ],
            [
              112.55290563722073,
              5.785934714639642
            ],
            [
              113.7,
              6.9330290774189205
            ],
            [
              113.7,
              9.85290563722072
            ],
            [
              112.55290563722073,
              11.0
            ],
            [
              108.17054735103736,
              11.0
            ],
            [
              107.02345298825809,
              9.85290563722072
            ],
            [
              107.02345298825809,
              6.9330290774189205
            ],
            [
              108.17054735103736,
              5.785934714639642
            ]
          ]
        ]
      }
    },
    {
      "type": "Feature",
      "properties": {
        "kind": "compartment",
        "zone_id": "Boiler_Room_2",
        "deck": "lower_deck",
        "room_type": "Free"
      },
      "geometry": {
        "type": "Polygon",
        "coordinates": [
          [
            [
              62.78024942833688,
              5.785934714639642
            ],
            [
              67.16260771452025,
              5.785934714639642
            ],
            [
              68.30970207729952,
              6.9330290774189205
            ],
            [
              68.30970207729952,
              9.85290563722072
            ],
            [
              67.16260771452025,
              11.0
            ],
            [
              62.78024942833688,
              11.0
            ],
            [
              61.633155065557595,
              9.85290563722072
            ],
            [
              61.633155065557595,
              6.9330290774189205
            ],
            [
              62.78024942833688,
              5.785934714639642
            ]
          ]
        ]
      }
    },
    {
      "type": "Feature",
      "properties": {
        "kind": "compartment",
        "zone_id": "Engine_Room_Fwd",
        "deck": "lower_deck",
        "room_type": "Free"
      },
      "geometry": {
        "type": "Polygon",
        "coordinates": [
          [
            [
              30.1737272810236,
              6.378225102841984
            ],
            [
              34.05827271897641,
              6.378225102841984
            ],
            [
              35.075063196351174,
              7.395015580216747
            ],
            [
              35.075063196351174,
              9.983209522625238
            ],
            [
              34.05827271897641,
              11.000000000000002
            ],
            [
              30.1737272810236,
              11.000000000000002
            ],
            [
              29.156936803648836,
              9.983209522625238
            ],
            [
              29.156936803648836,
              7.395015580216747
            ],
            [
              30.1737272810236,
              6.378225102841984
            ]
          ]
        ]
      }
    },
    {
      "type": "Feature",
      "properties": {
        "kind": "compartment",
        "zone_id": "Engine_Room_Aft",
        "deck": "lower_deck",
        "room_type": "Free"
      },
      "geometry": {
        "type": "Polygon",
        "coordinates": [
          [
            [
              92.11172728102359,
              6.378225102841984
            ],
            [
              95.99627271897641,
              6.378225102841984
            ],
            [
              97.01306319635117,
              7.395015580216747
            ],
            [
              97.01306319635117,
              9.983209522625238
            ],
            [
              95.99627271897641,
              11.000000000000002
            ],
            [
              92.11172728102359,
              11.000000000000002
            ],
            [
              91.09493680364884,
              9.983209522625238
            ],
            [
              91.09493680364884,
              7.395015580216747
            ],
            [
              92.11172728102359,
              6.378225102841984
            ]
          ]
        ]
      }
    },
    {
      "type": "Feature",
      "properties": {
        "kind": "compartment",
        "zone_id": "HD_LOWERDE_M",
        "deck": "lower_deck",
        "room_type": "Sanitary"
      },
      "geometry": {
        "type": "Polygon",
        "coordinates": [
          [
            [
              50.13359227428572,
              1.1285759999999998
            ],
            [
              52.67425915428572,
              1.1285759999999998
            ],
            [
              53.33928571428572,
              1.7936025599999996
            ],
            [
              53.33928571428572,
              3.4863974399999993
            ],
            [
              52.67425915428572,
              4.151424
            ],
            [
              50.13359227428572,
              4.151424
            ],
            [
              49.46856571428572,
              3.4863974399999993
            ],
            [
              49.46856571428572,
              1.7936025599999996
            ],
            [
              50.13359227428572,
              1.1285759999999998
            ]
          ]
        ]
      }
    },
    {
      "type": "Feature",
      "properties": {
        "kind": "compartment",
        "zone_id": "HD_LOWERDE_F",
        "deck": "lower_deck",
        "room_type": "Sanitary"
      },
      "geometry": {
        "type": "Polygon",
        "coordinates": [
          [
            [
              54.404312274285715,
              1.1285759999999998
            ],
            [
              56.94497915428572,
              1.1285759999999998
            ],
            [
              57.61000571428572,
              1.7936025599999996
            ],
            [
              57.61000571428572,
              3.4863974399999993
            ],
            [
              56.94497915428572,
              4.151424
            ],
            [
              54.404312274285715,
              4.151424
            ],
            [
              53.739285714285714,
              3.4863974399999993
            ],
            [
              53.739285714285714,
              1.7936025599999996
            ],
            [
              54.404312274285715,
              1.1285759999999998
            ]
          ]
        ]
      }
    },
    {
      "type": "Feature",
      "properties": {
        "kind": "compartment",
        "zone_id": "Magazine_Fwd",
        "deck": "hold",
        "room_type": "Free"
      },
      "geometry": {
        "type": "Polygon",
        "coordinates": [
          [
            [
              30.737600000000004,
              7.72
            ],
            [
              33.494400000000006,
              7.72
            ],
            [
              34.21600000000001,
              8.4416
            ],
            [
              34.21600000000001,
              10.2784
            ],
            [
              33.494400000000006,
              11.0
            ],
            [
              30.737600000000004,
              11.0
            ],
            [
              30.016000000000005,
              10.2784
            ],
            [
              30.016000000000005,
              8.4416
            ],
            [
              30.737600000000004,
              7.72
            ]
          ]
        ]
      }
    },
    {
      "type": "Feature",
      "properties": {
        "kind": "compartment",
        "zone_id": "Magazine_Aft",
        "deck": "hold",
        "room_type": "Free"
      },
      "geometry": {
        "type": "Polygon",
        "coordinates": [
          [
            [
              92.6756,
              7.72
            ],
            [
              95.4324,
              7.72
            ],
            [
              96.154,
              8.4416
            ],
            [
              96.154,
              10.2784
            ],
            [
              95.4324,
              11.0
            ],
            [
              92.6756,
              11.0
            ],
            [
              91.95400000000001,
              10.2784
            ],
            [
              91.95400000000001,
              8.4416
            ],
            [
              92.6756,
              7.72
            ]
          ]
        ]
      }
    },
    {
      "type": "Feature",
      "properties": {
        "kind": "compartment",
        "zone_id": "HD_HOLD_M",
        "deck": "hold",
        "room_type": "Sanitary"
      },
      "geometry": {
        "type": "Polygon",
        "coordinates": [
          [
            [
              53.94430656,
              1.1285759999999998
            ],
            [
              56.484973440000005,
              1.1285759999999998
            ],
            [
              57.150000000000006,
              1.7936025599999996
            ],
            [
              57.150000000000006,
              3.4863974399999993
            ],
            [
              56.484973440000005,
              4.151424
            ],
            [
              53.94430656,
              4.151424
            ],
            [
              53.27928,
              3.4863974399999993
            ],
            [
              53.27928,
              1.7936025599999996
            ],
            [
              53.94430656,
              1.1285759999999998
            ]
          ]
        ]
      }
    },
    {
      "type": "Feature",
      "properties": {
        "kind": "compartment",
        "zone_id": "HD_HOLD_F",
        "deck": "hold",
        "room_type": "Sanitary"
      },
      "geometry": {
        "type": "Polygon",
        "coordinates": [
          [
            [
              58.21502656,
              1.1285759999999998
            ],
            [
              60.75569344,
              1.1285759999999998
            ],
            [
              61.42072,
              1.7936025599999996
            ],
            [
              61.42072,
              3.4863974399999993
            ],
            [
              60.75569344,
              4.151424
            ],
            [
              58.21502656,
              4.151424
            ],
            [
              57.55,
              3.4863974399999993
            ],
            [
              57.55,
              1.7936025599999996
            ],
            [
              58.21502656,
              1.1285759999999998
            ]
          ]
        ]
      }
    },
    {
      "type": "Feature",
      "properties": {
        "kind": "compartment",
        "zone_id": "Gun_Mount_51",
        "deck": "01_level",
        "room_type": "Free"
      },
      "geometry": {
        "type": "Polygon",
        "coordinates": [
          [
            [
              55.9716,
              7.72
            ],
            [
              58.7284,
              7.72
            ],
            [
              59.45,
              8.4416
            ],
            [
              59.45,
              10.2784
            ],
            [
              58.7284,
              11.0
            ],
            [
              55.9716,
              11.0
            ],
            [
              55.25,
              10.2784
            ],
            [
              55.25,
              8.4416
            ],
            [
              55.9716,
              7.72
            ]
          ]
        ]
      }
    },
    {
      "type": "Feature",
      "properties": {
        "kind": "compartment",
        "zone_id": "HD_01L_M",
        "deck": "01_level",
        "room_type": "Sanitary"
      },
      "geometry": {
        "type": "Polygon",
        "coordinates": [
          [
            [
              53.94430656,
              1.1285759999999998
            ],
            [
              56.484973440000005,
              1.1285759999999998
            ],
            [
              57.150000000000006,
              1.7936025599999996
            ],
            [
              57.150000000000006,
              3.4863974399999993
            ],
            [
              56.484973440000005,
              4.151424
            ],
            [
              53.94430656,
              4.151424
            ],
            [
              53.27928,
              3.4863974399999993
            ],
            [
              53.27928,
              1.7936025599999996
            ],
            [
              53.94430656,
              1.1285759999999998
            ]
          ]
        ]
      }
    },
    {
      "type": "Feature",
      "properties": {
        "kind": "compartment",
        "zone_id": "HD_01L_F",
        "deck": "01_level",
        "room_type": "Sanitary"
      },
      "geometry": {
        "type": "Polygon",
        "coordinates": [
          [
            [
              58.21502656,
              1.1285759999999998
            ],
            [
              60.75569344,
              1.1285759999999998
            ],
            [
              61.42072,
              1.7936025599999996
            ],
            [
              61.42072,
              3.4863974399999993
            ],
            [
              60.75569344,
              4.151424
            ],
            [
              58.21502656,
              4.151424
            ],
            [
              57.55,
              3.4863974399999993
            ],
            [
              57.55,
              1.7936025599999996
            ],
            [
              58.21502656,
              1.1285759999999998
            ]
          ]
        ]
      }
    },
    {
      "type": "Feature",
      "properties": {
        "kind": "hvac_path",
        "from": "CIC",
        "to": "Radio_Room"
      },
      "geometry": {
        "type": "LineString",
        "coordinates": [
          [
            110.7,
            6.8
          ],
          [
            4.0,
            9.36
          ]
        ]
      }
    },
    {
      "type": "Feature",
      "properties": {
        "kind": "hvac_path",
        "from": "Officers_Quarters",
        "to": "Wardroom"
      },
      "geometry": {
        "type": "LineString",
        "coordinates": [
          [
            110.7,
            4.666666666666666
          ],
          [
            97.99761904761905,
            7.333333333333334
          ]
        ]
      }
    },
    {
      "type": "Feature",
      "properties": {
        "kind": "hvac_path",
        "from": "Officers_Quarters",
        "to": "Sickbay"
      },
      "geometry": {
        "type": "LineString",
        "coordinates": [
          [
            110.7,
            4.666666666666666
          ],
          [
            72.59285714285716,
            9.36
          ]
        ]
      }
    },
    {
      "type": "Feature",
      "properties": {
        "kind": "hvac_path",
        "from": "Wardroom",
        "to": "Galley"
      },
      "geometry": {
        "type": "LineString",
        "coordinates": [
          [
            97.99761904761905,
            7.333333333333334
          ],
          [
            4.0,
            9.24
          ]
        ]
      }
    },
    {
      "type": "Feature",
      "properties": {
        "kind": "hvac_path",
        "from": "CPO_Quarters",
        "to": "Passageway_Main"
      },
      "geometry": {
        "type": "LineString",
        "coordinates": [
          [
            21.78333333333333,
            7.333333333333333
          ],
          [
            34.48571428571428,
            4.666666666666666
          ]
        ]
      }
    },
    {
      "type": "Feature",
      "properties": {
        "kind": "hvac_path",
        "from": "Galley",
        "to": "Passageway_Main"
      },
      "geometry": {
        "type": "LineString",
        "coordinates": [
          [
            4.0,
            9.24
          ],
          [
            34.48571428571428,
            4.666666666666666
          ]
        ]
      }
    },
    {
      "type": "Feature",
      "properties": {
        "kind": "hvac_path",
        "from": "Passageway_Main",
        "to": "Torpedo_Mount_Midships"
      },
      "geometry": {
        "type": "LineString",
        "coordinates": [
          [
            34.48571428571428,
            4.666666666666666
          ],
          [
            26.864285714285714,
            4.666666666666666
          ]
        ]
      }
    },
    {
      "type": "Feature",
      "properties": {
        "kind": "hvac_path",
        "from": "Sickbay",
        "to": "Passageway_Main"
      },
      "geometry": {
        "type": "LineString",
        "coordinates": [
          [
            72.59285714285716,
            9.36
          ],
          [
            34.48571428571428,
            4.666666666666666
          ]
        ]
      }
    },
    {
      "type": "Feature",
      "properties": {
        "kind": "hvac_path",
        "from": "Enlisted_Berthing_Fwd",
        "to": "Mess_Deck"
      },
      "geometry": {
        "type": "LineString",
        "coordinates": [
          [
            32.11600000000001,
            6.0
          ],
          [
            49.72857142857143,
            9.24
          ]
        ]
      }
    },
    {
      "type": "Feature",
      "properties": {
        "kind": "hvac_path",
        "from": "Enlisted_Berthing_Aft",
        "to": "Mess_Deck"
      },
      "geometry": {
        "type": "LineString",
        "coordinates": [
          [
            94.054,
            5.999999999999999
          ],
          [
            49.72857142857143,
            9.24
          ]
        ]
      }
    },
    {
      "type": "Feature",
      "properties": {
        "kind": "hvac_path",
        "from": "Enlisted_Berthing_Fwd",
        "to": "Enlisted_Berthing_Aft"
      },
      "geometry": {
        "type": "LineString",
        "coordinates": [
          [
            32.11600000000001,
            6.0
          ],
          [
            94.054,
            5.999999999999999
          ]
        ]
      }
    },
    {
      "type": "Feature",
      "properties": {
        "kind": "hvac_path",
        "from": "Boiler_Room_1",
        "to": "Boiler_Room_2"
      },
      "geometry": {
        "type": "LineString",
        "coordinates": [
          [
            110.36172649412904,
            8.39296735731982
          ],
          [
            64.97142857142856,
            8.39296735731982
          ]
        ]
      }
    },
    {
      "type": "Feature",
      "properties": {
        "kind": "hvac_path",
        "from": "Boiler_Room_2",
        "to": "Engine_Room_Fwd"
      },
      "geometry": {
        "type": "LineString",
        "coordinates": [
          [
            64.97142857142856,
            8.39296735731982
          ],
          [
            32.11600000000001,
            8.689112551420992
          ]
        ]
      }
    },
    {
      "type": "Feature",
      "properties": {
        "kind": "hvac_path",
        "from": "Engine_Room_Fwd",
        "to": "Engine_Room_Aft"
      },
      "geometry": {
        "type": "LineString",
        "coordinates": [
          [
            32.11600000000001,
            8.689112551420992
          ],
          [
            94.054,
            8.689112551420992
          ]
        ]
      }
    },
    {
      "type": "Feature",
      "properties": {
        "kind": "hvac_path",
        "from": "Radio_Room",
        "to": "CIC"
      },
      "geometry": {
        "type": "LineString",
        "coordinates": [
          [
            4.0,
            9.36
          ],
          [
            110.7,
            6.8
          ]
        ]
      }
    }
  ]
}