{
  "type": "FeatureCollection",
  "features": [
    {
      "type": "Feature",
      "properties": {
        "kind": "hull_outline",
        "platform_id": "expedition_cruise_450"
      },
      "geometry": {
        "type": "Polygon",
        "coordinates": [
          [
            [
              8.0,
              10.5
            ],
            [
              22.400000000000002,
              4.2
            ],
            [
              56.0,
              1.68
            ],
            [
              124.80000000000001,
              1.26
            ],
            [
              150.39999999999998,
              5.25
            ],
            [
              155.2,
              10.5
            ],
            [
              150.39999999999998,
              15.75
            ],
            [
              124.80000000000001,
              19.74
            ],
            [
              56.0,
              19.32
            ],
            [
              22.400000000000002,
              16.8
            ],
            [
              8.0,
              10.5
            ]
          ]
        ]
      }
    },
    {
      "type": "Feature",
      "properties": {
        "kind": "hull_waterline",
        "platform_id": "expedition_cruise_450"
      },
      "geometry": {
        "type": "Polygon",
        "coordinates": [
          [
            [
              14.3232,
              10.5
            ],
            [
              27.571200000000005,
              4.704
            ],
            [
              58.4832,
              2.3856
            ],
            [
              121.7792,
              1.9992
            ],
            [
              145.33119999999997,
              5.67
            ],
            [
              149.7472,
              10.5
            ],
            [
              145.33119999999997,
              15.33
            ],
            [
              121.7792,
              19.000799999999998
            ],
            [
              58.4832,
              18.6144
            ],
            [
              27.571200000000005,
              16.296
            ],
            [
              14.3232,
              10.5
            ]
          ]
        ]
      }
    },
    {
      "type": "Feature",
      "properties": {
        "kind": "compartment",
        "zone_id": "MainDining",
        "deck": "5_Panorama",
        "room_type": "Dining"
      },
      "geometry": {
        "type": "Polygon",
        "coordinates": [
          [
            [
              3.3838756585023457,
              9.16420155226206
            ],
            [
              16.470564965611302,
              9.16420155226206
            ],
            [
              18.854440624113654,
              11.548077210764408
            ],
            [
              18.854440624113654,
              17.616124341497652
            ],
            [
              16.470564965611302,
              20.0
            ],
            [
              3.3838756585023457,
              20.0
            ],
            [
              0.9999999999999982,
              17.616124341497652
            ],
            [
              0.9999999999999982,
              11.548077210764408
            ],
            [
              3.3838756585023457,
              9.16420155226206
            ]
          ]
        ]
      }
    },
    {
      "type": "Feature",
      "properties": {
        "kind": "compartment",
        "zone_id": "TheaterLng",
        "deck": "5_Panorama",
        "room_type": "Free"
      },
      "geometry": {
        "type": "Polygon",
        "coordinates": [
          [
            [
              62.09970082556508,
              8.983276349113588
            ],
            [
              71.35912270384667,
              8.983276349113588
            ],
            [
              73.78280190704169,
              11.4069555523086
            ],
            [
              73.78280190704169,
              17.576320796804985
            ],
            [
              71.35912270384667,
              20.0
            ],
            [
              62.09970082556508,
              20.0
            ],
            [
              59.67602162237006,
              17.576320796804985
            ],
            [
              59.67602162237006,
              11.4069555523086
            ],
            [
              62.09970082556508,
              8.983276349113588
            ]
          ]
        ]
      }
    },
    {
      "type": "Feature",
      "properties": {
        "kind": "compartment",
        "zone_id": "Casino",
        "deck": "5_Panorama",
        "room_type": "Free"
      },
      "geometry": {
        "type": "Polygon",
        "coordinates": [
          [
            [
              117.91414790372231,
              15.484487005887372
            ],
            [
              121.70938150804234,
              15.484487005887372
            ],
            [
              122.70279436674711,
              16.47789986459215
            ],
            [
              122.70279436674711,
              19.006587141295224
            ],
            [
              121.70938150804234,
              20.0
            ],
            [
              117.91414790372231,
              20.0
            ],
            [
              116.92073504501754,
              19.006587141295224
            ],
            [
              116.92073504501754,
              16.47789986459215
            ],
            [
              117.91414790372231,
              15.484487005887372
            ]
          ]
        ]
      }
    },
    {
      "type": "Feature",
      "properties": {
        "kind": "compartment",
        "zone_id": "Library",
        "deck": "5_Panorama",
        "room_type": "Free"
      },
      "geometry": {
        "type": "Polygon",
        "coordinates": [
          [
            [
              153.8216,
              16.72
            ],
            [
              156.5784,
              16.72
            ],
            [
              157.29999999999998,
              17.441599999999998
            ],
            [
              157.29999999999998,
              19.2784
            ],
            [
              156.5784,
              20.0
            ],
            [
              153.8216,
              20.0
            ],
            [
              153.1,
              19.2784
            ],
            [
              153.1,
              17.441599999999998
            ],
            [
              153.8216,
              16.72
            ]
          ]
        ]
      }
    },
    {
      "type": "Feature",
      "properties": {
        "kind": "compartment",
        "zone_id": "HD_5P_M",
        "deck": "5_Panorama",
        "room_type": "Sanitary"
      },
      "geometry": {
        "type": "Polygon",
        "coordinates": [
          [
            [
              83.22960067764703,
              1.1285759999999998
            ],
            [
              85.77026755764703,
              1.1285759999999998
            ],
            [
              86.43529411764703,
              1.7936025599999996
            ],
            [
              86.43529411764703,
              3.4863974399999993
            ],
            [
              85.77026755764703,
              4.151424
            ],
            [
              83.22960067764703,
              4.151424
            ],
            [
              82.56457411764703,
              3.4863974399999993
            ],
            [
              82.56457411764703,
              1.7936025599999996
            ],
            [
              83.22960067764703,
              1.1285759999999998
            ]
          ]
        ]
      }
    },
    {
      "type": "Feature",
      "properties": {
        "kind": "compartment",
        "zone_id": "HD_5P_F",
        "deck": "5_Panorama",
        "room_type": "Sanitary"
      },
      "geometry": {
        "type": "Polygon",
        "coordinates": [
          [
            [
              87.50032067764704,
              1.1285759999999998
            ],
            [
              90.04098755764704,
              1.1285759999999998
            ],
            [
              90.70601411764704,
              1.7936025599999996
            ],
            [
              90.70601411764704,
              3.4863974399999993
            ],
            [
              90.04098755764704,
              4.151424
            ],
            [
              87.50032067764704,
              4.151424
            ],
            [
              86.83529411764704,
              3.4863974399999993
            ],
            [
              86.83529411764704,
              1.7936025599999996
            ],
            [
              87.50032067764704,
              1.1285759999999998
            ]
          ]
        ]
      }
    },
    {
      "type": "Feature",
      "properties": {
        "kind": "compartment",
        "zone_id": "CasualDining",
        "deck": "7_Sun",
        "room_type": "Dining"
      },
      "geometry": {
        "type": "Polygon",
        "coordinates": [
          [
            [
              100.43982329049753,
              12.337933438033838
            ],
            [
              109.69351004283577,
              12.337933438033838
            ],
            [
              111.37916468646831,
              14.023588081666393
            ],
            [
              111.37916468646831,
              18.314345356367447
            ],
            [
              109.69351004283577,
              20.0
            ],
            [
              100.43982329049753,
              20.0
            ],
            [
              98.75416864686498,
              18.314345356367447
            ],
            [
              98.75416864686498,
              14.023588081666393
            ],
            [
              100.43982329049753,
              12.337933438033838
            ]
          ]
        ]
      }
    },
    {
      "type": "Feature",
      "properties": {
        "kind": "compartment",
        "zone_id": "PoolDeck",
        "deck": "7_Sun",
        "room_type": "Free"
      },
      "geometry": {
        "type": "Polygon",
        "coordinates": [
          [
            [
              148.29226098846263,
              9.903005991880551
            ],
            [
              156.7786613182137,
              9.903005991880551
            ],
            [
              159.0,
              12.124344673666831
            ],
            [
              159.0,
              17.77866131821372
            ],
            [
              156.7786613182137,
              20.0
            ],
            [
              148.29226098846263,
              20.0
            ],
            [
              146.07092230667632,
              17.77866131821372
            ],
            [
              146.07092230667632,
              12.124344673666831
            ],
            [
              148.29226098846263,
              9.903005991880551
            ]
          ]
        ]
      }
    },
    {
      "type": "Feature",
      "properties": {
        "kind": "compartment",
        "zone_id": "ObsLounge",
        "deck": "7_Sun",
        "room_type": "Free"
      },
      "geometry": {
        "type": "Polygon",
        "coordinates": [
          [
            [
              2.570723645203063,
              12.8603470672588
            ],
            [
              8.571514866233837,
              12.8603470672588
            ],
            [
              10.1422385114369,
              14.431070712461866
            ],
            [
              10.1422385114369,
              18.42927635479694
            ],
            [
              8.571514866233837,
              20.0
            ],
            [
              2.570723645203063,
              20.0
            ],
            [
              0.9999999999999991,
              18.42927635479694
            ],
            [
              0.9999999999999991,
              14.431070712461866
            ],
            [
              2.570723645203063,
              12.8603470672588
            ]
          ]
        ]
      }
    },
    {
      "type": "Feature",
      "properties": {
        "kind": "compartment",
        "zone_id": "HD_7S_M",
        "deck": "7_Sun",
        "room_type": "Sanitary"
      },
      "geometry": {
        "type": "Polygon",
        "coordinates": [
          [
            [
              84.94986211555553,
              1.1285759999999998
            ],
            [
              87.49052899555554,
              1.1285759999999998
            ],
            [
              88.15555555555554,
              1.7936025599999996
            ],
            [
              88.15555555555554,
              3.4863974399999993
            ],
            [
              87.49052899555554,
              4.151424
            ],
            [
              84.94986211555553,
              4.151424
            ],
            [
              84.28483555555553,
              3.4863974399999993
            ],
            [
              84.28483555555553,
              1.7936025599999996
            ],
            [
              84.94986211555553,
              1.1285759999999998
            ]
          ]
        ]
      }
    },
    {
      "type": "Feature",
      "properties": {
        "kind": "compartment",
        "zone_id": "HD_7S_F",
        "deck": "7_Sun",
        "room_type": "Sanitary"
      },
      "geometry": {
        "type": "Polygon",
        "coordinates": [
          [
            [
              89.22058211555554,
              1.1285759999999998
            ],
            [
              91.76124899555555,
              1.1285759999999998
            ],
            [
              92.42627555555555,
              1.7936025599999996
            ],
            [
              92.42627555555555,
              3.4863974399999993
            ],
            [
              91.76124899555555,
              4.151424
            ],
            [
              89.22058211555554,
              4.151424
            ],
            [
              88.55555555555554,
              3.4863974399999993
            ],
            [
              88.55555555555554,
              1.7936025599999996
            ],
            [
              89.22058211555554,
              1.1285759999999998
            ]
          ]
        ]
      }
    },
    {
      "type": "Feature",
      "properties": {
        "kind": "compartment",
        "zone_id": "CrewMess",
        "deck": "2_Crew",
        "room_type": "Dining"
      },
      "geometry": {
        "type": "Polygon",
        "coordinates": [
          [
            [
              16.769309271588757,
              1.0893199307885189
            ],
            [
              21.947266859336306,
              1.0893199307885189
            ],
            [
              22.89048532846307,
              2.0325383999152837
            ],
            [
              22.89048532846307,
              4.433458139510686
            ],
            [
              21.947266859336306,
              5.37667660863745
            ],
            [
              16.769309271588757,
              5.37667660863745
            ],
            [
              15.826090802461993,
              4.433458139510686
            ],
            [
              15.826090802461993,
              2.0325383999152837
            ],
            [
              16.769309271588757,
              1.0893199307885189
            ]
          ]
        ]
      }
    },
    {
      "type": "Feature",
      "properties": {
        "kind": "compartment",
        "zone_id": "Engine_Room",
        "deck": "2_Crew",
        "room_type": "Free"
      },
      "geometry": {
        "type": "Polygon",
        "coordinates": [
          [
            [
              4.922991591326582,
              5.684020978999471
            ],
            [
              16.936269318949996,
              5.684020978999471
            ],
            [
              20.08077788259373,
              8.828529542643208
            ],
            [
              20.08077788259373,
              16.8327331591909
            ],
            [
              16.936269318949996,
              19.97724172283464
            ],
            [
              4.922991591326582,
              19.97724172283464
            ],
            [
              1.778483027682844,
              16.8327331591909
            ],
            [
              1.778483027682844,
              8.828529542643208
            ],
            [
              4.922991591326582,
              5.684020978999471
            ]
          ]
        ]
      }
    },
    {
      "type": "Feature",
      "properties": {
        "kind": "compartment",
        "zone_id": "CC_D2_F",
        "deck": "2_Crew",
        "room_type": "Cabin_Corridor"
      },
      "geometry": {
        "type": "Polygon",
        "coordinates": [
          [
            [
              65.86708643306378,
              10.454285714285714
            ],
            [
              74.26876262353997,
              10.454285714285714
            ],
            [
              76.46792452830188,
              11.008685714285713
            ],
            [
              76.46792452830188,
              12.419885714285714
            ],
            [
              74.26876262353997,
              12.974285714285713
            ],
            [
              65.86708643306378,
              12.974285714285713
            ],
            [
              63.667924528301874,
              12.419885714285714
            ],
            [
              63.667924528301874,
              11.008685714285713
            ],
            [
              65.86708643306378,
              10.454285714285714
            ]
          ]
        ]
      }
    },
    {
      "type": "Feature",
      "properties": {
        "kind": "compartment",
        "zone_id": "CC_D2_A",
        "deck": "2_Crew",
        "room_type": "Cabin_Corridor"
      },
      "geometry": {
        "type": "Polygon",
        "coordinates": [
          [
            [
              148.39916190476188,
              10.454285714285714
            ],
            [
              156.8008380952381,
              10.454285714285714
            ],
            [
              159.0,
              11.008685714285713
            ],
            [
              159.0,
              12.419885714285714
            ],
            [
              156.8008380952381,
              12.974285714285713
            ],
            [
              148.39916190476188,
              12.974285714285713
            ],
            [
              146.2,
              12.419885714285714
            ],
            [
              146.2,
              11.008685714285713
            ],
            [
              148.39916190476188,
              10.454285714285714
            ]
          ]
        ]
      }
    },
    {
      "type": "Feature",
      "properties": {
        "kind": "compartment",
        "zone_id": "HD_2C_M",
        "deck": "2_Crew",
        "room_type": "Sanitary"
      },
      "geometry": {
        "type": "Polygon",
        "coordinates": [
          [
            [
              8.342548972551752,
              1.1285759999999998
            ],
            [
              10.883215852551752,
              1.1285759999999998
            ],
            [
              11.548242412551751,
              1.7936025599999996
            ],
            [
              11.548242412551751,
              3.4863974399999993
            ],
            [
              10.883215852551752,
              4.151424
            ],
            [
              8.342548972551752,
              4.151424
            ],
            [
              7.6775224125517525,
              3.4863974399999993
            ],
            [
              7.6775224125517525,
              1.7936025599999996
            ],
            [
              8.342548972551752,
              1.1285759999999998
            ]
          ]
        ]
      }
    },
    {
      "type": "Feature",
      "properties": {
        "kind": "compartment",
        "zone_id": "HD_2C_F",
        "deck": "2_Crew",
        "room_type": "Sanitary"
      },
      "geometry": {
        "type": "Polygon",
        "coordinates": [
          [
            [
              12.586667910151752,
              1.1890329599999998
            ],
            [
              15.02570811495175,
              1.1890329599999998
            ],
            [
              15.664133612551751,
              1.8274584575999997
            ],
            [
              15.664133612551751,
              3.452541542399999
            ],
            [
              15.02570811495175,
              4.090967039999999
            ],
            [
              12.586667910151752,
              4.090967039999999
            ],
            [
              11.94824241255175,
              3.452541542399999
            ],
            [
              11.94824241255175,
              1.8274584575999997
            ],
            [
              12.586667910151752,
              1.1890329599999998
            ]
          ]
        ]
      }
    },
    {
      "type": "Feature",
      "properties": {
        "kind": "compartment",
        "zone_id": "MainGalley",
        "deck": "4_Voyager",
        "room_type": "Dining"
      },
      "geometry": {
        "type": "Polygon",
        "coordinates": [
          [
            [
              2.6856546436325557,
              12.337933438033838
            ],
            [
              11.939341395970782,
              12.337933438033838
            ],
            [
              13.624996039603339,
              14.023588081666393
            ],
            [
              13.624996039603339,
              18.314345356367447
            ],
            [
              11.939341395970782,
              20.0
            ],
            [
              2.6856546436325557,
              20.0
            ],
            [
              0.9999999999999991,
              18.314345356367447
            ],
            [
              0.9999999999999991,
              14.023588081666393
            ],
            [
              2.6856546436325557,
              12.337933438033838
            ]
          ]
        ]
      }
    },
    {
      "type": "Feature",
      "properties": {
        "kind": "compartment",
        "zone_id": "Reception",
        "deck": "4_Voyager",
        "room_type": "Free"
      },
      "geometry": {
        "type": "Polygon",
        "coordinates": [
          [
            [
              90.08352057591694,
              14.170497791406198
            ],
            [
              94.9831460907497,
              14.170497791406198
            ],
            [
              96.26563657664032,
              15.452988277296832
            ],
            [
              96.26563657664032,
              18.717509514109366
            ],
            [
              94.9831460907497,
              20.0
            ],
            [
              90.08352057591694,
              20.0
            ],
            [
              88.80103009002632,
              18.717509514109366
            ],
            [
              88.80103009002632,
              15.452988277296832
            ],
            [
              90.08352057591694,
              14.170497791406198
            ]
          ]
        ]
      }
    },
    {
      "type": "Feature",
      "properties": {
        "kind": "compartment",
        "zone_id": "MedBay",
        "deck": "4_Voyager",
        "room_type": "Medical"
      },
      "geometry": {
        "type": "Polygon",
        "coordinates": [
          [
            [
              153.8216,
              16.72
            ],
            [
              156.5784,
              16.72
            ],
            [
              157.29999999999998,
              17.441599999999998
            ],
            [
              157.29999999999998,
              19.2784
            ],
            [
              156.5784,
              20.0
            ],
            [
              153.8216,
              20.0
            ],
            [
              153.1,
              19.2784
            ],
            [
              153.1,
              17.441599999999998
            ],
            [
              153.8216,
              16.72
            ]
          ]
        ]
      }
    },
    {
      "type": "Feature",
      "properties": {
        "kind": "compartment",
        "zone_id": "HD_4V_M",
        "deck": "4_Voyager",
        "room_type": "Sanitary"
      },
      "geometry": {
        "type": "Polygon",
        "coordinates": [
          [
            [
              80.77208433777777,
              1.1285759999999998
            ],
            [
              83.31275121777777,
              1.1285759999999998
            ],
            [
              83.97777777777777,
              1.7936025599999996
            ],
            [
              83.97777777777777,
              3.4863974399999993
            ],
            [
              83.31275121777777,
              4.151424
            ],
            [
              80.77208433777777,
              4.151424
            ],
            [
              80.10705777777777,
              3.4863974399999993
            ],
            [
              80.10705777777777,
              1.7936025599999996
            ],
            [
              80.77208433777777,
              1.1285759999999998
            ]
          ]
        ]
      }
    },
    {
      "type": "Feature",
      "properties": {
        "kind": "compartment",
        "zone_id": "HD_4V_F",
        "deck": "4_Voyager",
        "room_type": "Sanitary"
      },
      "geometry": {
        "type": "Polygon",
        "coordinates": [
          [
            [
              85.04280433777778,
              1.1285759999999998
            ],
            [
              87.58347121777778,
              1.1285759999999998
            ],
            [
              88.24849777777779,
              1.7936025599999996
            ],
            [
              88.24849777777779,
              3.4863974399999993
            ],
            [
              87.58347121777778,
              4.151424
            ],
            [
              85.04280433777778,
              4.151424
            ],
            [
              84.37777777777778,
              3.4863974399999993
            ],
            [
              84.37777777777778,
              1.7936025599999996
            ],
            [
              85.04280433777778,
              1.1285759999999998
            ]
          ]
        ]
      }
    },
    {
      "type": "Feature",
      "properties": {
        "kind": "compartment",
        "zone_id": "Gym",
        "deck": "6_Explorer",
        "room_type": "Free"
      },
      "geometry": {
        "type": "Polygon",
        "coordinates": [
          [
            [
              153.0483047961944,
              14.879889532441709
            ],
            [
              157.35169520380558,
              14.879889532441709
            ],
            [
              158.4781195066684,
              16.006313835304532
            ],
            [
              158.4781195066684,
              18.873575697137177
            ],
            [
              157.35169520380558,
              20.0
            ],
            [
              153.0483047961944,
              20.0
            ],
            [
              151.92188049333157,
              18.873575697137177
            ],
            [
              151.92188049333157,
              16.006313835304532
            ],
            [
              153.0483047961944,
              14.879889532441709
            ]
          ]
        ]
      }
    },
    {
      "type": "Feature",
      "properties": {
        "kind": "compartment",
        "zone_id": "Spa",
        "deck": "6_Explorer",
        "room_type": "Free"
      },
      "geometry": {
        "type": "Polygon",
        "coordinates": [
          [
            [
              132.6622713980324,
              15.172713557287075
            ],
            [
              136.71954678378577,
              15.172713557287075
            ],
            [
              137.78154980118262,
              16.234716574683915
            ],
            [
              137.78154980118262,
              18.93799698260316
            ],
            [
              136.71954678378577,
              20.0
            ],
            [
              132.6622713980324,
              20.0
            ],
            [
              131.60026838063555,
              18.93799698260316
            ],
            [
              131.60026838063555,
              16.234716574683915
            ],
            [
              132.6622713980324,
              15.172713557287075
            ]
          ]
        ]
      }
    },
    {
      "type": "Feature",
      "properties": {
        "kind": "compartment",
        "zone_id": "ExpedLounge",
        "deck": "6_Explorer",
        "room_type": "Free"
      },
      "geometry": {
        "type": "Polygon",
        "coordinates": [
          [
            [
              2.404897937816124,
              13.614100282653979
            ],
            [
              7.7721687734196365,
              13.614100282653979
            ],
            [
              9.17706671123576,
              15.018998220470104
            ],
            [
              9.17706671123576,
              18.59510206218388
            ],
            [
              7.7721687734196365,
              20.0
            ],
            [
              2.404897937816124,
              20.0
            ],
            [
              0.9999999999999991,
              18.59510206218388
            ],
            [
              0.9999999999999991,
              15.018998220470104
            ],
            [
              2.404897937816124,
              13.614100282653979
            ]
          ]
        ]
      }
    },
    {
      "type": "Feature",
      "properties": {
        "kind": "compartment",
        "zone_id": "HD_6E_M",
        "deck": "6_Explorer",
        "room_type": "Sanitary"
      },
      "geometry": {
        "type": "Polygon",
        "coordinates": [
          [
            [
              94.82460959030301,
              1.1285759999999998
            ],
            [
              97.36527647030302,
              1.1285759999999998
            ],
            [
              98.03030303030302,
              1.7936025599999996
            ],
            [
              98.03030303030302,
              3.4863974399999993
            ],
            [
              97.36527647030302,
              4.151424
            ],
            [
              94.82460959030301,
              4.151424
            ],
            [
              94.15958303030301,
              3.4863974399999993
            ],
            [
              94.15958303030301,
              1.7936025599999996
            ],
            [
              94.82460959030301,
              1.1285759999999998
            ]
          ]
        ]
      }
    },
    {
      "type": "Feature",
      "properties": {
        "kind": "compartment",
        "zone_id": "HD_6E_F",
        "deck": "6_Explorer",
        "room_type": "Sanitary"
      },
      "geometry": {
        "type": "Polygon",
        "coordinates": [
          [
            [
              99.09532959030302,
              1.1285759999999998
            ],
            [
              101.63599647030303,
              1.1285759999999998
            ],
            [
              102.30102303030303,
              1.7936025599999996
            ],
            [
              102.30102303030303,
              3.4863974399999993
            ],
            [
              101.63599647030303,
              4.151424
            ],
            [
              99.09532959030302,
              4.151424
            ],
            [
              98.43030303030302,
              3.4863974399999993
            ],
            [
              98.43030303030302,
              1.7936025599999996
            ],
            [
              99.09532959030302,
              1.1285759999999998
            ]
          ]
        ]
      }
    },
    {
      "type": "Feature",
      "properties": {
        "kind": "compartment",
        "zone_id": "Laundry",
        "deck": "3_Crew",
        "room_type": "Free"
      },
      "geometry": {
        "type": "Polygon",
        "coordinates": [
          [
            [
              89.50271993404976,
              15.96120239675222
            ],
            [
              92.89728006595021,
              15.96120239675222
            ],
            [
              93.78581553866472,
              16.84973786946673
            ],
            [
              93.78581553866472,
              19.11146452728549
            ],
            [
              92.89728006595021,
              20.0
            ],
            [
              89.50271993404976,
              20.0
            ],
            [
              88.61418446133526,
              19.11146452728549
            ],
            [
              88.61418446133526,
              16.84973786946673
            ],
            [
              89.50271993404976,
              15.96120239675222
            ]
          ]
        ]
      }
    },
    {
      "type": "Feature",
      "properties": {
        "kind": "compartment",
        "zone_id": "Stores",
        "deck": "3_Crew",
        "room_type": "Free"
      },
      "geometry": {
        "type": "Polygon",
        "coordinates": [
          [
            [
              152.22783122658038,
              13.614100282653979
            ],
            [
              157.59510206218388,
              13.614100282653979
            ],
            [
              159.0,
              15.018998220470104
            ],
            [
              159.0,
              18.59510206218388
            ],
            [
              157.59510206218388,
              20.0
            ],
            [
              152.22783122658038,
              20.0
            ],
            [
              150.82293328876426,
              18.59510206218388
            ],
            [
              150.82293328876426,
              15.018998220470104
            ],
            [
              152.22783122658038,
              13.614100282653979
            ]
          ]
        ]
      }
    },
    {
      "type": "Feature",
      "properties": {
        "kind": "compartment",
        "zone_id": "CC_D3_F",
        "deck": "3_Crew",
        "room_type": "Cabin_Corridor"
      },
      "geometry": {
        "type": "Polygon",
        "coordinates": [
          [
            [
              3.1991619047619038,
              17.479999999999997
            ],
            [
              11.600838095238094,
              17.479999999999997
            ],
            [
              13.8,
              18.034399999999998
            ],
            [
              13.8,
              19.4456
            ],
            [
              11.600838095238094,
              20.0
            ],
            [
              3.1991619047619038,
              20.0
            ],
            [
              1.0,
              19.4456
            ],
            [
              1.0,
              18.034399999999998
            ],
            [
              3.1991619047619038,
              17.479999999999997
            ]
          ]
        ]
      }
    },
    {
      "type": "Feature",
      "properties": {
        "kind": "compartment",
        "zone_id": "CC_D3_A",
        "deck": "3_Crew",
        "room_type": "Cabin_Corridor"
      },
      "geometry": {
        "type": "Polygon",
        "coordinates": [
          [
            [
              96.59916190476189,
              17.479999999999997
            ],
            [
              105.00083809523808,
              17.479999999999997
            ],
            [
              107.19999999999999,
              18.034399999999998
            ],
            [
              107.19999999999999,
              19.4456
            ],
            [
              105.00083809523808,
              20.0
            ],
            [
              96.59916190476189,
              20.0
            ],
            [
              94.39999999999998,
              19.4456
            ],
            [
              94.39999999999998,
              18.034399999999998
            ],
            [
              96.59916190476189,
              17.479999999999997
            ]
          ]
        ]
      }
    },
    {
      "type": "Feature",
      "properties": {
        "kind": "compartment",
        "zone_id": "HD_3C_M",
        "deck": "3_Crew",
        "room_type": "Sanitary"
      },
      "geometry": {
        "type": "Polygon",
        "coordinates": [
          [
            [
              119.79430655999998,
              1.1285759999999998
            ],
            [
              122.33497343999998,
              1.1285759999999998
            ],
            [
              122.99999999999999,
              1.7936025599999996
            ],
            [
              122.99999999999999,
              3.4863974399999993
            ],
            [
              122.33497343999998,
              4.151424
            ],
            [
              119.79430655999998,
              4.151424
            ],
            [
              119.12927999999998,
              3.4863974399999993
            ],
            [
              119.12927999999998,
              1.7936025599999996
            ],
            [
              119.79430655999998,
              1.1285759999999998
            ]
          ]
        ]
      }
    },
    {
      "type": "Feature",
      "properties": {
        "kind": "compartment",
        "zone_id": "HD_3C_F",
        "deck": "3_Crew",
        "room_type": "Sanitary"
      },
      "geometry": {
        "type": "Polygon",
        "coordinates": [
          [
            [
              124.06502655999999,
              1.1285759999999998
            ],
            [
              126.60569344,
              1.1285759999999998
            ],
            [
              127.27072,
              1.7936025599999996
            ],
            [
              127.27072,
              3.4863974399999993
            ],
            [
              126.60569344,
              4.151424
            ],
            [
              124.06502655999999,
              4.151424
            ],
            [
              123.39999999999999,
              3.4863974399999993
            ],
            [
              123.39999999999999,
              1.7936025599999996
            ],
            [
              124.06502655999999,
              1.1285759999999998
            ]
          ]
        ]
      }
    },
    {
      "type": "Feature",
      "properties": {
        "kind": "compartment",
        "zone_id": "Bridge",
        "deck": "8_Bridge",
        "room_type": "Free"
      },
      "geometry": {
        "type": "Polygon",
        "coordinates": [
          [
            [
              78.24314822289413,
              15.819447309266394
            ],
            [
              81.75685177710587,
              15.819447309266394
            ],
            [
              82.67657336906724,
              16.739168901227785
            ],
            [
              82.67657336906724,
              19.08027840803861
            ],
            [
              81.75685177710587,
              20.0
            ],
            [
              78.24314822289413,
              20.0
            ],
            [
              77.32342663093276,
              19.08027840803861
            ],
            [
              77.32342663093276,
              16.739168901227785
            ],
            [
              78.24314822289413,
              15.819447309266394
            ]
          ]
        ]
      }
    },
    {
      "type": "Feature",
      "properties": {
        "kind": "compartment",
        "zone_id": "HD_8B_M",
        "deck": "8_Bridge",
        "room_type": "Sanitary"
      },
      "geometry": {
        "type": "Polygon",
        "coordinates": [
          [
            [
              78.6216,
              0.9999999999999993
            ],
            [
              81.3784,
              0.9999999999999993
            ],
            [
              82.1,
              1.7215999999999994
            ],
            [
              82.1,
              3.5584
            ],
            [
              81.3784,
              4.279999999999999
            ],
            [
              78.6216,
              4.279999999999999
            ],
            [
              77.9,
              3.5584
            ],
            [
              77.9,
              1.7215999999999994
            ],
            [
              78.6216,
              0.9999999999999993
            ]
          ]
        ]
      }
    },
    {
      "type": "Feature",
      "properties": {
        "kind": "compartment",
        "zone_id": "PC_D4_P_F",
        "deck": "4_Cabins",
        "room_type": "Cabin_Corridor"
      },
      "geometry": {
        "type": "Polygon",
        "coordinates": [
          [
            [
              3.2668851814381767,
              0.9999999999999996
            ],
            [
              11.92729131806341,
              0.9999999999999996
            ],
            [
              14.19417649950159,
              1.5543999999999996
            ],
            [
              14.19417649950159,
              2.9656
            ],
            [
              11.92729131806341,
              3.5199999999999996
            ],
            [
              3.2668851814381767,
              3.5199999999999996
            ],
            [
              1.0,
              2.9656
            ],
            [
              1.0,
              1.5543999999999996
            ],
            [
              3.2668851814381767,
              0.9999999999999996
            ]
          ]
        ]
      }
    },
    {
      "type": "Feature",
      "properties": {
        "kind": "compartment",
        "zone_id": "PC_D4_P_A",
        "deck": "4_Cabins",
        "room_type": "Cabin_Corridor"
      },
      "geometry": {
        "type": "Polygon",
        "coordinates": [
          [
            [
              148.0727086819366,
              0.9999999999999996
            ],
            [
              156.73311481856183,
              0.9999999999999996
            ],
            [
              159.0,
              1.5543999999999996
            ],
            [
              159.0,
              2.9656
            ],
            [
              156.73311481856183,
              3.5199999999999996
            ],
            [
              148.0727086819366,
              3.5199999999999996
            ],
            [
              145.80582350049843,
              2.9656
            ],
            [
              145.80582350049843,
              1.5543999999999996
            ],
            [
              148.0727086819366,
              0.9999999999999996
            ]
          ]
        ]
      }
    },
    {
      "type": "Feature",
      "properties": {
        "kind": "compartment",
        "zone_id": "PC_D4_S_F",
        "deck": "4_Cabins",
        "room_type": "Cabin_Corridor"
      },
      "geometry": {
        "type": "Polygon",
        "coordinates": [
          [
            [
              3.2668851814381767,
              17.479999999999997
            ],
            [
              11.92729131806341,
              17.479999999999997
            ],
            [
              14.19417649950159,
              18.034399999999998
            ],
            [
              14.19417649950159,
              19.4456
            ],
            [
              11.92729131806341,
              20.0
            ],
            [
              3.2668851814381767,
              20.0
            ],
            [
              1.0,
              19.4456
            ],
            [
              1.0,
              18.034399999999998
            ],
            [
              3.2668851814381767,
              17.479999999999997
            ]
          ]
        ]
      }
    },
    {
      "type": "Feature",
      "properties": {
        "kind": "compartment",
        "zone_id": "PC_D4_S_A",
        "deck": "4_Cabins",
        "room_type": "Cabin_Corridor"
      },
      "geometry": {
        "type": "Polygon",
        "coordinates": [
          [
            [
              148.0727086819366,
              17.479999999999997
            ],
            [
              156.73311481856183,
              17.479999999999997
            ],
            [
              159.0,
              18.034399999999998
            ],
            [
              159.0,
              19.4456
            ],
            [
              156.73311481856183,
              20.0
            ],
            [
              148.0727086819366,
              20.0
            ],
            [
              145.80582350049843,
              19.4456
            ],
            [
              145.80582350049843,
              18.034399999999998
            ],
            [
              148.0727086819366,
              17.479999999999997
            ]
          ]
        ]
      }
    },
    {
      "type": "Feature",
      "properties": {
        "kind": "compartment",
        "zone_id": "PC_D5_P_F",
        "deck": "5_Cabins",
        "room_type": "Cabin_Corridor"
      },
      "geometry": {
        "type": "Polygon",
        "coordinates": [
          [
            [
              3.2668851814381767,
              0.9999999999999996
            ],
            [
              11.92729131806341,
              0.9999999999999996
            ],
            [
              14.19417649950159,
              1.5543999999999996
            ],
            [
              14.19417649950159,
              2.9656
            ],
            [
              11.92729131806341,
              3.5199999999999996
            ],
            [
              3.2668851814381767,
              3.5199999999999996
            ],
            [
              1.0,
              2.9656
            ],
            [
              1.0,
              1.5543999999999996
            ],
            [
              3.2668851814381767,
              0.9999999999999996
            ]
          ]
        ]
      }
    },
    {
      "type": "Feature",
      "properties": {
        "kind": "compartment",
        "zone_id": "PC_D5_P_A",
        "deck": "5_Cabins",
        "room_type": "Cabin_Corridor"
      },
      "geometry": {
        "type": "Polygon",
        "coordinates": [
          [
            [
              148.0727086819366,
              0.9999999999999996
            ],
            [
              156.73311481856183,
              0.9999999999999996
            ],
            [
              159.0,
              1.5543999999999996
            ],
            [
              159.0,
              2.9656
            ],
            [
              156.73311481856183,
              3.5199999999999996
            ],
            [
              148.0727086819366,
              3.5199999999999996
            ],
            [
              145.80582350049843,
              2.9656
            ],
            [
              145.80582350049843,
              1.5543999999999996
            ],
            [
              148.0727086819366,
              0.9999999999999996
            ]
          ]
        ]
      }
    },
    {
      "type": "Feature",
      "properties": {
        "kind": "compartment",
        "zone_id": "PC_D5_S_F",
        "deck": "5_Cabins",
        "room_type": "Cabin_Corridor"
      },
      "geometry": {
        "type": "Polygon",
        "coordinates": [
          [
            [
              3.2668851814381767,
              17.479999999999997
            ],
            [
              11.92729131806341,
              17.479999999999997
            ],
            [
              14.19417649950159,
              18.034399999999998
            ],
            [
              14.19417649950159,
              19.4456
            ],
            [
              11.92729131806341,
              20.0
            ],
            [
              3.2668851814381767,
              20.0
            ],
            [
              1.0,
              19.4456
            ],
            [
              1.0,
              18.034399999999998
            ],
            [
              3.2668851814381767,
              17.479999999999997
            ]
          ]
        ]
      }
    },
    {
      "type": "Feature",
      "properties": {
        "kind": "compartment",
        "zone_id": "PC_D5_S_A",
        "deck": "5_Cabins",
        "room_type": "Cabin_Corridor"
      },
      "geometry": {
        "type": "Polygon",
        "coordinates": [
          [
            [
              148.0727086819366,
              17.479999999999997
            ],
            [
              156.73311481856183,
              17.479999999999997
            ],
            [
              159.0,
              18.034399999999998
            ],
            [
              159.0,
              19.4456
            ],
            [
              156.73311481856183,
              20.0
            ],
            [
              148.0727086819366,
              20.0
            ],
            [
              145.80582350049843,
              19.4456
            ],
            [
              145.80582350049843,
              18.034399999999998
            ],
            [
              148.0727086819366,
              17.479999999999997
            ]
          ]
        ]
      }
    },
    {
      "type": "Feature",
      "properties": {
        "kind": "compartment",
        "zone_id": "PC_D6_P_F",
        "deck": "6_Cabins",
        "room_type": "Cabin_Corridor"
      },
      "geometry": {
        "type": "Polygon",
        "coordinates": [
          [
            [
              3.2668851814381767,
              0.9999999999999996
            ],
            [
              11.92729131806341,
              0.9999999999999996
            ],
            [
              14.19417649950159,
              1.5543999999999996
            ],
            [
              14.19417649950159,
              2.9656
            ],
            [
              11.92729131806341,
              3.5199999999999996
            ],
            [
              3.2668851814381767,
              3.5199999999999996
            ],
            [
              1.0,
              2.9656
            ],
            [
              1.0,
              1.5543999999999996
            ],
            [
              3.2668851814381767,
              0.9999999999999996
            ]
          ]
        ]
      }
    },
    {
      "type": "Feature",
      "properties": {
        "kind": "compartment",
        "zone_id": "PC_D6_P_A",
        "deck": "6_Cabins",
        "room_type": "Cabin_Corridor"
      },
      "geometry": {
        "type": "Polygon",
        "coordinates": [
          [
            [
              148.0727086819366,
              0.9999999999999996
            ],
            [
              156.73311481856183,
              0.9999999999999996
            ],
            [
              159.0,
              1.5543999999999996
            ],
            [
              159.0,
              2.9656
            ],
            [
              156.73311481856183,
              3.5199999999999996
            ],
            [
              148.0727086819366,
              3.5199999999999996
            ],
            [
              145.80582350049843,
              2.9656
            ],
            [
              145.80582350049843,
              1.5543999999999996
            ],
            [
              148.0727086819366,
              0.9999999999999996
            ]
          ]
        ]
      }
    },
    {
      "type": "Feature",
      "properties": {
        "kind": "compartment",
        "zone_id": "PC_D6_S_F",
        "deck": "6_Cabins",
        "room_type": "Cabin_Corridor"
      },
      "geometry": {
        "type": "Polygon",
        "coordinates": [
          [
            [
              3.2668851814381767,
              17.479999999999997
            ],
            [
              11.92729131806341,
              17.479999999999997
            ],
            [
              14.19417649950159,
              18.034399999999998
            ],
            [
              14.19417649950159,
              19.4456
            ],
            [
              11.92729131806341,
              20.0
            ],
            [
              3.2668851814381767,
              20.0
            ],
            [
              1.0,
              19.4456
            ],
            [
              1.0,
              18.034399999999998
            ],
            [
              3.2668851814381767,
              17.479999999999997
            ]
          ]
        ]
      }
    },
    {
      "type": "Feature",
      "properties": {
        "kind": "compartment",
        "zone_id": "PC_D6_S_A",
        "deck": "6_Cabins",
        "room_type": "Cabin_Corridor"
      },
      "geometry": {
        "type": "Polygon",
        "coordinates": [
          [
            [
              148.0727086819366,
              17.479999999999997
            ],
            [
              156.73311481856183,
              17.479999999999997
            ],
            [
              159.0,
              18.034399999999998
            ],
            [
              159.0,
              19.4456
            ],
            [
              156.73311481856183,
              20.0
            ],
            [
              148.0727086819366,
              20.0
            ],
            [
              145.80582350049843,
              19.4456
            ],
            [
              145.80582350049843,
              18.034399999999998
            ],
            [
              148.0727086819366,
              17.479999999999997
            ]
          ]
        ]
      }
    },
    {
      "type": "Feature",
      "properties": {
        "kind": "hvac_path",
        "from": "ObsLounge",
        "to": "PoolDeck"
      },
      "geometry": {
        "type": "LineString",
        "coordinates": [
          [
            5.57111925571845,
            16.4301735336294
          ],
          [
            152.53546115333816,
            14.951502995940276
          ]
        ]
      }
    },
    {
      "type": "Feature",
      "properties": {
        "kind": "hvac_path",
        "from": "CasualDining",
        "to": "PoolDeck"
      },
      "geometry": {
        "type": "LineString",
        "coordinates": [
          [
            105.06666666666665,
            16.168966719016918
          ],
          [
            152.53546115333816,
            14.951502995940276
          ]
        ]
      }
    },
    {
      "type": "Feature",
      "properties": {
        "kind": "hvac_path",
        "from": "Gym",
        "to": "Spa"
      },
      "geometry": {
        "type": "LineString",
        "coordinates": [
          [
            155.2,
            17.439944766220854
          ],
          [
            134.6909090909091,
            17.586356778643538
          ]
        ]
      }
    },
    {
      "type": "Feature",
      "properties": {
        "kind": "hvac_path",
        "from": "Spa",
        "to": "ExpedLounge"
      },
      "geometry": {
        "type": "LineString",
        "coordinates": [
          [
            134.6909090909091,
            17.586356778643538
          ],
          [
            5.08853335561788,
            16.80705014132699
          ]
        ]
      }
    },
    {
      "type": "Feature",
      "properties": {
        "kind": "hvac_path",
        "from": "MainDining",
        "to": "TheaterLng"
      },
      "geometry": {
        "type": "LineString",
        "coordinates": [
          [
            9.927220312056825,
            14.58210077613103
          ],
          [
            66.72941176470587,
            14.491638174556794
          ]
        ]
      }
    },
    {
      "type": "Feature",
      "properties": {
        "kind": "hvac_path",
        "from": "TheaterLng",
        "to": "Casino"
      },
      "geometry": {
        "type": "LineString",
        "coordinates": [
          [
            66.72941176470587,
            14.491638174556794
          ],
          [
            119.81176470588233,
            17.742243502943687
          ]
        ]
      }
    },
    {
      "type": "Feature",
      "properties": {
        "kind": "hvac_path",
        "from": "Casino",
        "to": "Library"
      },
      "geometry": {
        "type": "LineString",
        "coordinates": [
          [
            119.81176470588233,
            17.742243502943687
          ],
          [
            155.2,
            18.36
          ]
        ]
      }
    },
    {
      "type": "Feature",
      "properties": {
        "kind": "hvac_path",
        "from": "MedBay",
        "to": "Reception"
      },
      "geometry": {
        "type": "LineString",
        "coordinates": [
          [
            155.2,
            18.36
          ],
          [
            92.53333333333332,
            17.0852488957031
          ]
        ]
      }
    },
    {
      "type": "Feature",
      "properties": {
        "kind": "hvac_path",
        "from": "Laundry",
        "to": "Stores"
      },
      "geometry": {
        "type": "LineString",
        "coordinates": [
          [
            91.19999999999999,
            17.98060119837611
          ],
          [
            154.91146664438213,
            16.80705014132699
          ]
        ]
      }
    },
    {
      "type": "Feature",
      "properties": {
        "kind": "hvac_path",
        "from": "CrewMess",
        "to": "Engine_Room"
      },
      "geometry": {
        "type": "LineString",
        "coordinates": [
          [
            19.35828806546253,
            3.2329982697129847
          ],
          [
            10.929630455138287,
            12.830631350917056
          ]
        ]
      }
    },
    {
      "type": "Feature",
      "properties": {
        "kind": "hvac_path",
        "from": "CC_D3_F",
        "to": "Laundry"
      },
      "geometry": {
        "type": "LineString",
        "coordinates": [
          [
            7.3999999999999995,
            18.74
          ],
          [
            91.19999999999999,
            17.98060119837611
          ]
        ]
      }
    },
    {
      "type": "Feature",
      "properties": {
        "kind": "hvac_path",
        "from": "CC_D3_A",
        "to": "Stores"
      },
      "geometry": {
        "type": "LineString",
        "coordinates": [
          [
            100.79999999999998,
            18.74
          ],
          [
            154.91146664438213,
            16.80705014132699
          ]
        ]
      }
    },
    {
      "type": "Feature",
      "properties": {
        "kind": "hvac_path",
        "from": "CC_D2_F",
        "to": "CrewMess"
      },
      "geometry": {
        "type": "LineString",
        "coordinates": [
          [
            70.06792452830187,
            11.714285714285714
          ],
          [
            19.35828806546253,
            3.2329982697129847
          ]
        ]
      }
    },
    {
      "type": "Feature",
      "properties": {
        "kind": "hvac_path",
        "from": "CC_D2_A",
        "to": "Engine_Room"
      },
      "geometry": {
        "type": "LineString",
        "coordinates": [
          [
            152.6,
            11.714285714285714
          ],
          [
            10.929630455138287,
            12.830631350917056
          ]
        ]
      }
    },
    {
      "type": "Feature",
      "properties": {
        "kind": "hvac_path",
        "from": "PC_D4_P_F",
        "to": "PC_D4_P_A"
      },
      "geometry": {
        "type": "LineString",
        "coordinates": [
          [
            7.5970882497507946,
            2.26
          ],
          [
            152.40291175024922,
            2.26
          ]
        ]
      }
    },
    {
      "type": "Feature",
      "properties": {
        "kind": "hvac_path",
        "from": "PC_D4_S_F",
        "to": "PC_D4_S_A"
      },
      "geometry": {
        "type": "LineString",
        "coordinates": [
          [
            7.5970882497507946,
            18.74
          ],
          [
            152.40291175024922,
            18.74
          ]
        ]
      }
    },
    {
      "type": "Feature",
      "properties": {
        "kind": "hvac_path",
        "from": "PC_D4_P_F",
        "to": "PC_D4_S_F"
      },
      "geometry": {
        "type": "LineString",
        "coordinates": [
          [
            7.5970882497507946,
            2.26
          ],
          [
            7.5970882497507946,
            18.74
          ]
        ]
      }
    },
    {
      "type": "Feature",
      "properties": {
        "kind": "hvac_path",
        "from": "PC_D4_P_A",
        "to": "PC_D4_S_A"
      },
      "geometry": {
        "type": "LineString",
        "coordinates": [
          [
            152.40291175024922,
            2.26
          ],
          [
            152.40291175024922,
            18.74
          ]
        ]
      }
    },
    {
      "type": "Feature",
      "properties": {
        "kind": "hvac_path",
        "from": "PC_D5_P_F",
        "to": "PC_D5_P_A"
      },
      "geometry": {
        "type": "LineString",
        "coordinates": [
          [
            7.5970882497507946,
            2.26
          ],
          [
            152.40291175024922,
            2.26
          ]
        ]
      }
    },
    {
      "type": "Feature",
      "properties": {
        "kind": "hvac_path",
        "from": "PC_D5_S_F",
        "to": "PC_D5_S_A"
      },
      "geometry": {
        "type": "LineString",
        "coordinates": [
          [
            7.5970882497507946,
            18.74
          ],
          [
            152.40291175024922,
            18.74
          ]
        ]
      }
    },
    {
      "type": "Feature",
      "properties": {
        "kind": "hvac_path",
        "from": "PC_D5_P_F",
        "to": "PC_D5_S_F"
      },
      "geometry": {
        "type": "LineString",
        "coordinates": [
          [
            7.5970882497507946,
            2.26
          ],
          [
            7.5970882497507946,
            18.74
          ]
        ]
      }
    },
    {
      "type": "Feature",
      "properties": {
        "kind": "hvac_path",
        "from": "PC_D5_P_A",
        "to": "PC_D5_S_A"
      },
      "geometry": {
        "type": "LineString",
        "coordinates": [
          [
            152.40291175024922,
            2.26
          ],
          [
            152.40291175024922,
            18.74
          ]
        ]
      }
    },
    {
      "type": "Feature",
      "properties": {
        "kind": "hvac_path",
        "from": "PC_D6_P_F",
        "to": "PC_D6_P_A"
      },
      "geometry": {
        "type": "LineString",
        "coordinates": [
          [
            7.5970882497507946,
            2.26
          ],
          [
            152.40291175024922,
            2.26
          ]
        ]
      }
    },
    {
      "type": "Feature",
      "properties": {
        "kind": "hvac_path",
        "from": "PC_D6_S_F",
        "to": "PC_D6_S_A"
      },
      "geometry": {
        "type": "LineString",
        "coordinates": [
          [
            7.5970882497507946,
            18.74
          ],
          [
            152.40291175024922,
            18.74
          ]
        ]
      }
    },
    {
      "type": "Feature",
      "properties": {
        "kind": "hvac_path",
        "from": "PC_D6_P_F",
        "to": "PC_D6_S_F"
      },
      "geometry": {
        "type": "LineString",
        "coordinates": [
          [
            7.5970882497507946,
            2.26
          ],
          [
            7.5970882497507946,
            18.74
          ]
        ]
      }
    },
    {
      "type": "Feature",
      "properties": {
        "kind": "hvac_path",
        "from": "PC_D6_P_A",
        "to": "PC_D6_S_A"
      },
      "geometry": {
        "type": "LineString",
        "coordinates": [
          [
            152.40291175024922,
            2.26
          ],
          [
            152.40291175024922,
            18.74
          ]
        ]
      }
    },
    {
      "type": "Feature",
      "properties": {
        "kind": "hvac_path",
        "from": "CC_D2_F",
        "to": "CC_D2_A"
      },
      "geometry": {
        "type": "LineString",
        "coordinates": [
          [
            70.06792452830187,
            11.714285714285714
          ],
          [
            152.6,
            11.714285714285714
          ]
        ]
      }
    },
    {
      "type": "Feature",
      "properties": {
        "kind": "hvac_path",
        "from": "CC_D3_F",
        "to": "CC_D3_A"
      },
      "geometry": {
        "type": "LineString",
        "coordinates": [
          [
            7.3999999999999995,
            18.74
          ],
          [
            100.79999999999998,
            18.74
          ]
        ]
      }
    }
  ]
}