{
  "type": "FeatureCollection",
  "features": [
    {
      "type": "Feature",
      "properties": {
        "kind": "hull_outline",
        "platform_id": "enterprise_constitution_tos"
      },
      "geometry": {
        "type": "Polygon",
        "coordinates": [
          [
            [
              72.25,
              19.05
            ],
            [
              130.05,
              10.16
            ],
            [
              208.07999999999998,
              12.700000000000001
            ],
            [
              254.32,
              31.75
            ],
            [
              265.88,
              63.5
            ],
            [
              245.65,
              91.44
            ],
            [
              173.4,
              107.95
            ],
            [
              101.14999999999999,
              104.14
            ],
            [
              52.019999999999996,
              82.55
            ],
            [
              34.68,
              50.800000000000004
            ],
            [
              72.25,
              19.05
            ],
            [
              17.34,
              69.85000000000001
            ],
            [
              11.56,
              88.89999999999999
            ],
            [
              34.68,
              99.06
            ],
            [
              72.25,
              19.05
            ]
          ]
        ]
      }
    },
    {
      "type": "Feature",
      "properties": {
        "kind": "hull_waterline",
        "platform_id": "enterprise_constitution_tos"
      },
      "geometry": {
        "type": "Polygon",
        "coordinates": [
          [
            [
              76.03177142857143,
              22.388285714285708
            ],
            [
              129.20777142857145,
              14.209485714285712
            ],
            [
              200.99537142857142,
              16.546285714285716
            ],
            [
              243.53617142857144,
              34.07228571428571
            ],
            [
              254.17137142857143,
              63.28228571428571
            ],
            [
              235.55977142857142,
              88.98708571428571
            ],
            [
              169.08977142857145,
              104.17628571428571
            ],
            [
              102.61977142857143,
              100.67108571428571
            ],
            [
              57.42017142857142,
              80.80828571428572
            ],
            [
              41.467371428571425,
              51.598285714285716
            ],
            [
              76.03177142857143,
              22.388285714285708
            ],
            [
              25.51457142857143,
              69.12428571428572
            ],
            [
              20.19697142857143,
              86.6502857142857
            ],
            [
              41.467371428571425,
              95.99748571428572
            ],
            [
              76.03177142857143,
              22.388285714285708
            ]
          ]
        ]
      }
    },
    {
      "type": "Feature",
      "properties": {
        "kind": "compartment",
        "zone_id": "Bridge",
        "deck": "saucer_1",
        "room_type": "Free"
      },
      "geometry": {
        "type": "Polygon",
        "coordinates": [
          [
            [
              278.3877272810236,
              72.36511255142099
            ],
            [
              282.27227271897635,
              72.36511255142099
            ],
            [
              283.28906319635115,
              73.38190302879575
            ],
            [
              283.28906319635115,
              75.97009697120426
            ],
            [
              282.27227271897635,
              76.98688744857901
            ],
            [
              278.3877272810236,
              76.98688744857901
            ],
            [
              277.3709368036488,
              75.97009697120426
            ],
            [
              277.3709368036488,
              73.38190302879575
            ],
            [
              278.3877272810236,
              72.36511255142099
            ]
          ]
        ]
      }
    },
    {
      "type": "Feature",
      "properties": {
        "kind": "compartment",
        "zone_id": "BriefRoom",
        "deck": "saucer_1",
        "room_type": "Free"
      },
      "geometry": {
        "type": "Polygon",
        "coordinates": [
          [
            [
              7.23553653079627,
              117.6732965108139
            ],
            [
              10.10446346920373,
              117.6732965108139
            ],
            [
              10.855413004445612,
              118.42424604605577
            ],
            [
              10.855413004445612,
              120.33575395394422
            ],
            [
              10.10446346920373,
              121.08670348918609
            ],
            [
              7.23553653079627,
              121.08670348918609
            ],
            [
              6.484586995554388,
              120.33575395394422
            ],
            [
              6.484586995554388,
              118.42424604605577
            ],
            [
              7.23553653079627,
              117.6732965108139
            ]
          ]
        ]
      }
    },
    {
      "type": "Feature",
      "properties": {
        "kind": "compartment",
        "zone_id": "HD_1S_M",
        "deck": "saucer_1",
        "room_type": "Sanitary"
      },
      "geometry": {
        "type": "Polygon",
        "coordinates": [
          [
            [
              141.09430655999998,
              6.108576
            ],
            [
              143.63497343999998,
              6.108576
            ],
            [
              144.29999999999998,
              6.7736025600000005
            ],
            [
              144.29999999999998,
              8.46639744
            ],
            [
              143.63497343999998,
              9.131423999999999
            ],
            [
              141.09430655999998,
              9.131423999999999
            ],
            [
              140.42927999999998,
              8.46639744
            ],
            [
              140.42927999999998,
              6.7736025600000005
            ],
            [
              141.09430655999998,
              6.108576
            ]
          ]
        ]
      }
    },
    {
      "type": "Feature",
      "properties": {
        "kind": "compartment",
        "zone_id": "HD_1S_F",
        "deck": "saucer_1",
        "room_type": "Sanitary"
      },
      "geometry": {
        "type": "Polygon",
        "coordinates": [
          [
            [
              145.36502655999996,
              6.108576
            ],
            [
              147.90569343999996,
              6.108576
            ],
            [
              148.57071999999997,
              6.7736025600000005
            ],
            [
              148.57071999999997,
              8.46639744
            ],
            [
              147.90569343999996,
              9.131423999999999
            ],
            [
              145.36502655999996,
              9.131423999999999
            ],
            [
              144.69999999999996,
              8.46639744
            ],
            [
              144.69999999999996,
              6.7736025600000005
            ],
            [
              145.36502655999996,
              6.108576
            ]
          ]
        ]
      }
    },
    {
      "type": "Feature",
      "properties": {
        "kind": "compartment",
        "zone_id": "Comms",
        "deck": "saucer_2",
        "room_type": "Free"
      },
      "geometry": {
        "type": "Polygon",
        "coordinates": [
          [
            [
              278.9516,
              73.036
            ],
            [
              281.7084,
              73.036
            ],
            [
              282.43,
              73.7576
            ],
            [
              282.43,
              75.59440000000001
            ],
            [
              281.7084,
              76.316
            ],
            [
              278.9516,
              76.316
            ],
            [
              278.22999999999996,
              75.59440000000001
            ],
            [
              278.22999999999996,
              73.7576
            ],
            [
              278.9516,
              73.036
            ]
          ]
        ]
      }
    },
    {
      "type": "Feature",
      "properties": {
        "kind": "compartment",
        "zone_id": "Library",
        "deck": "saucer_2",
        "room_type": "Free"
      },
      "geometry": {
        "type": "Polygon",
        "coordinates": [
          [
            [
              7.066221085810142,
              117.4718474903719
            ],
            [
              10.273778914189858,
              117.4718474903719
            ],
            [
              11.11336601842622,
              118.31143459460826
            ],
            [
              11.11336601842622,
              120.44856540539173
            ],
            [
              10.273778914189858,
              121.28815250962809
            ],
            [
              7.066221085810142,
              121.28815250962809
            ],
            [
              6.22663398157378,
              120.44856540539173
            ],
            [
              6.22663398157378,
              118.31143459460826
            ],
            [
              7.066221085810142,
              117.4718474903719
            ]
          ]
        ]
      }
    },
    {
      "type": "Feature",
      "properties": {
        "kind": "compartment",
        "zone_id": "HD_2S_M",
        "deck": "saucer_2",
        "room_type": "Sanitary"
      },
      "geometry": {
        "type": "Polygon",
        "coordinates": [
          [
            [
              141.09430655999998,
              6.108576
            ],
            [
              143.63497343999998,
              6.108576
            ],
            [
              144.29999999999998,
              6.7736025600000005
            ],
            [
              144.29999999999998,
              8.46639744
            ],
            [
              143.63497343999998,
              9.131423999999999
            ],
            [
              141.09430655999998,
              9.131423999999999
            ],
            [
              140.42927999999998,
              8.46639744
            ],
            [
              140.42927999999998,
              6.7736025600000005
            ],
            [
              141.09430655999998,
              6.108576
            ]
          ]
        ]
      }
    },
    {
      "type": "Feature",
      "properties": {
        "kind": "compartment",
        "zone_id": "HD_2S_F",
        "deck": "saucer_2",
        "room_type": "Sanitary"
      },
      "geometry": {
        "type": "Polygon",
        "coordinates": [
          [
            [
              145.36502655999996,
              6.108576
            ],
            [
              147.90569343999996,
              6.108576
            ],
            [
              148.57071999999997,
              6.7736025600000005
            ],
            [
              148.57071999999997,
              8.46639744
            ],
            [
              147.90569343999996,
              9.131423999999999
            ],
            [
              145.36502655999996,
              9.131423999999999
            ],
            [
              144.69999999999996,
              8.46639744
            ],
            [
              144.69999999999996,
              6.7736025600000005
            ],
            [
              145.36502655999996,
              6.108576
            ]
          ]
        ]
      }
    },
    {
      "type": "Feature",
      "properties": {
        "kind": "compartment",
        "zone_id": "Sickbay",
        "deck": "saucer_3",
        "room_type": "Medical"
      },
      "geometry": {
        "type": "Polygon",
        "coordinates": [
          [
            [
              6.818115624343679,
              79.92332193648939
            ],
            [
              10.52188437565632,
              79.92332193648939
            ],
            [
              11.491356056934325,
              80.89279361776738
            ],
            [
              11.491356056934325,
              83.36053971556595
            ],
            [
              10.52188437565632,
              84.33001139684394
            ],
            [
              6.818115624343679,
              84.33001139684394
            ],
            [
              5.848643943065675,
              83.36053971556595
            ],
            [
              5.848643943065675,
              80.89279361776738
            ],
            [
              6.818115624343679,
              79.92332193648939
            ]
          ]
        ]
      }
    },
    {
      "type": "Feature",
      "properties": {
        "kind": "compartment",
        "zone_id": "IsolBay1",
        "deck": "saucer_3",
        "room_type": "Medical"
      },
      "geometry": {
        "type": "Polygon",
        "coordinates": [
          [
            [
              188.39826666666661,
              117.74
            ],
            [
              191.1550666666666,
              117.74
            ],
            [
              191.8766666666666,
              118.46159999999999
            ],
            [
              191.8766666666666,
              120.2984
            ],
            [
              191.1550666666666,
              121.02
            ],
            [
              188.39826666666661,
              121.02
            ],
            [
              187.67666666666662,
              120.2984
            ],
            [
              187.67666666666662,
              118.46159999999999
            ],
            [
              188.39826666666661,
              117.74
            ]
          ]
        ]
      }
    },
    {
      "type": "Feature",
      "properties": {
        "kind": "compartment",
        "zone_id": "IsolBay2",
        "deck": "saucer_3",
        "room_type": "Medical"
      },
      "geometry": {
        "type": "Polygon",
        "coordinates": [
          [
            [
              278.9516,
              117.74
            ],
            [
              281.7084,
              117.74
            ],
            [
              282.43,
              118.46159999999999
            ],
            [
              282.43,
              120.2984
            ],
            [
              281.7084,
              121.02
            ],
            [
              278.9516,
              121.02
            ],
            [
              278.22999999999996,
              120.2984
            ],
            [
              278.22999999999996,
              118.46159999999999
            ],
            [
              278.9516,
              117.74
            ]
          ]
        ]
      }
    },
    {
      "type": "Feature",
      "properties": {
        "kind": "compartment",
        "zone_id": "HD_3S_M",
        "deck": "saucer_3",
        "room_type": "Sanitary"
      },
      "geometry": {
        "type": "Polygon",
        "coordinates": [
          [
            [
              5.26430656,
              6.108576
            ],
            [
              7.8049734399999995,
              6.108576
            ],
            [
              8.469999999999999,
              6.7736025600000005
            ],
            [
              8.469999999999999,
              8.46639744
            ],
            [
              7.8049734399999995,
              9.131423999999999
            ],
            [
              5.26430656,
              9.131423999999999
            ],
            [
              4.59928,
              8.46639744
            ],
            [
              4.59928,
              6.7736025600000005
            ],
            [
              5.26430656,
              6.108576
            ]
          ]
        ]
      }
    },
    {
      "type": "Feature",
      "properties": {
        "kind": "compartment",
        "zone_id": "HD_3S_F",
        "deck": "saucer_3",
        "room_type": "Sanitary"
      },
      "geometry": {
        "type": "Polygon",
        "coordinates": [
          [
            [
              9.53502656,
              6.108576
            ],
            [
              12.07569344,
              6.108576
            ],
            [
              12.74072,
              6.7736025600000005
            ],
            [
              12.74072,
              8.46639744
            ],
            [
              12.07569344,
              9.131423999999999
            ],
            [
              9.53502656,
              9.131423999999999
            ],
            [
              8.870000000000001,
              8.46639744
            ],
            [
              8.870000000000001,
              6.7736025600000005
            ],
            [
              9.53502656,
              6.108576
            ]
          ]
        ]
      }
    },
    {
      "type": "Feature",
      "properties": {
        "kind": "compartment",
        "zone_id": "Science1",
        "deck": "saucer_4",
        "room_type": "Free"
      },
      "geometry": {
        "type": "Polygon",
        "coordinates": [
          [
            [
              61.24514822289414,
              33.46972365463319
            ],
            [
              64.75885177710585,
              33.46972365463319
            ],
            [
              65.67857336906724,
              34.38944524659459
            ],
            [
              65.67857336906724,
              36.7305547534054
            ],
            [
              64.75885177710585,
              37.6502763453668
            ],
            [
              61.24514822289414,
              37.6502763453668
            ],
            [
              60.32542663093274,
              36.7305547534054
            ],
            [
              60.32542663093274,
              34.38944524659459
            ],
            [
              61.24514822289414,
              33.46972365463319
            ]
          ]
        ]
      }
    },
    {
      "type": "Feature",
      "properties": {
        "kind": "compartment",
        "zone_id": "Science2",
        "deck": "saucer_4",
        "room_type": "Free"
      },
      "geometry": {
        "type": "Polygon",
        "coordinates": [
          [
            [
              142.84362425982505,
              61.529268562183056
            ],
            [
              146.1563757401749,
              61.529268562183056
            ],
            [
              147.02349757281434,
              62.39639039482251
            ],
            [
              147.02349757281434,
              64.60360960517748
            ],
            [
              146.1563757401749,
              65.47073143781692
            ],
            [
              142.84362425982505,
              65.47073143781692
            ],
            [
              141.9765024271856,
              64.60360960517748
            ],
            [
              141.9765024271856,
              62.39639039482251
            ],
            [
              142.84362425982505,
              61.529268562183056
            ]
          ]
        ]
      }
    },
    {
      "type": "Feature",
      "properties": {
        "kind": "compartment",
        "zone_id": "Transprt1",
        "deck": "saucer_4",
        "room_type": "Free"
      },
      "geometry": {
        "type": "Polygon",
        "coordinates": [
          [
            [
              7.2916,
              89.8
            ],
            [
              10.048399999999999,
              89.8
            ],
            [
              10.77,
              90.52159999999999
            ],
            [
              10.77,
              92.3584
            ],
            [
              10.048399999999999,
              93.08
            ],
            [
              7.2916,
              93.08
            ],
            [
              6.57,
              92.3584
            ],
            [
              6.57,
              90.52159999999999
            ],
            [
              7.2916,
              89.8
            ]
          ]
        ]
      }
    },
    {
      "type": "Feature",
      "properties": {
        "kind": "compartment",
        "zone_id": "EC_D4_P_F",
        "deck": "saucer_4",
        "room_type": "Cabin_Corridor"
      },
      "geometry": {
        "type": "Polygon",
        "coordinates": [
          [
            [
              55.41423619047618,
              61.62262616189528
            ],
            [
              70.5897638095238,
              61.62262616189528
            ],
            [
              74.56199999999998,
              62.448670650661356
            ],
            [
              74.56199999999998,
              64.55132934933863
            ],
            [
              70.5897638095238,
              65.3773738381047
            ],
            [
              55.41423619047618,
              65.3773738381047
            ],
            [
              51.44199999999998,
              64.55132934933863
            ],
            [
              51.44199999999998,
              62.448670650661356
            ],
            [
              55.41423619047618,
              61.62262616189528
            ]
          ]
        ]
      }
    },
    {
      "type": "Feature",
      "properties": {
        "kind": "compartment",
        "zone_id": "EC_D4_P_A",
        "deck": "saucer_4",
        "room_type": "Cabin_Corridor"
      },
      "geometry": {
        "type": "Polygon",
        "coordinates": [
          [
            [
              268.8522361904763,
              61.62262616189528
            ],
            [
              284.0277638095237,
              61.62262616189528
            ],
            [
              288.0,
              62.448670650661356
            ],
            [
              288.0,
              64.55132934933863
            ],
            [
              284.0277638095237,
              65.3773738381047
            ],
            [
              268.8522361904763,
              65.3773738381047
            ],
            [
              264.88,
              64.55132934933863
            ],
            [
              264.88,
              62.448670650661356
            ],
            [
              268.8522361904763,
              61.62262616189528
            ]
          ]
        ]
      }
    },
    {
      "type": "Feature",
      "properties": {
        "kind": "compartment",
        "zone_id": "EC_D4_S_F",
        "deck": "saucer_4",
        "room_type": "Cabin_Corridor"
      },
      "geometry": {
        "type": "Polygon",
        "coordinates": [
          [
            [
              55.41423619047618,
              117.5026261618953
            ],
            [
              70.5897638095238,
              117.5026261618953
            ],
            [
              74.56199999999998,
              118.32867065066135
            ],
            [
              74.56199999999998,
              120.43132934933864
            ],
            [
              70.5897638095238,
              121.2573738381047
            ],
            [
              55.41423619047618,
              121.2573738381047
            ],
            [
              51.44199999999998,
              120.43132934933864
            ],
            [
              51.44199999999998,
              118.32867065066135
            ],
            [
              55.41423619047618,
              117.5026261618953
            ]
          ]
        ]
      }
    },
    {
      "type": "Feature",
      "properties": {
        "kind": "compartment",
        "zone_id": "EC_D4_S_A",
        "deck": "saucer_4",
        "room_type": "Cabin_Corridor"
      },
      "geometry": {
        "type": "Polygon",
        "coordinates": [
          [
            [
              268.8522361904763,
              117.5026261618953
            ],
            [
              284.0277638095237,
              117.5026261618953
            ],
            [
              288.0,
              118.32867065066135
            ],
            [
              288.0,
              120.43132934933864
            ],
            [
              284.0277638095237,
              121.2573738381047
            ],
            [
              268.8522361904763,
              121.2573738381047
            ],
            [
              264.88,
              120.43132934933864
            ],
            [
              264.88,
              118.32867065066135
            ],
            [
              268.8522361904763,
              117.5026261618953
            ]
          ]
        ]
      }
    },
    {
      "type": "Feature",
      "properties": {
        "kind": "compartment",
        "zone_id": "HD_4S_M",
        "deck": "saucer_4",
        "room_type": "Sanitary"
      },
      "geometry": {
        "type": "Polygon",
        "coordinates": [
          [
            [
              68.65163989333327,
              6.108576
            ],
            [
              71.19230677333327,
              6.108576
            ],
            [
              71.85733333333327,
              6.7736025600000005
            ],
            [
              71.85733333333327,
              8.46639744
            ],
            [
              71.19230677333327,
              9.131423999999999
            ],
            [
              68.65163989333327,
              9.131423999999999
            ],
            [
              67.98661333333327,
              8.46639744
            ],
            [
              67.98661333333327,
              6.7736025600000005
            ],
            [
              68.65163989333327,
              6.108576
            ]
          ]
        ]
      }
    },
    {
      "type": "Feature",
      "properties": {
        "kind": "compartment",
        "zone_id": "HD_4S_F",
        "deck": "saucer_4",
        "room_type": "Sanitary"
      },
      "geometry": {
        "type": "Polygon",
        "coordinates": [
          [
            [
              72.92235989333328,
              6.108576
            ],
            [
              75.46302677333328,
              6.108576
            ],
            [
              76.12805333333328,
              6.7736025600000005
            ],
            [
              76.12805333333328,
              8.46639744
            ],
            [
              75.46302677333328,
              9.131423999999999
            ],
            [
              72.92235989333328,
              9.131423999999999
            ],
            [
              72.25733333333328,
              8.46639744
            ],
            [
              72.25733333333328,
              6.7736025600000005
            ],
            [
              72.92235989333328,
              6.108576
            ]
          ]
        ]
      }
    },
    {
      "type": "Feature",
      "properties": {
        "kind": "compartment",
        "zone_id": "Transprt2",
        "deck": "saucer_5",
        "room_type": "Free"
      },
      "geometry": {
        "type": "Polygon",
        "coordinates": [
          [
            [
              7.2916,
              89.8
            ],
            [
              10.048399999999999,
              89.8
            ],
            [
              10.77,
              90.52159999999999
            ],
            [
              10.77,
              92.3584
            ],
            [
              10.048399999999999,
              93.08
            ],
            [
              7.2916,
              93.08
            ],
            [
              6.57,
              92.3584
            ],
            [
              6.57,
              90.52159999999999
            ],
            [
              7.2916,
              89.8
            ]
          ]
        ]
      }
    },
    {
      "type": "Feature",
      "properties": {
        "kind": "compartment",
        "zone_id": "Security",
        "deck": "saucer_5",
        "room_type": "Free"
      },
      "geometry": {
        "type": "Polygon",
        "coordinates": [
          [
            [
              106.07705454545454,
              103.77
            ],
            [
              108.83385454545454,
              103.77
            ],
            [
              109.55545454545454,
              104.49159999999999
            ],
            [
              109.55545454545454,
              106.3284
            ],
            [
              108.83385454545454,
              107.05
            ],
            [
              106.07705454545454,
              107.05
            ],
            [
              105.35545454545455,
              106.3284
            ],
            [
              105.35545454545455,
              104.49159999999999
            ],
            [
              106.07705454545454,
              103.77
            ]
          ]
        ]
      }
    },
    {
      "type": "Feature",
      "properties": {
        "kind": "compartment",
        "zone_id": "Brig",
        "deck": "saucer_5",
        "room_type": "Room"
      },
      "geometry": {
        "type": "Polygon",
        "coordinates": [
          [
            [
              155.47218181818178,
              117.28
            ],
            [
              158.2241818181818,
              117.28
            ],
            [
              159.1481818181818,
              118.20400000000001
            ],
            [
              159.1481818181818,
              120.55599999999998
            ],
            [
              158.2241818181818,
              121.47999999999999
            ],
            [
              155.47218181818178,
              121.47999999999999
            ],
            [
              154.54818181818177,
              120.55599999999998
            ],
            [
              154.54818181818177,
              118.20400000000001
            ],
            [
              155.47218181818178,
              117.28
            ]
          ]
        ]
      }
    },
    {
      "type": "Feature",
      "properties": {
        "kind": "compartment",
        "zone_id": "EC_D5_P_F",
        "deck": "saucer_5",
        "room_type": "Cabin_Corridor"
      },
      "geometry": {
        "type": "Polygon",
        "coordinates": [
          [
            [
              73.9323012883117,
              5.817721115419481
            ],
            [
              88.50080780259746,
              5.817721115419481
            ],
            [
              92.31415454545458,
              6.610723824634909
            ],
            [
              92.31415454545458,
              8.62927617536509
            ],
            [
              88.50080780259746,
              9.42227888458052
            ],
            [
              73.9323012883117,
              9.42227888458052
            ],
            [
              70.11895454545459,
              8.62927617536509
            ],
            [
              70.11895454545459,
              6.610723824634909
            ],
            [
              73.9323012883117,
              5.817721115419481
            ]
          ]
        ]
      }
    },
    {
      "type": "Feature",
      "properties": {
        "kind": "compartment",
        "zone_id": "EC_D5_P_A",
        "deck": "saucer_5",
        "room_type": "Cabin_Corridor"
      },
      "geometry": {
        "type": "Polygon",
        "coordinates": [
          [
            [
              268.8522361904763,
              5.742626161895292
            ],
            [
              284.0277638095237,
              5.742626161895292
            ],
            [
              288.0,
              6.568670650661364
            ],
            [
              288.0,
              8.671329349338636
            ],
            [
              284.0277638095237,
              9.497373838104707
            ],
            [
              268.8522361904763,
              9.497373838104707
            ],
            [
              264.88,
              8.671329349338636
            ],
            [
              264.88,
              6.568670650661364
            ],
            [
              268.8522361904763,
              5.742626161895292
            ]
          ]
        ]
      }
    },
    {
      "type": "Feature",
      "properties": {
        "kind": "compartment",
        "zone_id": "EC_D5_S_F",
        "deck": "saucer_5",
        "room_type": "Cabin_Corridor"
      },
      "geometry": {
        "type": "Polygon",
        "coordinates": [
          [
            [
              75.17132709956708,
              33.682626161895286
            ],
            [
              90.34685471861472,
              33.682626161895286
            ],
            [
              94.3190909090909,
              34.50867065066136
            ],
            [
              94.3190909090909,
              36.61132934933863
            ],
            [
              90.34685471861472,
              37.437373838104705
            ],
            [
              75.17132709956708,
              37.437373838104705
            ],
            [
              71.1990909090909,
              36.61132934933863
            ],
            [
              71.1990909090909,
              34.50867065066136
            ],
            [
              75.17132709956708,
              33.682626161895286
            ]
          ]
        ]
      }
    },
    {
      "type": "Feature",
      "properties": {
        "kind": "compartment",
        "zone_id": "EC_D5_S_A",
        "deck": "saucer_5",
        "room_type": "Cabin_Corridor"
      },
      "geometry": {
        "type": "Polygon",
        "coordinates": [
          [
            [
              268.8522361904763,
              33.682626161895286
            ],
            [
              284.0277638095237,
              33.682626161895286
            ],
            [
              288.0,
              34.50867065066136
            ],
            [
              288.0,
              36.61132934933863
            ],
            [
              284.0277638095237,
              37.437373838104705
            ],
            [
              268.8522361904763,
              37.437373838104705
            ],
            [
              264.88,
              36.61132934933863
            ],
            [
              264.88,
              34.50867065066136
            ],
            [
              268.8522361904763,
              33.682626161895286
            ]
          ]
        ]
      }
    },
    {
      "type": "Feature",
      "properties": {
        "kind": "compartment",
        "zone_id": "OC_D5_F",
        "deck": "saucer_5",
        "room_type": "Cabin_Corridor"
      },
      "geometry": {
        "type": "Polygon",
        "coordinates": [
          [
            [
              96.5275012883117,
              6.2434867646648655
            ],
            [
              111.09600780259746,
              6.2434867646648655
            ],
            [
              114.90935454545458,
              6.849152588212324
            ],
            [
              114.90935454545458,
              8.390847411787675
            ],
            [
              111.09600780259746,
              8.996513235335135
            ],
            [
              96.5275012883117,
              8.996513235335135
            ],
            [
              92.71415454545458,
              8.390847411787675
            ],
            [
              92.71415454545458,
              6.849152588212324
            ],
            [
              96.5275012883117,
              6.2434867646648655
            ]
          ]
        ]
      }
    },
    {
      "type": "Feature",
      "properties": {
        "kind": "compartment",
        "zone_id": "OC_D5_M",
        "deck": "saucer_5",
        "room_type": "Cabin_Corridor"
      },
      "geometry": {
        "type": "Polygon",
        "coordinates": [
          [
            [
              168.7705452813853,
              6.186132046525901
            ],
            [
              183.94607290043297,
              6.186132046525901
            ],
            [
              187.91830909090913,
              6.817033946054504
            ],
            [
              187.91830909090913,
              8.422966053945494
            ],
            [
              183.94607290043297,
              9.053867953474098
            ],
            [
              168.7705452813853,
              9.053867953474098
            ],
            [
              164.79830909090913,
              8.422966053945494
            ],
            [
              164.79830909090913,
              6.817033946054504
            ],
            [
              168.7705452813853,
              6.186132046525901
            ]
          ]
        ]
      }
    },
    {
      "type": "Feature",
      "properties": {
        "kind": "compartment",
        "zone_id": "OC_D5_A",
        "deck": "saucer_5",
        "room_type": "Cabin_Corridor"
      },
      "geometry": {
        "type": "Polygon",
        "coordinates": [
          [
            [
              242.8596361904762,
              6.186132046525901
            ],
            [
              258.03516380952385,
              6.186132046525901
            ],
            [
              262.0074,
              6.817033946054504
            ],
            [
              262.0074,
              8.422966053945494
            ],
            [
              258.03516380952385,
              9.053867953474098
            ],
            [
              242.8596361904762,
              9.053867953474098
            ],
            [
              238.88740000000004,
              8.422966053945494
            ],
            [
              238.88740000000004,
              6.817033946054504
            ],
            [
              242.8596361904762,
              6.186132046525901
            ]
          ]
        ]
      }
    },
    {
      "type": "Feature",
      "properties": {
        "kind": "compartment",
        "zone_id": "HD_5S_M",
        "deck": "saucer_5",
        "room_type": "Sanitary"
      },
      "geometry": {
        "type": "Polygon",
        "coordinates": [
          [
            [
              54.65703383272727,
              68.973576
            ],
            [
              57.197700712727276,
              68.973576
            ],
            [
              57.86272727272728,
              69.63860256
            ],
            [
              57.86272727272728,
              71.33139744
            ],
            [
              57.197700712727276,
              71.996424
            ],
            [
              54.65703383272727,
              71.996424
            ],
            [
              53.99200727272727,
              71.33139744
            ],
            [
              53.99200727272727,
              69.63860256
            ],
            [
              54.65703383272727,
              68.973576
            ]
          ]
        ]
      }
    },
    {
      "type": "Feature",
      "properties": {
        "kind": "compartment",
        "zone_id": "HD_5S_F",
        "deck": "saucer_5",
        "room_type": "Sanitary"
      },
      "geometry": {
        "type": "Polygon",
        "coordinates": [
          [
            [
              58.92775383272727,
              68.973576
            ],
            [
              61.46842071272727,
              68.973576
            ],
            [
              62.133447272727274,
              69.63860256
            ],
            [
              62.133447272727274,
              71.33139744
            ],
            [
              61.46842071272727,
              71.996424
            ],
            [
              58.92775383272727,
              71.996424
            ],
            [
              58.26272727272727,
              71.33139744
            ],
            [
              58.26272727272727,
              69.63860256
            ],
            [
              58.92775383272727,
              68.973576
            ]
          ]
        ]
      }
    },
    {
      "type": "Feature",
      "properties": {
        "kind": "compartment",
        "zone_id": "RecDeck",
        "deck": "saucer_6",
        "room_type": "Dining"
      },
      "geometry": {
        "type": "Polygon",
        "coordinates": [
          [
            [
              59.06562064872807,
              32.30067197109588
            ],
            [
              66.93837935127193,
              32.30067197109588
            ],
            [
              68.37248368398974,
              33.73477630381369
            ],
            [
              68.37248368398974,
              37.3852236961863
            ],
            [
              66.93837935127193,
              38.81932802890411
            ],
            [
              59.06562064872807,
              38.81932802890411
            ],
            [
              57.63151631601026,
              37.3852236961863
            ],
            [
              57.63151631601026,
              33.73477630381369
            ],
            [
              59.06562064872807,
              32.30067197109588
            ]
          ]
        ]
      }
    },
    {
      "type": "Feature",
      "properties": {
        "kind": "compartment",
        "zone_id": "Gym",
        "deck": "saucer_6",
        "room_type": "Free"
      },
      "geometry": {
        "type": "Polygon",
        "coordinates": [
          [
            [
              102.09462425982507,
              61.529268562183056
            ],
            [
              105.40737574017491,
              61.529268562183056
            ],
            [
              106.27449757281435,
              62.39639039482251
            ],
            [
              106.27449757281435,
              64.60360960517748
            ],
            [
              105.40737574017491,
              65.47073143781692
            ],
            [
              102.09462425982507,
              65.47073143781692
            ],
            [
              101.22750242718563,
              64.60360960517748
            ],
            [
              101.22750242718563,
              62.39639039482251
            ],
            [
              102.09462425982507,
              61.529268562183056
            ]
          ]
        ]
      }
    },
    {
      "type": "Feature",
      "properties": {
        "kind": "compartment",
        "zone_id": "Galley",
        "deck": "saucer_6",
        "room_type": "Dining"
      },
      "geometry": {
        "type": "Polygon",
        "coordinates": [
          [
            [
              33.281739790107515,
              89.32506870087938
            ],
            [
              38.39026020989248,
              89.32506870087938
            ],
            [
              39.320829981505554,
              90.25563847249245
            ],
            [
              39.320829981505554,
              92.62436152750755
            ],
            [
              38.39026020989248,
              93.55493129912061
            ],
            [
              33.281739790107515,
              93.55493129912061
            ],
            [
              32.35117001849444,
              92.62436152750755
            ],
            [
              32.35117001849444,
              90.25563847249245
            ],
            [
              33.281739790107515,
              89.32506870087938
            ]
          ]
        ]
      }
    },
    {
      "type": "Feature",
      "properties": {
        "kind": "compartment",
        "zone_id": "Mess_Hall",
        "deck": "saucer_6",
        "room_type": "Dining"
      },
      "geometry": {
        "type": "Polygon",
        "coordinates": [
          [
            [
              5.291031350438421,
              116.58220887127004
            ],
            [
              12.04896864956158,
              116.58220887127004
            ],
            [
              13.279996746202755,
              117.81323696791122
            ],
            [
              13.279996746202755,
              120.94676303208877
            ],
            [
              12.04896864956158,
              122.17779112872995
            ],
            [
              5.291031350438421,
              122.17779112872995
            ],
            [
              4.060003253797244,
              120.94676303208877
            ],
            [
              4.060003253797244,
              117.81323696791122
            ],
            [
              5.291031350438421,
              116.58220887127004
            ]
          ]
        ]
      }
    },
    {
      "type": "Feature",
      "properties": {
        "kind": "compartment",
        "zone_id": "EC_D6_P_F",
        "deck": "saucer_6",
        "room_type": "Cabin_Corridor"
      },
      "geometry": {
        "type": "Polygon",
        "coordinates": [
          [
            [
              158.44943174285714,
              5.817721115419481
            ],
            [
              173.01793825714287,
              5.817721115419481
            ],
            [
              176.831285,
              6.610723824634909
            ],
            [
              176.831285,
              8.62927617536509
            ],
            [
              173.01793825714287,
              9.42227888458052
            ],
            [
              158.44943174285714,
              9.42227888458052
            ],
            [
              154.636085,
              8.62927617536509
            ],
            [
              154.636085,
              6.610723824634909
            ],
            [
              158.44943174285714,
              5.817721115419481
            ]
          ]
        ]
      }
    },
    {
      "type": "Feature",
      "properties": {
        "kind": "compartment",
        "zone_id": "EC_D6_P_A",
        "deck": "saucer_6",
        "room_type": "Cabin_Corridor"
      },
      "geometry": {
        "type": "Polygon",
        "coordinates": [
          [
            [
              270.9037056082172,
              5.9590197799705935
            ],
            [
              284.33004121178277,
              5.9590197799705935
            ],
            [
              287.84442157,
              6.689851076783532
            ],
            [
              287.84442157,
              8.550148923216467
            ],
            [
              284.33004121178277,
              9.280980220029406
            ],
            [
              270.9037056082172,
              9.280980220029406
            ],
            [
              267.38932524999996,
              8.550148923216467
            ],
            [
              267.38932524999996,
              6.689851076783532
            ],
            [
              270.9037056082172,
              5.9590197799705935
            ]
          ]
        ]
      }
    },
    {
      "type": "Feature",
      "properties": {
        "kind": "compartment",
        "zone_id": "EC_D6_S_F",
        "deck": "saucer_6",
        "room_type": "Cabin_Corridor"
      },
      "geometry": {
        "type": "Polygon",
        "coordinates": [
          [
            [
              164.07823619047613,
              61.62262616189528
            ],
            [
              179.2537638095238,
              61.62262616189528
            ],
            [
              183.22599999999997,
              62.448670650661356
            ],
            [
              183.22599999999997,
              64.55132934933863
            ],
            [
              179.2537638095238,
              65.3773738381047
            ],
            [
              164.07823619047613,
              65.3773738381047
            ],
            [
              160.10599999999997,
              64.55132934933863
            ],
            [
              160.10599999999997,
              62.448670650661356
            ],
            [
              164.07823619047613,
              61.62262616189528
            ]
          ]
        ]
      }
    },
    {
      "type": "Feature",
      "properties": {
        "kind": "compartment",
        "zone_id": "EC_D6_S_A",
        "deck": "saucer_6",
        "room_type": "Cabin_Corridor"
      },
      "geometry": {
        "type": "Polygon",
        "coordinates": [
          [
            [
              268.8522361904763,
              61.62262616189528
            ],
            [
              284.0277638095237,
              61.62262616189528
            ],
            [
              288.0,
              62.448670650661356
            ],
            [
              288.0,
              64.55132934933863
            ],
            [
              284.0277638095237,
              65.3773738381047
            ],
            [
              268.8522361904763,
              65.3773738381047
            ],
            [
              264.88,
              64.55132934933863
            ],
            [
              264.88,
              62.448670650661356
            ],
            [
              268.8522361904763,
              61.62262616189528
            ]
          ]
        ]
      }
    },
    {
      "type": "Feature",
      "properties": {
        "kind": "compartment",
        "zone_id": "OC_D6_F",
        "deck": "saucer_6",
        "room_type": "Cabin_Corridor"
      },
      "geometry": {
        "type": "Polygon",
        "coordinates": [
          [
            [
              181.04463174285712,
              6.2434867646648655
            ],
            [
              195.61313825714285,
              6.2434867646648655
            ],
            [
              199.42648499999999,
              6.849152588212324
            ],
            [
              199.42648499999999,
              8.390847411787675
            ],
            [
              195.61313825714285,
              8.996513235335135
            ],
            [
              181.04463174285712,
              8.996513235335135
            ],
            [
              177.23128499999999,
              8.390847411787675
            ],
            [
              177.23128499999999,
              6.849152588212324
            ],
            [
              181.04463174285712,
              6.2434867646648655
            ]
          ]
        ]
      }
    },
    {
      "type": "Feature",
      "properties": {
        "kind": "compartment",
        "zone_id": "OC_D6_M",
        "deck": "saucer_6",
        "room_type": "Cabin_Corridor"
      },
      "geometry": {
        "type": "Polygon",
        "coordinates": [
          [
            [
              215.55780619047619,
              6.186132046525901
            ],
            [
              230.73333380952386,
              6.186132046525901
            ],
            [
              234.70557000000002,
              6.817033946054504
            ],
            [
              234.70557000000002,
              8.422966053945494
            ],
            [
              230.73333380952386,
              9.053867953474098
            ],
            [
              215.55780619047619,
              9.053867953474098
            ],
            [
              211.58557000000002,
              8.422966053945494
            ],
            [
              211.58557000000002,
              6.817033946054504
            ],
            [
              215.55780619047619,
              6.186132046525901
            ]
          ]
        ]
      }
    },
    {
      "type": "Feature",
      "properties": {
        "kind": "compartment",
        "zone_id": "OC_D6_A",
        "deck": "saucer_6",
        "room_type": "Cabin_Corridor"
      },
      "geometry": {
        "type": "Polygon",
        "coordinates": [
          [
            [
              250.0486092882172,
              6.35140540231514
            ],
            [
              263.47494489178285,
              6.35140540231514
            ],
            [
              266.9893252500001,
              6.909587025296478
            ],
            [
              266.9893252500001,
              8.33041297470352
            ],
            [
              263.47494489178285,
              8.888594597684861
            ],
            [
              250.0486092882172,
              8.888594597684861
            ],
            [
              246.53422893000007,
              8.33041297470352
            ],
            [
              246.53422893000007,
              6.909587025296478
            ],
            [
              250.0486092882172,
              6.35140540231514
            ]
          ]
        ]
      }
    },
    {
      "type": "Feature",
      "properties": {
        "kind": "compartment",
        "zone_id": "HD_6S_M",
        "deck": "saucer_6",
        "room_type": "Sanitary"
      },
      "geometry": {
        "type": "Polygon",
        "coordinates": [
          [
            [
              49.409056559999996,
              20.078576
            ],
            [
              51.94972344,
              20.078576
            ],
            [
              52.61475,
              20.74360256
            ],
            [
              52.61475,
              22.43639744
            ],
            [
              51.94972344,
              23.101423999999998
            ],
            [
              49.409056559999996,
              23.101423999999998
            ],
            [
              48.744029999999995,
              22.43639744
            ],
            [
              48.744029999999995,
              20.74360256
            ],
            [
              49.409056559999996,
              20.078576
            ]
          ]
        ]
      }
    },
    {
      "type": "Feature",
      "properties": {
        "kind": "compartment",
        "zone_id": "HD_6S_F",
        "deck": "saucer_6",
        "room_type": "Sanitary"
      },
      "geometry": {
        "type": "Polygon",
        "coordinates": [
          [
            [
              53.67977655999999,
              20.078576
            ],
            [
              56.22044344,
              20.078576
            ],
            [
              56.88547,
              20.74360256
            ],
            [
              56.88547,
              22.43639744
            ],
            [
              56.22044344,
              23.101423999999998
            ],
            [
              53.67977655999999,
              23.101423999999998
            ],
            [
              53.01474999999999,
              22.43639744
            ],
            [
              53.01474999999999,
              20.74360256
            ],
            [
              53.67977655999999,
              20.078576
            ]
          ]
        ]
      }
    },
    {
      "type": "Feature",
      "properties": {
        "kind": "compartment",
        "zone_id": "StoresDry",
        "deck": "saucer_7",
        "room_type": "Free"
      },
      "geometry": {
        "type": "Polygon",
        "coordinates": [
          [
            [
              6.7277272810235935,
              53.20625540856384
            ],
            [
              10.612272718976405,
              53.20625540856384
            ],
            [
              11.629063196351169,
              54.22304588593861
            ],
            [
              11.629063196351169,
              56.81123982834709
            ],
            [
              10.612272718976405,
              57.82803030572186
            ],
            [
              6.7277272810235935,
              57.82803030572186
            ],
            [
              5.71093680364883,
              56.81123982834709
            ],
            [
              5.71093680364883,
              54.22304588593861
            ],
            [
              6.7277272810235935,
              53.20625540856384
            ]
          ]
        ]
      }
    },
    {
      "type": "Feature",
      "properties": {
        "kind": "compartment",
        "zone_id": "StoresCold",
        "deck": "saucer_7",
        "room_type": "Free"
      },
      "geometry": {
        "type": "Polygon",
        "coordinates": [
          [
            [
              170.1166023691253,
              85.60512096815759
            ],
            [
              173.21539763087463,
              85.60512096815759
            ],
            [
              174.02651583345673,
              86.41623917073967
            ],
            [
              174.02651583345673,
              88.48090368640318
            ],
            [
              173.21539763087463,
              89.29202188898526
            ],
            [
              170.1166023691253,
              89.29202188898526
            ],
            [
              169.3054841665432,
              88.48090368640318
            ],
            [
              169.3054841665432,
              86.41623917073967
            ],
            [
              170.1166023691253,
              85.60512096815759
            ]
          ]
        ]
      }
    },
    {
      "type": "Feature",
      "properties": {
        "kind": "compartment",
        "zone_id": "Armory",
        "deck": "saucer_7",
        "room_type": "Room"
      },
      "geometry": {
        "type": "Polygon",
        "coordinates": [
          [
            [
              278.95399999999995,
              117.28
            ],
            [
              281.706,
              117.28
            ],
            [
              282.63,
              118.20400000000001
            ],
            [
              282.63,
              120.55599999999998
            ],
            [
              281.706,
              121.47999999999999
            ],
            [
              278.95399999999995,
              121.47999999999999
            ],
            [
              278.03,
              120.55599999999998
            ],
            [
              278.03,
              118.20400000000001
            ],
            [
              278.95399999999995,
              117.28
            ]
          ]
        ]
      }
    },
    {
      "type": "Feature",
      "properties": {
        "kind": "compartment",
        "zone_id": "HD_7S_M",
        "deck": "saucer_7",
        "room_type": "Sanitary"
      },
      "geometry": {
        "type": "Polygon",
        "coordinates": [
          [
            [
              86.76230655999998,
              6.108576
            ],
            [
              89.30297343999999,
              6.108576
            ],
            [
              89.96799999999999,
              6.7736025600000005
            ],
            [
              89.96799999999999,
              8.46639744
            ],
            [
              89.30297343999999,
              9.131423999999999
            ],
            [
              86.76230655999998,
              9.131423999999999
            ],
            [
              86.09727999999998,
              8.46639744
            ],
            [
              86.09727999999998,
              6.7736025600000005
            ],
            [
              86.76230655999998,
              6.108576
            ]
          ]
        ]
      }
    },
    {
      "type": "Feature",
      "properties": {
        "kind": "compartment",
        "zone_id": "HD_7S_F",
        "deck": "saucer_7",
        "room_type": "Sanitary"
      },
      "geometry": {
        "type": "Polygon",
        "coordinates": [
          [
            [
              91.03302656,
              6.108576
            ],
            [
              93.57369344,
              6.108576
            ],
            [
              94.23872,
              6.7736025600000005
            ],
            [
              94.23872,
              8.46639744
            ],
            [
              93.57369344,
              9.131423999999999
            ],
            [
              91.03302656,
              9.131423999999999
            ],
            [
              90.368,
              8.46639744
            ],
            [
              90.368,
              6.7736025600000005
            ],
            [
              91.03302656,
              6.108576
            ]
          ]
        ]
      }
    },
    {
      "type": "Feature",
      "properties": {
        "kind": "compartment",
        "zone_id": "NeckHub",
        "deck": "neck",
        "room_type": "Free"
      },
      "geometry": {
        "type": "Polygon",
        "coordinates": [
          [
            [
              142.74314822289415,
              117.28972365463319
            ],
            [
              146.25685177710585,
              117.28972365463319
            ],
            [
              147.17657336906726,
              118.20944524659458
            ],
            [
              147.17657336906726,
              120.55055475340541
            ],
            [
              146.25685177710585,
              121.4702763453668
            ],
            [
              142.74314822289415,
              121.4702763453668
            ],
            [
              141.82342663093274,
              120.55055475340541
            ],
            [
              141.82342663093274,
              118.20944524659458
            ],
            [
              142.74314822289415,
              117.28972365463319
            ]
          ]
        ]
      }
    },
    {
      "type": "Feature",
      "properties": {
        "kind": "compartment",
        "zone_id": "HD_NECK_M",
        "deck": "neck",
        "room_type": "Sanitary"
      },
      "geometry": {
        "type": "Polygon",
        "coordinates": [
          [
            [
              141.09430656,
              6.108576
            ],
            [
              143.63497344,
              6.108576
            ],
            [
              144.3,
              6.7736025600000005
            ],
            [
              144.3,
              8.46639744
            ],
            [
              143.63497344,
              9.131423999999999
            ],
            [
              141.09430656,
              9.131423999999999
            ],
            [
              140.42928,
              8.46639744
            ],
            [
              140.42928,
              6.7736025600000005
            ],
            [
              141.09430656,
              6.108576
            ]
          ]
        ]
      }
    },
    {
      "type": "Feature",
      "properties": {
        "kind": "compartment",
        "zone_id": "HD_NECK_F",
        "deck": "neck",
        "room_type": "Sanitary"
      },
      "geometry": {
        "type": "Polygon",
        "coordinates": [
          [
            [
              145.36502656,
              6.108576
            ],
            [
              147.90569344,
              6.108576
            ],
            [
              148.57072,
              6.7736025600000005
            ],
            [
              148.57072,
              8.46639744
            ],
            [
              147.90569344,
              9.131423999999999
            ],
            [
              145.36502656,
              9.131423999999999
            ],
            [
              144.7,
              8.46639744
            ],
            [
              144.7,
              6.7736025600000005
            ],
            [
              145.36502656,
              6.108576
            ]
          ]
        ]
      }
    },
    {
      "type": "Feature",
      "properties": {
        "kind": "compartment",
        "zone_id": "EngMain",
        "deck": "secondary_1",
        "room_type": "Engineering"
      },
      "geometry": {
        "type": "Polygon",
        "coordinates": [
          [
            [
              277.71104,
              55.303999999999995
            ],
            [
              282.94895999999994,
              55.303999999999995
            ],
            [
              284.32,
              56.675039999999996
            ],
            [
              284.32,
              60.164959999999994
            ],
            [
              282.94895999999994,
              61.535999999999994
            ],
            [
              277.71104,
              61.535999999999994
            ],
            [
              276.34,
              60.164959999999994
            ],
            [
              276.34,
              56.675039999999996
            ],
            [
              277.71104,
              55.303999999999995
            ]
          ]
        ]
      }
    },
    {
      "type": "Feature",
      "properties": {
        "kind": "compartment",
        "zone_id": "WarpCore",
        "deck": "secondary_1",
        "room_type": "Engineering"
      },
      "geometry": {
        "type": "Polygon",
        "coordinates": [
          [
            [
              6.32753096385886,
              116.59296487284426
            ],
            [
              11.01246903614114,
              116.59296487284426
            ],
            [
              12.238764492089665,
              117.81926032879278
            ],
            [
              12.238764492089665,
              120.94073967120721
            ],
            [
              11.01246903614114,
              122.16703512715573
            ],
            [
              6.32753096385886,
              122.16703512715573
            ],
            [
              5.101235507910335,
              120.94073967120721
            ],
            [
              5.101235507910335,
              117.81926032879278
            ],
            [
              6.32753096385886,
              116.59296487284426
            ]
          ]
        ]
      }
    },
    {
      "type": "Feature",
      "properties": {
        "kind": "compartment",
        "zone_id": "HD_1SE_M",
        "deck": "secondary_1",
        "room_type": "Sanitary"
      },
      "geometry": {
        "type": "Polygon",
        "coordinates": [
          [
            [
              143.12159999999997,
              5.98
            ],
            [
              145.87839999999997,
              5.98
            ],
            [
              146.59999999999997,
              6.7016
            ],
            [
              146.59999999999997,
              8.5384
            ],
            [
              145.87839999999997,
              9.26
            ],
            [
              143.12159999999997,
              9.26
            ],
            [
              142.39999999999998,
              8.5384
            ],
            [
              142.39999999999998,
              6.7016
            ],
            [
              143.12159999999997,
              5.98
            ]
          ]
        ]
      }
    },
    {
      "type": "Feature",
      "properties": {
        "kind": "compartment",
        "zone_id": "EPSDist",
        "deck": "secondary_2",
        "room_type": "Engineering"
      },
      "geometry": {
        "type": "Polygon",
        "coordinates": [
          [
            [
              187.9247822910103,
              53.313798126965565
            ],
            [
              191.62855104232293,
              53.313798126965565
            ],
            [
              192.59802272360093,
              54.283269808243574
            ],
            [
              192.59802272360093,
              56.75101590604213
            ],
            [
              191.62855104232293,
              57.720487587320136
            ],
            [
              187.9247822910103,
              57.720487587320136
            ],
            [
              186.9553106097323,
              56.75101590604213
            ],
            [
              186.9553106097323,
              54.283269808243574
            ],
            [
              187.9247822910103,
              53.313798126965565
            ]
          ]
        ]
      }
    },
    {
      "type": "Feature",
      "properties": {
        "kind": "compartment",
        "zone_id": "Jefferies",
        "deck": "secondary_2",
        "room_type": "Free"
      },
      "geometry": {
        "type": "Polygon",
        "coordinates": [
          [
            [
              278.8955365307963,
              85.74186793938533
            ],
            [
              281.7644634692037,
              85.74186793938533
            ],
            [
              282.5154130044456,
              86.4928174746272
            ],
            [
              282.5154130044456,
              88.40432538251565
            ],
            [
              281.7644634692037,
              89.15527491775752
            ],
            [
              278.8955365307963,
              89.15527491775752
            ],
            [
              278.1445869955544,
              88.40432538251565
            ],
            [
              278.1445869955544,
              86.4928174746272
            ],
            [
              278.8955365307963,
              85.74186793938533
            ]
          ]
        ]
      }
    },
    {
      "type": "Feature",
      "properties": {
        "kind": "compartment",
        "zone_id": "Airlock",
        "deck": "secondary_2",
        "room_type": "Free"
      },
      "geometry": {
        "type": "Polygon",
        "coordinates": [
          [
            [
              7.2916,
              117.74
            ],
            [
              10.048399999999999,
              117.74
            ],
            [
              10.77,
              118.46159999999999
            ],
            [
              10.77,
              120.2984
            ],
            [
              10.048399999999999,
              121.02
            ],
            [
              7.2916,
              121.02
            ],
            [
              6.57,
              120.2984
            ],
            [
              6.57,
              118.46159999999999
            ],
            [
              7.2916,
              117.74
            ]
          ]
        ]
      }
    },
    {
      "type": "Feature",
      "properties": {
        "kind": "compartment",
        "zone_id": "HD_2SE_M",
        "deck": "secondary_2",
        "room_type": "Sanitary"
      },
      "geometry": {
        "type": "Polygon",
        "coordinates": [
          [
            [
              231.64763989333332,
              6.108576
            ],
            [
              234.18830677333332,
              6.108576
            ],
            [
              234.85333333333332,
              6.7736025600000005
            ],
            [
              234.85333333333332,
              8.46639744
            ],
            [
              234.18830677333332,
              9.131423999999999
            ],
            [
              231.64763989333332,
              9.131423999999999
            ],
            [
              230.98261333333332,
              8.46639744
            ],
            [
              230.98261333333332,
              6.7736025600000005
            ],
            [
              231.64763989333332,
              6.108576
            ]
          ]
        ]
      }
    },
    {
      "type": "Feature",
      "properties": {
        "kind": "compartment",
        "zone_id": "HD_2SE_F",
        "deck": "secondary_2",
        "room_type": "Sanitary"
      },
      "geometry": {
        "type": "Polygon",
        "coordinates": [
          [
            [
              235.9183598933333,
              6.108576
            ],
            [
              238.4590267733333,
              6.108576
            ],
            [
              239.1240533333333,
              6.7736025600000005
            ],
            [
              239.1240533333333,
              8.46639744
            ],
            [
              238.4590267733333,
              9.131423999999999
            ],
            [
              235.9183598933333,
              9.131423999999999
            ],
            [
              235.2533333333333,
              8.46639744
            ],
            [
              235.2533333333333,
              6.7736025600000005
            ],
            [
              235.9183598933333,
              6.108576
            ]
          ]
        ]
      }
    },
    {
      "type": "Feature",
      "properties": {
        "kind": "hvac_path",
        "from": "Bridge",
        "to": "BriefRoom"
      },
      "geometry": {
        "type": "LineString",
        "coordinates": [
          [
            280.33,
            74.676
          ],
          [
            8.67,
            119.38
          ]
        ]
      }
    },
    {
      "type": "Feature",
      "properties": {
        "kind": "hvac_path",
        "from": "Sickbay",
        "to": "IsolBay1"
      },
      "geometry": {
        "type": "LineString",
        "coordinates": [
          [
            8.67,
            82.12666666666667
          ],
          [
            189.7766666666666,
            119.38
          ]
        ]
      }
    },
    {
      "type": "Feature",
      "properties": {
        "kind": "hvac_path",
        "from": "Sickbay",
        "to": "IsolBay2"
      },
      "geometry": {
        "type": "LineString",
        "coordinates": [
          [
            8.67,
            82.12666666666667
          ],
          [
            280.33,
            119.38
          ]
        ]
      }
    },
    {
      "type": "Feature",
      "properties": {
        "kind": "hvac_path",
        "from": "Science1",
        "to": "Science2"
      },
      "geometry": {
        "type": "LineString",
        "coordinates": [
          [
            63.00199999999999,
            35.559999999999995
          ],
          [
            144.49999999999997,
            63.49999999999999
          ]
        ]
      }
    },
    {
      "type": "Feature",
      "properties": {
        "kind": "hvac_path",
        "from": "Science1",
        "to": "Transprt1"
      },
      "geometry": {
        "type": "LineString",
        "coordinates": [
          [
            63.00199999999999,
            35.559999999999995
          ],
          [
            8.67,
            91.44
          ]
        ]
      }
    },
    {
      "type": "Feature",
      "properties": {
        "kind": "hvac_path",
        "from": "Security",
        "to": "Brig"
      },
      "geometry": {
        "type": "LineString",
        "coordinates": [
          [
            107.45545454545454,
            105.41
          ],
          [
            156.84818181818179,
            119.38
          ]
        ]
      }
    },
    {
      "type": "Feature",
      "properties": {
        "kind": "hvac_path",
        "from": "RecDeck",
        "to": "Gym"
      },
      "geometry": {
        "type": "LineString",
        "coordinates": [
          [
            63.002,
            35.559999999999995
          ],
          [
            103.75099999999999,
            63.49999999999999
          ]
        ]
      }
    },
    {
      "type": "Feature",
      "properties": {
        "kind": "hvac_path",
        "from": "RecDeck",
        "to": "Mess_Hall"
      },
      "geometry": {
        "type": "LineString",
        "coordinates": [
          [
            63.002,
            35.559999999999995
          ],
          [
            8.67,
            119.38
          ]
        ]
      }
    },
    {
      "type": "Feature",
      "properties": {
        "kind": "hvac_path",
        "from": "Galley",
        "to": "Mess_Hall"
      },
      "geometry": {
        "type": "LineString",
        "coordinates": [
          [
            35.836,
            91.44
          ],
          [
            8.67,
            119.38
          ]
        ]
      }
    },
    {
      "type": "Feature",
      "properties": {
        "kind": "hvac_path",
        "from": "StoresDry",
        "to": "StoresCold"
      },
      "geometry": {
        "type": "LineString",
        "coordinates": [
          [
            8.67,
            55.51714285714285
          ],
          [
            171.66599999999997,
            87.44857142857143
          ]
        ]
      }
    },
    {
      "type": "Feature",
      "properties": {
        "kind": "hvac_path",
        "from": "EngMain",
        "to": "WarpCore"
      },
      "geometry": {
        "type": "LineString",
        "coordinates": [
          [
            280.33,
            58.419999999999995
          ],
          [
            8.67,
            119.38
          ]
        ]
      }
    },
    {
      "type": "Feature",
      "properties": {
        "kind": "hvac_path",
        "from": "EPSDist",
        "to": "Jefferies"
      },
      "geometry": {
        "type": "LineString",
        "coordinates": [
          [
            189.7766666666666,
            55.51714285714285
          ],
          [
            280.33,
            87.44857142857143
          ]
        ]
      }
    },
    {
      "type": "Feature",
      "properties": {
        "kind": "hvac_path",
        "from": "Jefferies",
        "to": "Airlock"
      },
      "geometry": {
        "type": "LineString",
        "coordinates": [
          [
            280.33,
            87.44857142857143
          ],
          [
            8.67,
            119.38
          ]
        ]
      }
    },
    {
      "type": "Feature",
      "properties": {
        "kind": "hvac_path",
        "from": "RecDeck",
        "to": "EC_D6_P_F"
      },
      "geometry": {
        "type": "LineString",
        "coordinates": [
          [
            63.002,
            35.559999999999995
          ],
          [
            165.733685,
            7.62
          ]
        ]
      }
    },
    {
      "type": "Feature",
      "properties": {
        "kind": "hvac_path",
        "from": "Mess_Hall",
        "to": "EC_D6_S_F"
      },
      "geometry": {
        "type": "LineString",
        "coordinates": [
          [
            8.67,
            119.38
          ],
          [
            171.66599999999997,
            63.49999999999999
          ]
        ]
      }
    },
    {
      "type": "Feature",
      "properties": {
        "kind": "hvac_path",
        "from": "EC_D4_P_F",
        "to": "EC_D4_P_A"
      },
      "geometry": {
        "type": "LineString",
        "coordinates": [
          [
            63.00199999999999,
            63.49999999999999
          ],
          [
            276.44,
            63.49999999999999
          ]
        ]
      }
    },
    {
      "type": "Feature",
      "properties": {
        "kind": "hvac_path",
        "from": "EC_D4_S_F",
        "to": "EC_D4_S_A"
      },
      "geometry": {
        "type": "LineString",
        "coordinates": [
          [
            63.00199999999999,
            119.38
          ],
          [
            276.44,
            119.38
          ]
        ]
      }
    },
    {
      "type": "Feature",
      "properties": {
        "kind": "hvac_path",
        "from": "EC_D4_P_F",
        "to": "EC_D4_S_F"
      },
      "geometry": {
        "type": "LineString",
        "coordinates": [
          [
            63.00199999999999,
            63.49999999999999
          ],
          [
            63.00199999999999,
            119.38
          ]
        ]
      }
    },
    {
      "type": "Feature",
      "properties": {
        "kind": "hvac_path",
        "from": "EC_D5_P_F",
        "to": "EC_D5_P_A"
      },
      "geometry": {
        "type": "LineString",
        "coordinates": [
          [
            81.21655454545458,
            7.62
          ],
          [
            276.44,
            7.62
          ]
        ]
      }
    },
    {
      "type": "Feature",
      "properties": {
        "kind": "hvac_path",
        "from": "EC_D5_S_F",
        "to": "EC_D5_S_A"
      },
      "geometry": {
        "type": "LineString",
        "coordinates": [
          [
            82.7590909090909,
            35.559999999999995
          ],
          [
            276.44,
            35.559999999999995
          ]
        ]
      }
    },
    {
      "type": "Feature",
      "properties": {
        "kind": "hvac_path",
        "from": "EC_D5_P_F",
        "to": "EC_D5_S_F"
      },
      "geometry": {
        "type": "LineString",
        "coordinates": [
          [
            81.21655454545458,
            7.62
          ],
          [
            82.7590909090909,
            35.559999999999995
          ]
        ]
      }
    },
    {
      "type": "Feature",
      "properties": {
        "kind": "hvac_path",
        "from": "EC_D6_P_F",
        "to": "EC_D6_P_A"
      },
      "geometry": {
        "type": "LineString",
        "coordinates": [
          [
            165.733685,
            7.62
          ],
          [
            277.61687341,
            7.619999999999999
          ]
        ]
      }
    },
    {
      "type": "Feature",
      "properties": {
        "kind": "hvac_path",
        "from": "EC_D6_S_F",
        "to": "EC_D6_S_A"
      },
      "geometry": {
        "type": "LineString",
        "coordinates": [
          [
            171.66599999999997,
            63.49999999999999
          ],
          [
            276.44,
            63.49999999999999
          ]
        ]
      }
    },
    {
      "type": "Feature",
      "properties": {
        "kind": "hvac_path",
        "from": "EC_D6_P_F",
        "to": "EC_D6_S_F"
      },
      "geometry": {
        "type": "LineString",
        "coordinates": [
          [
            165.733685,
            7.62
          ],
          [
            171.66599999999997,
            63.49999999999999
          ]
        ]
      }
    },
    {
      "type": "Feature",
      "properties": {
        "kind": "hvac_path",
        "from": "OC_D5_F",
        "to": "OC_D5_M"
      },
      "geometry": {
        "type": "LineString",
        "coordinates": [
          [
            103.81175454545458,
            7.62
          ],
          [
            176.35830909090913,
            7.619999999999999
          ]
        ]
      }
    },
    {
      "type": "Feature",
      "properties": {
        "kind": "hvac_path",
        "from": "OC_D5_M",
        "to": "OC_D5_A"
      },
      "geometry": {
        "type": "LineString",
        "coordinates": [
          [
            176.35830909090913,
            7.619999999999999
          ],
          [
            250.44740000000002,
            7.619999999999999
          ]
        ]
      }
    },
    {
      "type": "Feature",
      "properties": {
        "kind": "hvac_path",
        "from": "OC_D6_F",
        "to": "OC_D6_M"
      },
      "geometry": {
        "type": "LineString",
        "coordinates": [
          [
            188.32888499999999,
            7.62
          ],
          [
            223.14557000000002,
            7.619999999999999
          ]
        ]
      }
    },
    {
      "type": "Feature",
      "properties": {
        "kind": "hvac_path",
        "from": "OC_D6_M",
        "to": "OC_D6_A"
      },
      "geometry": {
        "type": "LineString",
        "coordinates": [
          [
            223.14557000000002,
            7.619999999999999
          ],
          [
            256.76177709000007,
            7.62
          ]
        ]
      }
    }
  ]
}