{
  "type": "FeatureCollection",
  "features": [
    {
      "type": "Feature",
      "properties": {
        "kind": "hull_outline",
        "platform_id": "legend_class_nsc"
      },
      "geometry": {
        "type": "Polygon",
        "coordinates": [
          [
            [
              10.192,
              8.25
            ],
            [
              25.480000000000004,
              2.9699999999999998
            ],
            [
              70.07000000000001,
              1.6500000000000001
            ],
            [
              112.11200000000001,
              3.3000000000000003
            ],
            [
              122.304,
              8.25
            ],
            [
              112.11200000000001,
              13.200000000000001
            ],
            [
              70.07000000000001,
              14.85
            ],
            [
              25.480000000000004,
              13.53
            ],
            [
              10.192,
              8.25
            ]
          ]
        ]
      }
    },
    {
      "type": "Feature",
      "properties": {
        "kind": "hull_waterline",
        "platform_id": "legend_class_nsc"
      },
      "geometry": {
        "type": "Polygon",
        "coordinates": [
          [
            [
              14.854839999999996,
              8.25
            ],
            [
              28.919800000000002,
              3.3923999999999994
            ],
            [
              69.94260000000001,
              2.178
            ],
            [
              108.62124,
              3.6960000000000006
            ],
            [
              117.99788000000001,
              8.25
            ],
            [
              108.62124,
              12.804000000000002
            ],
            [
              69.94260000000001,
              14.322
            ],
            [
              28.919800000000002,
              13.1076
            ],
            [
              14.854839999999996,
              8.25
            ]
          ]
        ]
      }
    },
    {
      "type": "Feature",
      "properties": {
        "kind": "compartment",
        "zone_id": "Bridge",
        "deck": "04_level",
        "room_type": "Free"
      },
      "geometry": {
        "type": "Polygon",
        "coordinates": [
          [
            [
              62.265536530796275,
              12.086593021627806
            ],
            [
              65.13446346920374,
              12.086593021627806
            ],
            [
              65.88541300444561,
              12.837542556869689
            ],
            [
              65.88541300444561,
              14.749050464758117
            ],
            [
              65.13446346920374,
              15.5
            ],
            [
              62.265536530796275,
              15.5
            ],
            [
              61.51458699555439,
              14.749050464758117
            ],
            [
              61.51458699555439,
              12.837542556869689
            ],
            [
              62.265536530796275,
              12.086593021627806
            ]
          ]
        ]
      }
    },
    {
      "type": "Feature",
      "properties": {
        "kind": "compartment",
        "zone_id": "HD_04L_M",
        "deck": "04_level",
        "room_type": "Sanitary"
      },
      "geometry": {
        "type": "Polygon",
        "coordinates": [
          [
            [
              62.321600000000004,
              0.9999999999999993
            ],
            [
              65.0784,
              0.9999999999999993
            ],
            [
              65.8,
              1.7215999999999994
            ],
            [
              65.8,
              3.5584
            ],
            [
              65.0784,
              4.279999999999999
            ],
            [
              62.321600000000004,
              4.279999999999999
            ],
            [
              61.6,
              3.5584
            ],
            [
              61.6,
              1.7215999999999994
            ],
            [
              62.321600000000004,
              0.9999999999999993
            ]
          ]
        ]
      }
    },
    {
      "type": "Feature",
      "properties": {
        "kind": "compartment",
        "zone_id": "CIC",
        "deck": "02_level",
        "room_type": "Free"
      },
      "geometry": {
        "type": "Polygon",
        "coordinates": [
          [
            [
              62.321600000000004,
              12.219999999999999
            ],
            [
              65.0784,
              12.219999999999999
            ],
            [
              65.8,
              12.9416
            ],
            [
              65.8,
              14.7784
            ],
            [
              65.0784,
              15.5
            ],
            [
              62.321600000000004,
              15.5
            ],
            [
              61.6,
              14.7784
            ],
            [
              61.6,
              12.9416
            ],
            [
              62.321600000000004,
              12.219999999999999
            ]
          ]
        ]
      }
    },
    {
      "type": "Feature",
      "properties": {
        "kind": "compartment",
        "zone_id": "HD_02L_M",
        "deck": "02_level",
        "room_type": "Sanitary"
      },
      "geometry": {
        "type": "Polygon",
        "coordinates": [
          [
            [
              62.321600000000004,
              0.9999999999999993
            ],
            [
              65.0784,
              0.9999999999999993
            ],
            [
              65.8,
              1.7215999999999994
            ],
            [
              65.8,
              3.5584
            ],
            [
              65.0784,
              4.279999999999999
            ],
            [
              62.321600000000004,
              4.279999999999999
            ],
            [
              61.6,
              3.5584
            ],
            [
              61.6,
              1.7215999999999994
            ],
            [
              62.321600000000004,
              0.9999999999999993
            ]
          ]
        ]
      }
    },
    {
      "type": "Feature",
      "properties": {
        "kind": "compartment",
        "zone_id": "Officers_Quarters",
        "deck": "01_level",
        "room_type": "Room"
      },
      "geometry": {
        "type": "Polygon",
        "coordinates": [
          [
            [
              121.74650825705118,
              1.0
            ],
            [
              125.05349174294884,
              1.0
            ],
            [
              126.16383067498717,
              2.1103389320383212
            ],
            [
              126.16383067498717,
              4.936656213590412
            ],
            [
              125.05349174294884,
              6.046995145628734
            ],
            [
              121.74650825705118,
              6.046995145628734
            ],
            [
              120.63616932501284,
              4.936656213590412
            ],
            [
              120.63616932501284,
              2.1103389320383212
            ],
            [
              121.74650825705118,
              1.0
            ]
          ]
        ]
      }
    },
    {
      "type": "Feature",
      "properties": {
        "kind": "compartment",
        "zone_id": "Wardroom",
        "deck": "01_level",
        "room_type": "Dining"
      },
      "geometry": {
        "type": "Polygon",
        "coordinates": [
          [
            [
              1.8744000000000005,
              11.98
            ],
            [
              6.1256,
              11.98
            ],
            [
              6.9,
              12.7544
            ],
            [
              6.9,
              14.7256
            ],
            [
              6.1256,
              15.5
            ],
            [
              1.8744000000000005,
              15.5
            ],
            [
              1.1000000000000005,
              14.7256
            ],
            [
              1.1000000000000005,
              12.7544
            ],
            [
              1.8744000000000005,
              11.98
            ]
          ]
        ]
      }
    },
    {
      "type": "Feature",
      "properties": {
        "kind": "compartment",
        "zone_id": "HD_01L_M",
        "deck": "01_level",
        "room_type": "Sanitary"
      },
      "geometry": {
        "type": "Polygon",
        "coordinates": [
          [
            [
              1.6384254976000001,
              4.715699626666666
            ],
            [
              4.0774657024000005,
              4.715699626666666
            ],
            [
              4.7158912,
              5.354125124266666
            ],
            [
              4.7158912,
              6.979208209066666
            ],
            [
              4.0774657024000005,
              7.617633706666666
            ],
            [
              1.6384254976000001,
              7.617633706666666
            ],
            [
              1.0000000000000002,
              6.979208209066666
            ],
            [
              1.0000000000000002,
              5.354125124266666
            ],
            [
              1.6384254976000001,
              4.715699626666666
            ]
          ]
        ]
      }
    },
    {
      "type": "Feature",
      "properties": {
        "kind": "compartment",
        "zone_id": "HD_01L_F",
        "deck": "01_level",
        "room_type": "Sanitary"
      },
      "geometry": {
        "type": "Polygon",
        "coordinates": [
          [
            [
              5.619285497599999,
              4.715699626666666
            ],
            [
              8.0583257024,
              4.715699626666666
            ],
            [
              8.6967512,
              5.354125124266666
            ],
            [
              8.6967512,
              6.979208209066666
            ],
            [
              8.0583257024,
              7.617633706666666
            ],
            [
              5.619285497599999,
              7.617633706666666
            ],
            [
              4.98086,
              6.979208209066666
            ],
            [
              4.98086,
              5.354125124266666
            ],
            [
              5.619285497599999,
              4.715699626666666
            ]
          ]
        ]
      }
    },
    {
      "type": "Feature",
      "properties": {
        "kind": "compartment",
        "zone_id": "CPO_Berthing",
        "deck": "main_deck",
        "room_type": "Room"
      },
      "geometry": {
        "type": "Polygon",
        "coordinates": [
          [
            [
              122.02400000000002,
              9.034615384615384
            ],
            [
              124.776,
              9.034615384615384
            ],
            [
              125.7,
              9.958615384615383
            ],
            [
              125.7,
              12.310615384615383
            ],
            [
              124.776,
              13.234615384615383
            ],
            [
              122.02400000000002,
              13.234615384615383
            ],
            [
              121.10000000000001,
              12.310615384615383
            ],
            [
              121.10000000000001,
              9.958615384615383
            ],
            [
              122.02400000000002,
              9.034615384615384
            ]
          ]
        ]
      }
    },
    {
      "type": "Feature",
      "properties": {
        "kind": "compartment",
        "zone_id": "Crew_Mess",
        "deck": "main_deck",
        "room_type": "Dining"
      },
      "geometry": {
        "type": "Polygon",
        "coordinates": [
          [
            [
              93.4568622006321,
              2.425509074377642
            ],
            [
              98.2354454916756,
              2.425509074377642
            ],
            [
              99.10591380664174,
              3.2959773893437876
            ],
            [
              99.10591380664174,
              5.51171491834852
            ],
            [
              98.2354454916756,
              6.382183233314667
            ],
            [
              93.4568622006321,
              6.382183233314667
            ],
            [
              92.58639388566597,
              5.51171491834852
            ],
            [
              92.58639388566597,
              3.2959773893437876
            ],
            [
              93.4568622006321,
              2.425509074377642
            ]
          ]
        ]
      }
    },
    {
      "type": "Feature",
      "properties": {
        "kind": "compartment",
        "zone_id": "Galley",
        "deck": "main_deck",
        "room_type": "Dining"
      },
      "geometry": {
        "type": "Polygon",
        "coordinates": [
          [
            [
              90.04670769230769,
              9.374615384615383
            ],
            [
              94.2979076923077,
              9.374615384615383
            ],
            [
              95.0723076923077,
              10.149015384615383
            ],
            [
              95.0723076923077,
              12.120215384615383
            ],
            [
              94.2979076923077,
              12.894615384615383
            ],
            [
              90.04670769230769,
              12.894615384615383
            ],
            [
              89.27230769230769,
              12.120215384615383
            ],
            [
              89.27230769230769,
              10.149015384615383
            ],
            [
              90.04670769230769,
              9.374615384615383
            ]
          ]
        ]
      }
    },
    {
      "type": "Feature",
      "properties": {
        "kind": "compartment",
        "zone_id": "Sickbay",
        "deck": "main_deck",
        "room_type": "Free"
      },
      "geometry": {
        "type": "Polygon",
        "coordinates": [
          [
            [
              109.16313846153848,
              9.494615384615383
            ],
            [
              111.91993846153848,
              9.494615384615383
            ],
            [
              112.64153846153847,
              10.216215384615383
            ],
            [
              112.64153846153847,
              12.053015384615383
            ],
            [
              111.91993846153848,
              12.774615384615384
            ],
            [
              109.16313846153848,
              12.774615384615384
            ],
            [
              108.44153846153849,
              12.053015384615383
            ],
            [
              108.44153846153849,
              10.216215384615383
            ],
            [
              109.16313846153848,
              9.494615384615383
            ]
          ]
        ]
      }
    },
    {
      "type": "Feature",
      "properties": {
        "kind": "compartment",
        "zone_id": "Helicopter_Hangar",
        "deck": "main_deck",
        "room_type": "Free"
      },
      "geometry": {
        "type": "Polygon",
        "coordinates": [
          [
            [
              2.454207521917006,
              1.0988290585802307
            ],
            [
              8.009860648885969,
              1.0988290585802307
            ],
            [
              9.464068170802975,
              2.5530365804972375
            ],
            [
              9.464068170802975,
              6.254655727195072
            ],
            [
              8.009860648885969,
              7.708863249112078
            ],
            [
              2.454207521917006,
              7.708863249112078
            ],
            [
              0.9999999999999991,
              6.254655727195072
            ],
            [
              0.9999999999999991,
              2.5530365804972375
            ],
            [
              2.454207521917006,
              1.0988290585802307
            ]
          ]
        ]
      }
    },
    {
      "type": "Feature",
      "properties": {
        "kind": "compartment",
        "zone_id": "Boarding_Team_Staging",
        "deck": "main_deck",
        "room_type": "Free"
      },
      "geometry": {
        "type": "Polygon",
        "coordinates": [
          [
            [
              29.85150523076923,
              9.560215384615383
            ],
            [
              32.49803323076923,
              9.560215384615383
            ],
            [
              33.190769230769234,
              10.252951384615384
            ],
            [
              33.190769230769234,
              12.016279384615382
            ],
            [
              32.49803323076923,
              12.709015384615384
            ],
            [
              29.85150523076923,
              12.709015384615384
            ],
            [
              29.15876923076923,
              12.016279384615382
            ],
            [
              29.15876923076923,
              10.252951384615384
            ],
            [
              29.85150523076923,
              9.560215384615383
            ]
          ]
        ]
      }
    },
    {
      "type": "Feature",
      "properties": {
        "kind": "compartment",
        "zone_id": "Armory",
        "deck": "main_deck",
        "room_type": "Free"
      },
      "geometry": {
        "type": "Polygon",
        "coordinates": [
          [
            [
              34.28350523076923,
              12.285599999999999
            ],
            [
              36.93003323076923,
              12.285599999999999
            ],
            [
              37.62276923076923,
              12.978336
            ],
            [
              37.62276923076923,
              14.741663999999998
            ],
            [
              36.93003323076923,
              15.4344
            ],
            [
              34.28350523076923,
              15.4344
            ],
            [
              33.59076923076923,
              14.741663999999998
            ],
            [
              33.59076923076923,
              12.978336
            ],
            [
              34.28350523076923,
              12.285599999999999
            ]
          ]
        ]
      }
    },
    {
      "type": "Feature",
      "properties": {
        "kind": "compartment",
        "zone_id": "Passageway_Main",
        "deck": "main_deck",
        "room_type": "Free"
      },
      "geometry": {
        "type": "Polygon",
        "coordinates": [
          [
            [
              76.04245960771935,
              2.6971426646600567
            ],
            [
              78.91138654612682,
              2.6971426646600567
            ],
            [
              79.6623360813687,
              3.44809219990194
            ],
            [
              79.6623360813687,
              5.359600107790369
            ],
            [
              78.91138654612682,
              6.110549643032252
            ],
            [
              76.04245960771935,
              6.110549643032252
            ],
            [
              75.29151007247748,
              5.359600107790369
            ],
            [
              75.29151007247748,
              3.44809219990194
            ],
            [
              76.04245960771935,
              2.6971426646600567
            ]
          ]
        ]
      }
    },
    {
      "type": "Feature",
      "properties": {
        "kind": "compartment",
        "zone_id": "HD_MAINDEC_M",
        "deck": "main_deck",
        "room_type": "Sanitary"
      },
      "geometry": {
        "type": "Polygon",
        "coordinates": [
          [
            [
              60.42551535120879,
              1.1285759999999998
            ],
            [
              62.96618223120879,
              1.1285759999999998
            ],
            [
              63.63120879120879,
              1.7936025599999996
            ],
            [
              63.63120879120879,
              3.4863974399999993
            ],
            [
              62.96618223120879,
              4.151424
            ],
            [
              60.42551535120879,
              4.151424
            ],
            [
              59.760488791208786,
              3.4863974399999993
            ],
            [
              59.760488791208786,
              1.7936025599999996
            ],
            [
              60.42551535120879,
              1.1285759999999998
            ]
          ]
        ]
      }
    },
    {
      "type": "Feature",
      "properties": {
        "kind": "compartment",
        "zone_id": "HD_MAINDEC_F",
        "deck": "main_deck",
        "room_type": "Sanitary"
      },
      "geometry": {
        "type": "Polygon",
        "coordinates": [
          [
            [
              64.69623535120878,
              1.1285759999999998
            ],
            [
              67.23690223120879,
              1.1285759999999998
            ],
            [
              67.90192879120879,
              1.7936025599999996
            ],
            [
              67.90192879120879,
              3.4863974399999993
            ],
            [
              67.23690223120879,
              4.151424
            ],
            [
              64.69623535120878,
              4.151424
            ],
            [
              64.03120879120878,
              3.4863974399999993
            ],
            [
              64.03120879120878,
              1.7936025599999996
            ],
            [
              64.69623535120878,
              1.1285759999999998
            ]
          ]
        ]
      }
    },
    {
      "type": "Feature",
      "properties": {
        "kind": "compartment",
        "zone_id": "Enlisted_Berthing_Fwd",
        "deck": "2nd_deck",
        "room_type": "Room"
      },
      "geometry": {
        "type": "Polygon",
        "coordinates": [
          [
            [
              33.91820716388737,
              5.573426630932751
            ],
            [
              37.42579283611264,
              5.573426630932751
            ],
            [
              38.60348511850223,
              6.751118913322341
            ],
            [
              38.60348511850223,
              9.74888108667766
            ],
            [
              37.42579283611264,
              10.926573369067249
            ],
            [
              33.91820716388737,
              10.926573369067249
            ],
            [
              32.74051488149778,
              9.74888108667766
            ],
            [
              32.74051488149778,
              6.751118913322341
            ],
            [
              33.91820716388737,
              5.573426630932751
            ]
          ]
        ]
      }
    },
    {
      "type": "Feature",
      "properties": {
        "kind": "compartment",
        "zone_id": "Enlisted_Berthing_Aft",
        "deck": "2nd_deck",
        "room_type": "Room"
      },
      "geometry": {
        "type": "Polygon",
        "coordinates": [
          [
            [
              102.71420716388738,
              5.573426630932751
            ],
            [
              106.22179283611263,
              5.573426630932751
            ],
            [
              107.39948511850223,
              6.751118913322341
            ],
            [
              107.39948511850223,
              9.74888108667766
            ],
            [
              106.22179283611263,
              10.926573369067249
            ],
            [
              102.71420716388738,
              10.926573369067249
            ],
            [
              101.53651488149778,
              9.74888108667766
            ],
            [
              101.53651488149778,
              6.751118913322341
            ],
            [
              102.71420716388738,
              5.573426630932751
            ]
          ]
        ]
      }
    },
    {
      "type": "Feature",
      "properties": {
        "kind": "compartment",
        "zone_id": "Aviation_Det_Berthing",
        "deck": "2nd_deck",
        "room_type": "Room"
      },
      "geometry": {
        "type": "Polygon",
        "coordinates": [
          [
            [
              2.624,
              6.15
            ],
            [
              5.3759999999999994,
              6.15
            ],
            [
              6.3,
              7.074000000000001
            ],
            [
              6.3,
              9.426
            ],
            [
              5.3759999999999994,
              10.35
            ],
            [
              2.624,
              10.35
            ],
            [
              1.7000000000000002,
              9.426
            ],
            [
              1.7000000000000002,
              7.074000000000001
            ],
            [
              2.624,
              6.15
            ]
          ]
        ]
      }
    },
    {
      "type": "Feature",
      "properties": {
        "kind": "compartment",
        "zone_id": "Flight_Deck",
        "deck": "weather_deck",
        "room_type": "Free"
      },
      "geometry": {
        "type": "Polygon",
        "coordinates": [
          [
            [
              2.1481156243436788,
              11.093310539645437
            ],
            [
              5.851884375656321,
              11.093310539645437
            ],
            [
              6.821356056934325,
              12.06278222092344
            ],
            [
              6.821356056934325,
              14.530528318721997
            ],
            [
              5.851884375656321,
              15.5
            ],
            [
              2.1481156243436788,
              15.5
            ],
            [
              1.1786439430656745,
              14.530528318721997
            ],
            [
              1.1786439430656745,
              12.06278222092344
            ],
            [
              2.1481156243436788,
              11.093310539645437
            ]
          ]
        ]
      }
    },
    {
      "type": "Feature",
      "properties": {
        "kind": "compartment",
        "zone_id": "Boat_Deck",
        "deck": "weather_deck",
        "room_type": "Free"
      },
      "geometry": {
        "type": "Polygon",
        "coordinates": [
          [
            [
              122.0216,
              12.219999999999999
            ],
            [
              124.7784,
              12.219999999999999
            ],
            [
              125.5,
              12.9416
            ],
            [
              125.5,
              14.7784
            ],
            [
              124.7784,
              15.5
            ],
            [
              122.0216,
              15.5
            ],
            [
              121.30000000000001,
              14.7784
            ],
            [
              121.30000000000001,
              12.9416
            ],
            [
              122.0216,
              12.219999999999999
            ]
          ]
        ]
      }
    },
    {
      "type": "Feature",
      "properties": {
        "kind": "compartment",
        "zone_id": "HD_WEATHER_M",
        "deck": "weather_deck",
        "room_type": "Sanitary"
      },
      "geometry": {
        "type": "Polygon",
        "coordinates": [
          [
            [
              119.34167429760001,
              1.1890329599999998
            ],
            [
              121.7807145024,
              1.1890329599999998
            ],
            [
              122.41914,
              1.8274584575999997
            ],
            [
              122.41914,
              3.452541542399999
            ],
            [
              121.7807145024,
              4.090967039999999
            ],
            [
              119.34167429760001,
              4.090967039999999
            ],
            [
              118.70324880000001,
              3.452541542399999
            ],
            [
              118.70324880000001,
              1.8274584575999997
            ],
            [
              119.34167429760001,
              1.1890329599999998
            ]
          ]
        ]
      }
    },
    {
      "type": "Feature",
      "properties": {
        "kind": "compartment",
        "zone_id": "HD_WEATHER_F",
        "deck": "weather_deck",
        "room_type": "Sanitary"
      },
      "geometry": {
        "type": "Polygon",
        "coordinates": [
          [
            [
              123.32253429760001,
              1.1890329599999998
            ],
            [
              125.76157450240001,
              1.1890329599999998
            ],
            [
              126.4,
              1.8274584575999997
            ],
            [
              126.4,
              3.452541542399999
            ],
            [
              125.76157450240001,
              4.090967039999999
            ],
            [
              123.32253429760001,
              4.090967039999999
            ],
            [
              122.68410880000002,
              3.452541542399999
            ],
            [
              122.68410880000002,
              1.8274584575999997
            ],
            [
              123.32253429760001,
              1.1890329599999998
            ]
          ]
        ]
      }
    },
    {
      "type": "Feature",
      "properties": {
        "kind": "compartment",
        "zone_id": "Engine_Room",
        "deck": "lower_deck",
        "room_type": "Free"
      },
      "geometry": {
        "type": "Polygon",
        "coordinates": [
          [
            [
              60.49244217162028,
              7.867389961487618
            ],
            [
              66.90755782837972,
              7.867389961487618
            ],
            [
              68.58673203685244,
              9.546564169960343
            ],
            [
              68.58673203685244,
              13.820825791527275
            ],
            [
              66.90755782837972,
              15.5
            ],
            [
              60.49244217162028,
              15.5
            ],
            [
              58.81326796314755,
              13.820825791527275
            ],
            [
              58.81326796314755,
              9.546564169960343
            ],
            [
              60.49244217162028,
              7.867389961487618
            ]
          ]
        ]
      }
    },
    {
      "type": "Feature",
      "properties": {
        "kind": "compartment",
        "zone_id": "HD_LOWERDE_M",
        "deck": "lower_deck",
        "room_type": "Sanitary"
      },
      "geometry": {
        "type": "Polygon",
        "coordinates": [
          [
            [
              62.321600000000004,
              0.9999999999999993
            ],
            [
              65.0784,
              0.9999999999999993
            ],
            [
              65.8,
              1.7215999999999994
            ],
            [
              65.8,
              3.5584
            ],
            [
              65.0784,
              4.279999999999999
            ],
            [
              62.321600000000004,
              4.279999999999999
            ],
            [
              61.6,
              3.5584
            ],
            [
              61.6,
              1.7215999999999994
            ],
            [
              62.321600000000004,
              0.9999999999999993
            ]
          ]
        ]
      }
    },
    {
      "type": "Feature",
      "properties": {
        "kind": "hvac_path",
        "from": "Officers_Quarters",
        "to": "Wardroom"
      },
      "geometry": {
        "type": "LineString",
        "coordinates": [
          [
            123.4,
            3.523497572814367
          ],
          [
            4.0,
            13.74
          ]
        ]
      }
    },
    {
      "type": "Feature",
      "properties": {
        "kind": "hvac_path",
        "from": "CPO_Berthing",
        "to": "Passageway_Main"
      },
      "geometry": {
        "type": "LineString",
        "coordinates": [
          [
            123.4,
            11.134615384615383
          ],
          [
            77.47692307692309,
            4.403846153846154
          ]
        ]
      }
    },
    {
      "type": "Feature",
      "properties": {
        "kind": "hvac_path",
        "from": "Crew_Mess",
        "to": "Galley"
      },
      "geometry": {
        "type": "LineString",
        "coordinates": [
          [
            95.84615384615385,
            4.403846153846154
          ],
          [
            92.1723076923077,
            11.134615384615383
          ]
        ]
      }
    },
    {
      "type": "Feature",
      "properties": {
        "kind": "hvac_path",
        "from": "Crew_Mess",
        "to": "Passageway_Main"
      },
      "geometry": {
        "type": "LineString",
        "coordinates": [
          [
            95.84615384615385,
            4.403846153846154
          ],
          [
            77.47692307692309,
            4.403846153846154
          ]
        ]
      }
    },
    {
      "type": "Feature",
      "properties": {
        "kind": "hvac_path",
        "from": "Sickbay",
        "to": "Passageway_Main"
      },
      "geometry": {
        "type": "LineString",
        "coordinates": [
          [
            110.54153846153848,
            11.134615384615383
          ],
          [
            77.47692307692309,
            4.403846153846154
          ]
        ]
      }
    },
    {
      "type": "Feature",
      "properties": {
        "kind": "hvac_path",
        "from": "Enlisted_Berthing_Aft",
        "to": "Aviation_Det_Berthing"
      },
      "geometry": {
        "type": "LineString",
        "coordinates": [
          [
            104.468,
            8.25
          ],
          [
            4.0,
            8.25
          ]
        ]
      }
    },
    {
      "type": "Feature",
      "properties": {
        "kind": "hvac_path",
        "from": "Boarding_Team_Staging",
        "to": "Armory"
      },
      "geometry": {
        "type": "LineString",
        "coordinates": [
          [
            31.174769230769233,
            11.134615384615383
          ],
          [
            35.60676923076923,
            13.86
          ]
        ]
      }
    },
    {
      "type": "Feature",
      "properties": {
        "kind": "hvac_path",
        "from": "Helicopter_Hangar",
        "to": "Passageway_Main"
      },
      "geometry": {
        "type": "LineString",
        "coordinates": [
          [
            5.232034085401487,
            4.403846153846154
          ],
          [
            77.47692307692309,
            4.403846153846154
          ]
        ]
      }
    },
    {
      "type": "Feature",
      "properties": {
        "kind": "hvac_path",
        "from": "Passageway_Main",
        "to": "Sickbay"
      },
      "geometry": {
        "type": "LineString",
        "coordinates": [
          [
            77.47692307692309,
            4.403846153846154
          ],
          [
            110.54153846153848,
            11.134615384615383
          ]
        ]
      }
    },
    {
      "type": "Feature",
      "properties": {
        "kind": "hvac_path",
        "from": "Enlisted_Berthing_Fwd",
        "to": "Enlisted_Berthing_Aft"
      },
      "geometry": {
        "type": "LineString",
        "coordinates": [
          [
            35.672000000000004,
            8.25
          ],
          [
            104.468,
            8.25
          ]
        ]
      }
    },
    {
      "type": "Feature",
      "properties": {
        "kind": "hvac_path",
        "from": "Flight_Deck",
        "to": "Boat_Deck"
      },
      "geometry": {
        "type": "LineString",
        "coordinates": [
          [
            4.0,
            13.296655269822718
          ],
          [
            123.4,
            13.86
          ]
        ]
      }
    },
    {
      "type": "Feature",
      "properties": {
        "kind": "hvac_path",
        "from": "Galley",
        "to": "Passageway_Main"
      },
      "geometry": {
        "type": "LineString",
        "coordinates": [
          [
            92.1723076923077,
            11.134615384615383
          ],
          [
            77.47692307692309,
            4.403846153846154
          ]
        ]
      }
    }
  ]
}