{
  "type": "FeatureCollection",
  "features": [
    {
      "type": "Feature",
      "properties": {
        "kind": "hull_outline",
        "platform_id": "san_antonio_class_lpd"
      },
      "geometry": {
        "type": "Polygon",
        "coordinates": [
          [
            [
              12.51,
              15.95
            ],
            [
              41.7,
              4.784999999999999
            ],
            [
              93.825,
              1.595
            ],
            [
              145.95,
              1.914
            ],
            [
              183.48,
              6.38
            ],
            [
              200.16,
              15.95
            ],
            [
              187.65,
              26.157999999999998
            ],
            [
              135.525,
              29.985999999999997
            ],
            [
              72.975,
              29.348
            ],
            [
              31.275,
              27.115
            ],
            [
              12.51,
              15.95
            ]
          ]
        ]
      }
    },
    {
      "type": "Feature",
      "properties": {
        "kind": "hull_waterline",
        "platform_id": "san_antonio_class_lpd"
      },
      "geometry": {
        "type": "Polygon",
        "coordinates": [
          [
            [
              20.349599999999995,
              15.947448
            ],
            [
              47.2044,
              5.675647999999999
            ],
            [
              95.1594,
              2.7408479999999997
            ],
            [
              143.1144,
              3.0343279999999986
            ],
            [
              177.642,
              7.1430479999999985
            ],
            [
              192.9876,
              15.947448
            ],
            [
              181.47840000000002,
              25.338808
            ],
            [
              133.5234,
              28.860567999999997
            ],
            [
              75.97739999999999,
              28.273608
            ],
            [
              37.6134,
              26.219248
            ],
            [
              20.349599999999995,
              15.947448
            ]
          ]
        ]
      }
    },
    {
      "type": "Feature",
      "properties": {
        "kind": "compartment",
        "zone_id": "Bridge",
        "deck": "07_level",
        "room_type": "Free"
      },
      "geometry": {
        "type": "Polygon",
        "coordinates": [
          [
            [
              102.49314822289413,
              26.719447309266393
            ],
            [
              106.00685177710587,
              26.719447309266393
            ],
            [
              106.92657336906724,
              27.639168901227784
            ],
            [
              106.92657336906724,
              29.980278408038608
            ],
            [
              106.00685177710587,
              30.9
            ],
            [
              102.49314822289413,
              30.9
            ],
            [
              101.57342663093276,
              29.980278408038608
            ],
            [
              101.57342663093276,
              27.639168901227784
            ],
            [
              102.49314822289413,
              26.719447309266393
            ]
          ]
        ]
      }
    },
    {
      "type": "Feature",
      "properties": {
        "kind": "compartment",
        "zone_id": "HD_07L_M",
        "deck": "07_level",
        "room_type": "Sanitary"
      },
      "geometry": {
        "type": "Polygon",
        "coordinates": [
          [
            [
              102.8716,
              0.9999999999999993
            ],
            [
              105.6284,
              0.9999999999999993
            ],
            [
              106.35,
              1.7215999999999994
            ],
            [
              106.35,
              3.5584
            ],
            [
              105.6284,
              4.279999999999999
            ],
            [
              102.8716,
              4.279999999999999
            ],
            [
              102.15,
              3.5584
            ],
            [
              102.15,
              1.7215999999999994
            ],
            [
              102.8716,
              0.9999999999999993
            ]
          ]
        ]
      }
    },
    {
      "type": "Feature",
      "properties": {
        "kind": "compartment",
        "zone_id": "CIC",
        "deck": "03_level",
        "room_type": "Free"
      },
      "geometry": {
        "type": "Polygon",
        "coordinates": [
          [
            [
              102.17953032478135,
              25.973171405457663
            ],
            [
              106.32046967521865,
              25.973171405457663
            ],
            [
              107.40437196601796,
              27.057073696256975
            ],
            [
              107.40437196601796,
              29.816097709200687
            ],
            [
              106.32046967521865,
              30.9
            ],
            [
              102.17953032478135,
              30.9
            ],
            [
              101.09562803398204,
              29.816097709200687
            ],
            [
              101.09562803398204,
              27.057073696256975
            ],
            [
              102.17953032478135,
              25.973171405457663
            ]
          ]
        ]
      }
    },
    {
      "type": "Feature",
      "properties": {
        "kind": "compartment",
        "zone_id": "HD_03L_M",
        "deck": "03_level",
        "room_type": "Sanitary"
      },
      "geometry": {
        "type": "Polygon",
        "coordinates": [
          [
            [
              102.8716,
              0.9999999999999993
            ],
            [
              105.6284,
              0.9999999999999993
            ],
            [
              106.35,
              1.7215999999999994
            ],
            [
              106.35,
              3.5584
            ],
            [
              105.6284,
              4.279999999999999
            ],
            [
              102.8716,
              4.279999999999999
            ],
            [
              102.15,
              3.5584
            ],
            [
              102.15,
              1.7215999999999994
            ],
            [
              102.8716,
              0.9999999999999993
            ]
          ]
        ]
      }
    },
    {
      "type": "Feature",
      "properties": {
        "kind": "compartment",
        "zone_id": "Ship_Officers_Quarters",
        "deck": "02_level",
        "room_type": "Room"
      },
      "geometry": {
        "type": "Polygon",
        "coordinates": [
          [
            [
              199.90660955184984,
              0.9999999999999996
            ],
            [
              204.58339044815017,
              0.9999999999999996
            ],
            [
              206.15364682466964,
              2.570256376519452
            ],
            [
              206.15364682466964,
              6.567272607659876
            ],
            [
              204.58339044815017,
              8.13752898417933
            ],
            [
              199.90660955184984,
              8.13752898417933
            ],
            [
              198.33635317533037,
              6.567272607659876
            ],
            [
              198.33635317533037,
              2.570256376519452
            ],
            [
              199.90660955184984,
              0.9999999999999996
            ]
          ]
        ]
      }
    },
    {
      "type": "Feature",
      "properties": {
        "kind": "compartment",
        "zone_id": "Ship_CPO_Quarters",
        "deck": "02_level",
        "room_type": "Room"
      },
      "geometry": {
        "type": "Polygon",
        "coordinates": [
          [
            [
              4.067636026629314,
              24.223452988258074
            ],
            [
              8.442363973370686,
              24.223452988258074
            ],
            [
              9.91120431595391,
              25.692293330841295
            ],
            [
              9.91120431595391,
              29.431159657416778
            ],
            [
              8.442363973370686,
              30.9
            ],
            [
              4.067636026629314,
              30.9
            ],
            [
              2.59879568404609,
              29.431159657416778
            ],
            [
              2.59879568404609,
              25.692293330841295
            ],
            [
              4.067636026629314,
              24.223452988258074
            ]
          ]
        ]
      }
    },
    {
      "type": "Feature",
      "properties": {
        "kind": "compartment",
        "zone_id": "Ship_Enlisted_Berthing",
        "deck": "3rd_deck",
        "room_type": "Room"
      },
      "geometry": {
        "type": "Polygon",
        "coordinates": [
          [
            [
              198.59660202731564,
              10.863728035191196
            ],
            [
              205.2620403354841,
              10.863728035191196
            ],
            [
              207.5,
              13.101687699707071
            ],
            [
              207.5,
              18.798312300292928
            ],
            [
              205.2620403354841,
              21.036271964808805
            ],
            [
              198.59660202731564,
              21.036271964808805
            ],
            [
              196.35864236279974,
              18.798312300292928
            ],
            [
              196.35864236279974,
              13.101687699707071
            ],
            [
              198.59660202731564,
              10.863728035191196
            ]
          ]
        ]
      }
    },
    {
      "type": "Feature",
      "properties": {
        "kind": "compartment",
        "zone_id": "Troop_Berthing_Fwd",
        "deck": "3rd_deck",
        "room_type": "Room"
      },
      "geometry": {
        "type": "Polygon",
        "coordinates": [
          [
            [
              54.68268006253178,
              10.307287886131348
            ],
            [
              62.077319937468225,
              10.307287886131348
            ],
            [
              64.56011326757043,
              12.790081216233553
            ],
            [
              64.56011326757043,
              19.10991878376644
            ],
            [
              62.077319937468225,
              21.592712113868647
            ],
            [
              54.68268006253178,
              21.592712113868647
            ],
            [
              52.199886732429576,
              19.10991878376644
            ],
            [
              52.199886732429576,
              12.790081216233553
            ],
            [
              54.68268006253178,
              10.307287886131348
            ]
          ]
        ]
      }
    },
    {
      "type": "Feature",
      "properties": {
        "kind": "compartment",
        "zone_id": "Troop_Berthing_Mid",
        "deck": "3rd_deck",
        "room_type": "Room"
      },
      "geometry": {
        "type": "Polygon",
        "coordinates": [
          [
            [
              111.09508536414624,
              10.486467488885967
            ],
            [
              118.25491463585378,
              10.486467488885967
            ],
            [
              120.65886894074396,
              12.890421793776138
            ],
            [
              120.65886894074396,
              19.00957820622386
            ],
            [
              118.25491463585378,
              21.41353251111403
            ],
            [
              111.09508536414624,
              21.41353251111403
            ],
            [
              108.69113105925607,
              19.00957820622386
            ],
            [
              108.69113105925607,
              12.890421793776138
            ],
            [
              111.09508536414624,
              10.486467488885967
            ]
          ]
        ]
      }
    },
    {
      "type": "Feature",
      "properties": {
        "kind": "compartment",
        "zone_id": "Troop_Berthing_Aft",
        "deck": "3rd_deck",
        "room_type": "Room"
      },
      "geometry": {
        "type": "Polygon",
        "coordinates": [
          [
            [
              167.5114738861764,
              10.671726134426141
            ],
            [
              174.4285261138236,
              10.671726134426141
            ],
            [
              176.75096661467612,
              12.994166635278637
            ],
            [
              176.75096661467612,
              18.905833364721357
            ],
            [
              174.4285261138236,
              21.228273865573858
            ],
            [
              167.5114738861764,
              21.228273865573858
            ],
            [
              165.18903338532388,
              18.905833364721357
            ],
            [
              165.18903338532388,
              12.994166635278637
            ],
            [
              167.5114738861764,
              10.671726134426141
            ]
          ]
        ]
      }
    },
    {
      "type": "Feature",
      "properties": {
        "kind": "compartment",
        "zone_id": "Crew_Mess",
        "deck": "2nd_deck",
        "room_type": "Dining"
      },
      "geometry": {
        "type": "Polygon",
        "coordinates": [
          [
            [
              162.83265274832436,
              16.309474424656983
            ],
            [
              170.38825634258475,
              16.309474424656983
            ],
            [
              171.76458759573566,
              17.68580567780791
            ],
            [
              171.76458759573566,
              21.18919432219209
            ],
            [
              170.38825634258475,
              22.565525575343017
            ],
            [
              162.83265274832436,
              22.565525575343017
            ],
            [
              161.45632149517346,
              21.18919432219209
            ],
            [
              161.45632149517346,
              17.68580567780791
            ],
            [
              162.83265274832436,
              16.309474424656983
            ]
          ]
        ]
      }
    },
    {
      "type": "Feature",
      "properties": {
        "kind": "compartment",
        "zone_id": "Troop_Mess",
        "deck": "2nd_deck",
        "room_type": "Dining"
      },
      "geometry": {
        "type": "Polygon",
        "coordinates": [
          [
            [
              73.00875412076604,
              15.698794341620351
            ],
            [
              82.03942769741579,
              15.698794341620351
            ],
            [
              83.68445818710283,
              17.343824831307394
            ],
            [
              83.68445818710283,
              21.531175168692606
            ],
            [
              82.03942769741579,
              23.176205658379647
            ],
            [
              73.00875412076604,
              23.176205658379647
            ],
            [
              71.363723631079,
              21.531175168692606
            ],
            [
              71.363723631079,
              17.343824831307394
            ],
            [
              73.00875412076604,
              15.698794341620351
            ]
          ]
        ]
      }
    },
    {
      "type": "Feature",
      "properties": {
        "kind": "compartment",
        "zone_id": "Galley",
        "deck": "2nd_deck",
        "room_type": "Dining"
      },
      "geometry": {
        "type": "Polygon",
        "coordinates": [
          [
            [
              110.30288663286512,
              26.17086984742437
            ],
            [
              116.0143860944076,
              26.17086984742437
            ],
            [
              117.05479472797424,
              27.211278480991005
            ],
            [
              117.05479472797424,
              29.859591366433364
            ],
            [
              116.0143860944076,
              30.9
            ],
            [
              110.30288663286512,
              30.9
            ],
            [
              109.26247799929848,
              29.859591366433364
            ],
            [
              109.26247799929848,
              27.211278480991005
            ],
            [
              110.30288663286512,
              26.17086984742437
            ]
          ]
        ]
      }
    },
    {
      "type": "Feature",
      "properties": {
        "kind": "compartment",
        "zone_id": "Medical_Ward",
        "deck": "2nd_deck",
        "room_type": "Free"
      },
      "geometry": {
        "type": "Polygon",
        "coordinates": [
          [
            [
              200.05382085690832,
              25.685934714639636
            ],
            [
              204.4361791430917,
              25.685934714639636
            ],
            [
              205.58327350587098,
              26.833029077418914
            ],
            [
              205.58327350587098,
              29.75290563722072
            ],
            [
              204.4361791430917,
              30.9
            ],
            [
              200.05382085690832,
              30.9
            ],
            [
              198.90672649412903,
              29.75290563722072
            ],
            [
              198.90672649412903,
              26.833029077418914
            ],
            [
              200.05382085690832,
              25.685934714639636
            ]
          ]
        ]
      }
    },
    {
      "type": "Feature",
      "properties": {
        "kind": "compartment",
        "zone_id": "Vehicle_Deck",
        "deck": "2nd_deck",
        "room_type": "Free"
      },
      "geometry": {
        "type": "Polygon",
        "coordinates": [
          [
            [
              4.330244588831279,
              11.868762298110735
            ],
            [
              17.05310806234855,
              11.868762298110735
            ],
            [
              20.383352651179827,
              15.199006886942009
            ],
            [
              20.383352651179827,
              23.67599311305799
            ],
            [
              17.05310806234855,
              27.006237701889265
            ],
            [
              4.330244588831279,
              27.006237701889265
            ],
            [
              1.0,
              23.67599311305799
            ],
            [
              1.0,
              15.199006886942009
            ],
            [
              4.330244588831279,
              11.868762298110735
            ]
          ]
        ]
      }
    },
    {
      "type": "Feature",
      "properties": {
        "kind": "compartment",
        "zone_id": "Troop_Recreation",
        "deck": "2nd_deck",
        "room_type": "Free"
      },
      "geometry": {
        "type": "Polygon",
        "coordinates": [
          [
            [
              21.804186835777433,
              25.502929683615378
            ],
            [
              26.340358618768025,
              25.502929683615378
            ],
            [
              27.52771408837264,
              26.690285153219993
            ],
            [
              27.52771408837264,
              29.712644530395384
            ],
            [
              26.340358618768025,
              30.9
            ],
            [
              21.804186835777433,
              30.9
            ],
            [
              20.616831366172818,
              29.712644530395384
            ],
            [
              20.616831366172818,
              26.690285153219993
            ],
            [
              21.804186835777433,
              25.502929683615378
            ]
          ]
        ]
      }
    },
    {
      "type": "Feature",
      "properties": {
        "kind": "compartment",
        "zone_id": "Passageway_Main",
        "deck": "2nd_deck",
        "room_type": "Free"
      },
      "geometry": {
        "type": "Polygon",
        "coordinates": [
          [
            [
              74.90513090909091,
              1.0
            ],
            [
              80.14305090909092,
              1.0
            ],
            [
              81.51409090909091,
              2.3710400000000003
            ],
            [
              81.51409090909091,
              5.86096
            ],
            [
              80.14305090909092,
              7.231999999999999
            ],
            [
              74.90513090909091,
              7.231999999999999
            ],
            [
              73.53409090909092,
              5.86096
            ],
            [
              73.53409090909092,
              2.3710400000000003
            ],
            [
              74.90513090909091,
              1.0
            ]
          ]
        ]
      }
    },
    {
      "type": "Feature",
      "properties": {
        "kind": "compartment",
        "zone_id": "HD_2N_M",
        "deck": "2nd_deck",
        "room_type": "Sanitary"
      },
      "geometry": {
        "type": "Polygon",
        "coordinates": [
          [
            [
              91.93567019636363,
              12.94393314285714
            ],
            [
              94.47633707636363,
              12.94393314285714
            ],
            [
              95.14136363636364,
              13.60895970285714
            ],
            [
              95.14136363636364,
              15.30175458285714
            ],
            [
              94.47633707636363,
              15.966781142857139
            ],
            [
              91.93567019636363,
              15.966781142857139
            ],
            [
              91.27064363636363,
              15.30175458285714
            ],
            [
              91.27064363636363,
              13.60895970285714
            ],
            [
              91.93567019636363,
              12.94393314285714
            ]
          ]
        ]
      }
    },
    {
      "type": "Feature",
      "properties": {
        "kind": "compartment",
        "zone_id": "HD_2N_F",
        "deck": "2nd_deck",
        "room_type": "Sanitary"
      },
      "geometry": {
        "type": "Polygon",
        "coordinates": [
          [
            [
              96.20639019636364,
              12.94393314285714
            ],
            [
              98.74705707636365,
              12.94393314285714
            ],
            [
              99.41208363636365,
              13.60895970285714
            ],
            [
              99.41208363636365,
              15.30175458285714
            ],
            [
              98.74705707636365,
              15.966781142857139
            ],
            [
              96.20639019636364,
              15.966781142857139
            ],
            [
              95.54136363636364,
              15.30175458285714
            ],
            [
              95.54136363636364,
              13.60895970285714
            ],
            [
              96.20639019636364,
              12.94393314285714
            ]
          ]
        ]
      }
    },
    {
      "type": "Feature",
      "properties": {
        "kind": "compartment",
        "zone_id": "Wardroom",
        "deck": "01_level",
        "room_type": "Dining"
      },
      "geometry": {
        "type": "Polygon",
        "coordinates": [
          [
            [
              200.03294577035732,
              19.698415767702727
            ],
            [
              204.4570542296427,
              19.698415767702727
            ],
            [
              205.26295129185348,
              20.504312829913527
            ],
            [
              205.26295129185348,
              22.555687170086475
            ],
            [
              204.4570542296427,
              23.361584232297275
            ],
            [
              200.03294577035732,
              23.361584232297275
            ],
            [
              199.22704870814653,
              22.555687170086475
            ],
            [
              199.22704870814653,
              20.504312829913527
            ],
            [
              200.03294577035732,
              19.698415767702727
            ]
          ]
        ]
      }
    },
    {
      "type": "Feature",
      "properties": {
        "kind": "compartment",
        "zone_id": "Hangar",
        "deck": "01_level",
        "room_type": "Free"
      },
      "geometry": {
        "type": "Polygon",
        "coordinates": [
          [
            [
              3.3747109392092343,
              0.9999999999999991
            ],
            [
              12.447054505190408,
              0.9999999999999991
            ],
            [
              14.821765444399643,
              3.3747109392092334
            ],
            [
              14.821765444399643,
              9.419429693560009
            ],
            [
              12.447054505190408,
              11.794140632769242
            ],
            [
              3.3747109392092343,
              11.794140632769242
            ],
            [
              1.0,
              9.419429693560009
            ],
            [
              1.0,
              3.3747109392092334
            ],
            [
              3.3747109392092343,
              0.9999999999999991
            ]
          ]
        ]
      }
    },
    {
      "type": "Feature",
      "properties": {
        "kind": "compartment",
        "zone_id": "Marine_Planning",
        "deck": "01_level",
        "room_type": "Free"
      },
      "geometry": {
        "type": "Polygon",
        "coordinates": [
          [
            [
              157.8816264837637,
              26.719447309266393
            ],
            [
              161.3953300379754,
              26.719447309266393
            ],
            [
              162.31505162993682,
              27.639168901227784
            ],
            [
              162.31505162993682,
              29.980278408038608
            ],
            [
              161.3953300379754,
              30.9
            ],
            [
              157.8816264837637,
              30.9
            ],
            [
              156.9619048918023,
              29.980278408038608
            ],
            [
              156.9619048918023,
              27.639168901227784
            ],
            [
              157.8816264837637,
              26.719447309266393
            ]
          ]
        ]
      }
    },
    {
      "type": "Feature",
      "properties": {
        "kind": "compartment",
        "zone_id": "HD_01L_M",
        "deck": "01_level",
        "room_type": "Sanitary"
      },
      "geometry": {
        "type": "Polygon",
        "coordinates": [
          [
            [
              119.3071326469565,
              1.1285759999999998
            ],
            [
              121.8477995269565,
              1.1285759999999998
            ],
            [
              122.51282608695651,
              1.7936025599999996
            ],
            [
              122.51282608695651,
              3.4863974399999993
            ],
            [
              121.8477995269565,
              4.151424
            ],
            [
              119.3071326469565,
              4.151424
            ],
            [
              118.6421060869565,
              3.4863974399999993
            ],
            [
              118.6421060869565,
              1.7936025599999996
            ],
            [
              119.3071326469565,
              1.1285759999999998
            ]
          ]
        ]
      }
    },
    {
      "type": "Feature",
      "properties": {
        "kind": "compartment",
        "zone_id": "HD_01L_F",
        "deck": "01_level",
        "room_type": "Sanitary"
      },
      "geometry": {
        "type": "Polygon",
        "coordinates": [
          [
            [
              123.57785264695652,
              1.1285759999999998
            ],
            [
              126.11851952695652,
              1.1285759999999998
            ],
            [
              126.78354608695652,
              1.7936025599999996
            ],
            [
              126.78354608695652,
              3.4863974399999993
            ],
            [
              126.11851952695652,
              4.151424
            ],
            [
              123.57785264695652,
              4.151424
            ],
            [
              122.91282608695651,
              3.4863974399999993
            ],
            [
              122.91282608695651,
              1.7936025599999996
            ],
            [
              123.57785264695652,
              1.1285759999999998
            ]
          ]
        ]
      }
    },
    {
      "type": "Feature",
      "properties": {
        "kind": "compartment",
        "zone_id": "Well_Deck",
        "deck": "1st_platform",
        "room_type": "Free"
      },
      "geometry": {
        "type": "Polygon",
        "coordinates": [
          [
            [
              5.22582908731529,
              11.69168596674867
            ],
            [
              21.37018278453093,
              11.69168596674867
            ],
            [
              25.596011871846223,
              15.917515054063962
            ],
            [
              25.596011871846223,
              26.67417091268471
            ],
            [
              21.37018278453093,
              30.9
            ],
            [
              5.22582908731529,
              30.9
            ],
            [
              0.9999999999999982,
              26.67417091268471
            ],
            [
              0.9999999999999982,
              15.917515054063962
            ],
            [
              5.22582908731529,
              11.69168596674867
            ]
          ]
        ]
      }
    },
    {
      "type": "Feature",
      "properties": {
        "kind": "compartment",
        "zone_id": "Engine_Room_Fwd",
        "deck": "1st_platform",
        "room_type": "Free"
      },
      "geometry": {
        "type": "Polygon",
        "coordinates": [
          [
            [
              54.67623124868735,
              5.564739111074007
            ],
            [
              62.083768751312654,
              5.564739111074007
            ],
            [
              64.02271211386865,
              7.503682473630017
            ],
            [
              64.02271211386865,
              12.439174669227125
            ],
            [
              62.083768751312654,
              14.378118031783135
            ],
            [
              54.67623124868735,
              14.378118031783135
            ],
            [
              52.737287886131355,
              12.439174669227125
            ],
            [
              52.737287886131355,
              7.503682473630017
            ],
            [
              54.67623124868735,
              5.564739111074007
            ]
          ]
        ]
      }
    },
    {
      "type": "Feature",
      "properties": {
        "kind": "compartment",
        "zone_id": "Engine_Room_Aft",
        "deck": "1st_platform",
        "room_type": "Free"
      },
      "geometry": {
        "type": "Polygon",
        "coordinates": [
          [
            [
              167.04155999999998,
              5.297428571428572
            ],
            [
              174.89844000000002,
              5.297428571428572
            ],
            [
              176.955,
              7.353988571428573
            ],
            [
              176.955,
              12.58886857142857
            ],
            [
              174.89844000000002,
              14.645428571428571
            ],
            [
              167.04155999999998,
              14.645428571428571
            ],
            [
              164.98499999999999,
              12.58886857142857
            ],
            [
              164.98499999999999,
              7.353988571428573
            ],
            [
              167.04155999999998,
              5.297428571428572
            ]
          ]
        ]
      }
    },
    {
      "type": "Feature",
      "properties": {
        "kind": "compartment",
        "zone_id": "HD_1S_M",
        "deck": "1st_platform",
        "room_type": "Sanitary"
      },
      "geometry": {
        "type": "Polygon",
        "coordinates": [
          [
            [
              164.118475,
              0.9999999999999993
            ],
            [
              166.875275,
              0.9999999999999993
            ],
            [
              167.59687499999998,
              1.7215999999999994
            ],
            [
              167.59687499999998,
              3.5584
            ],
            [
              166.875275,
              4.279999999999999
            ],
            [
              164.118475,
              4.279999999999999
            ],
            [
              163.396875,
              3.5584
            ],
            [
              163.396875,
              1.7215999999999994
            ],
            [
              164.118475,
              0.9999999999999993
            ]
          ]
        ]
      }
    },
    {
      "type": "Feature",
      "properties": {
        "kind": "compartment",
        "zone_id": "Flight_Deck",
        "deck": "weather_deck",
        "room_type": "Free"
      },
      "geometry": {
        "type": "Polygon",
        "coordinates": [
          [
            [
              101.04244217162028,
              12.133694980743808
            ],
            [
              107.45755782837972,
              12.133694980743808
            ],
            [
              109.13673203685244,
              13.812869189216533
            ],
            [
              109.13673203685244,
              18.08713081078347
            ],
            [
              107.45755782837972,
              19.76630501925619
            ],
            [
              101.04244217162028,
              19.76630501925619
            ],
            [
              99.36326796314756,
              18.08713081078347
            ],
            [
              99.36326796314756,
              13.812869189216533
            ],
            [
              101.04244217162028,
              12.133694980743808
            ]
          ]
        ]
      }
    },
    {
      "type": "Feature",
      "properties": {
        "kind": "hvac_path",
        "from": "Ship_Officers_Quarters",
        "to": "Ship_CPO_Quarters"
      },
      "geometry": {
        "type": "LineString",
        "coordinates": [
          [
            202.245,
            4.568764492089665
          ],
          [
            6.255,
            27.561726494129037
          ]
        ]
      }
    },
    {
      "type": "Feature",
      "properties": {
        "kind": "hvac_path",
        "from": "Crew_Mess",
        "to": "Galley"
      },
      "geometry": {
        "type": "LineString",
        "coordinates": [
          [
            166.61045454545456,
            19.4375
          ],
          [
            113.15863636363636,
            28.535434923712184
          ]
        ]
      }
    },
    {
      "type": "Feature",
      "properties": {
        "kind": "hvac_path",
        "from": "Galley",
        "to": "Troop_Mess"
      },
      "geometry": {
        "type": "LineString",
        "coordinates": [
          [
            113.15863636363636,
            28.535434923712184
          ],
          [
            77.52409090909092,
            19.4375
          ]
        ]
      }
    },
    {
      "type": "Feature",
      "properties": {
        "kind": "hvac_path",
        "from": "Troop_Mess",
        "to": "Troop_Recreation"
      },
      "geometry": {
        "type": "LineString",
        "coordinates": [
          [
            77.52409090909092,
            19.4375
          ],
          [
            24.07227272727273,
            28.201464841807688
          ]
        ]
      }
    },
    {
      "type": "Feature",
      "properties": {
        "kind": "hvac_path",
        "from": "Troop_Berthing_Fwd",
        "to": "Troop_Berthing_Mid"
      },
      "geometry": {
        "type": "LineString",
        "coordinates": [
          [
            58.38,
            15.949999999999996
          ],
          [
            114.67500000000001,
            15.95
          ]
        ]
      }
    },
    {
      "type": "Feature",
      "properties": {
        "kind": "hvac_path",
        "from": "Troop_Berthing_Mid",
        "to": "Troop_Berthing_Aft"
      },
      "geometry": {
        "type": "LineString",
        "coordinates": [
          [
            114.67500000000001,
            15.95
          ],
          [
            170.97,
            15.949999999999998
          ]
        ]
      }
    },
    {
      "type": "Feature",
      "properties": {
        "kind": "hvac_path",
        "from": "Troop_Recreation",
        "to": "Passageway_Main"
      },
      "geometry": {
        "type": "LineString",
        "coordinates": [
          [
            24.07227272727273,
            28.201464841807688
          ],
          [
            77.52409090909092,
            4.116
          ]
        ]
      }
    },
    {
      "type": "Feature",
      "properties": {
        "kind": "hvac_path",
        "from": "Medical_Ward",
        "to": "Passageway_Main"
      },
      "geometry": {
        "type": "LineString",
        "coordinates": [
          [
            202.245,
            28.292967357319817
          ],
          [
            77.52409090909092,
            4.116
          ]
        ]
      }
    },
    {
      "type": "Feature",
      "properties": {
        "kind": "hvac_path",
        "from": "Marine_Planning",
        "to": "Wardroom"
      },
      "geometry": {
        "type": "LineString",
        "coordinates": [
          [
            159.63847826086956,
            28.809723654633196
          ],
          [
            202.245,
            21.53
          ]
        ]
      }
    },
    {
      "type": "Feature",
      "properties": {
        "kind": "hvac_path",
        "from": "Engine_Room_Fwd",
        "to": "Engine_Room_Aft"
      },
      "geometry": {
        "type": "LineString",
        "coordinates": [
          [
            58.38,
            9.971428571428572
          ],
          [
            170.97,
            9.971428571428572
          ]
        ]
      }
    },
    {
      "type": "Feature",
      "properties": {
        "kind": "hvac_path",
        "from": "Passageway_Main",
        "to": "Galley"
      },
      "geometry": {
        "type": "LineString",
        "coordinates": [
          [
            77.52409090909092,
            4.116
          ],
          [
            113.15863636363636,
            28.535434923712184
          ]
        ]
      }
    },
    {
      "type": "Feature",
      "properties": {
        "kind": "hvac_path",
        "from": "Passageway_Main",
        "to": "Medical_Ward"
      },
      "geometry": {
        "type": "LineString",
        "coordinates": [
          [
            77.52409090909092,
            4.116
          ],
          [
            202.245,
            28.292967357319817
          ]
        ]
      }
    }
  ]
}