{
  "type": "FeatureCollection",
  "features": [
    {
      "type": "Feature",
      "properties": {
        "kind": "hull_outline",
        "platform_id": "expedition_cruise_300"
      },
      "geometry": {
        "type": "Polygon",
        "coordinates": [
          [
            [
              7.8500000000000005,
              10.5
            ],
            [
              21.98,
              4.2
            ],
            [
              54.949999999999996,
              1.68
            ],
            [
              122.46000000000001,
              1.26
            ],
            [
              147.57999999999998,
              5.25
            ],
            [
              152.29,
              10.5
            ],
            [
              147.57999999999998,
              15.75
            ],
            [
              122.46000000000001,
              19.74
            ],
            [
              54.949999999999996,
              19.32
            ],
            [
              21.98,
              16.8
            ],
            [
              7.8500000000000005,
              10.5
            ]
          ]
        ]
      }
    },
    {
      "type": "Feature",
      "properties": {
        "kind": "hull_waterline",
        "platform_id": "expedition_cruise_300"
      },
      "geometry": {
        "type": "Polygon",
        "coordinates": [
          [
            [
              14.054639999999992,
              10.5
            ],
            [
              27.05424,
              4.704
            ],
            [
              57.38663999999999,
              2.3856
            ],
            [
              119.49584000000002,
              1.9992
            ],
            [
              142.60623999999999,
              5.67
            ],
            [
              146.93944,
              10.5
            ],
            [
              142.60623999999999,
              15.33
            ],
            [
              119.49584000000002,
              19.000799999999998
            ],
            [
              57.38663999999999,
              18.6144
            ],
            [
              27.05424,
              16.296
            ],
            [
              14.054639999999992,
              10.5
            ]
          ]
        ]
      }
    },
    {
      "type": "Feature",
      "properties": {
        "kind": "compartment",
        "zone_id": "Bridge",
        "deck": "7_Sun",
        "room_type": "Free"
      },
      "geometry": {
        "type": "Polygon",
        "coordinates": [
          [
            [
              150.53314822289414,
              15.819447309266394
            ],
            [
              154.04685177710584,
              15.819447309266394
            ],
            [
              154.96657336906725,
              16.739168901227785
            ],
            [
              154.96657336906725,
              19.08027840803861
            ],
            [
              154.04685177710584,
              20.0
            ],
            [
              150.53314822289414,
              20.0
            ],
            [
              149.61342663093274,
              19.08027840803861
            ],
            [
              149.61342663093274,
              16.739168901227785
            ],
            [
              150.53314822289414,
              15.819447309266394
            ]
          ]
        ]
      }
    },
    {
      "type": "Feature",
      "properties": {
        "kind": "compartment",
        "zone_id": "Pool_Deck",
        "deck": "7_Sun",
        "room_type": "Free"
      },
      "geometry": {
        "type": "Polygon",
        "coordinates": [
          [
            [
              54.132254380578985,
              9.903005991880551
            ],
            [
              62.618654710330105,
              9.903005991880551
            ],
            [
              64.83999339211638,
              12.124344673666831
            ],
            [
              64.83999339211638,
              17.77866131821372
            ],
            [
              62.618654710330105,
              20.0
            ],
            [
              54.132254380578985,
              20.0
            ],
            [
              51.91091569879271,
              17.77866131821372
            ],
            [
              51.91091569879271,
              12.124344673666831
            ],
            [
              54.132254380578985,
              9.903005991880551
            ]
          ]
        ]
      }
    },
    {
      "type": "Feature",
      "properties": {
        "kind": "compartment",
        "zone_id": "Observation_Lounge",
        "deck": "7_Sun",
        "room_type": "Free"
      },
      "geometry": {
        "type": "Polygon",
        "coordinates": [
          [
            [
              2.570723645203063,
              12.8603470672588
            ],
            [
              8.571514866233837,
              12.8603470672588
            ],
            [
              10.1422385114369,
              14.431070712461866
            ],
            [
              10.1422385114369,
              18.42927635479694
            ],
            [
              8.571514866233837,
              20.0
            ],
            [
              2.570723645203063,
              20.0
            ],
            [
              0.9999999999999991,
              18.42927635479694
            ],
            [
              0.9999999999999991,
              14.431070712461866
            ],
            [
              2.570723645203063,
              12.8603470672588
            ]
          ]
        ]
      }
    },
    {
      "type": "Feature",
      "properties": {
        "kind": "compartment",
        "zone_id": "HD_7S_M",
        "deck": "7_Sun",
        "room_type": "Sanitary"
      },
      "geometry": {
        "type": "Polygon",
        "coordinates": [
          [
            [
              68.38612474181816,
              1.1285759999999998
            ],
            [
              70.92679162181817,
              1.1285759999999998
            ],
            [
              71.59181818181817,
              1.7936025599999996
            ],
            [
              71.59181818181817,
              3.4863974399999993
            ],
            [
              70.92679162181817,
              4.151424
            ],
            [
              68.38612474181816,
              4.151424
            ],
            [
              67.72109818181816,
              3.4863974399999993
            ],
            [
              67.72109818181816,
              1.7936025599999996
            ],
            [
              68.38612474181816,
              1.1285759999999998
            ]
          ]
        ]
      }
    },
    {
      "type": "Feature",
      "properties": {
        "kind": "compartment",
        "zone_id": "HD_7S_F",
        "deck": "7_Sun",
        "room_type": "Sanitary"
      },
      "geometry": {
        "type": "Polygon",
        "coordinates": [
          [
            [
              72.65684474181818,
              1.1285759999999998
            ],
            [
              75.19751162181818,
              1.1285759999999998
            ],
            [
              75.86253818181818,
              1.7936025599999996
            ],
            [
              75.86253818181818,
              3.4863974399999993
            ],
            [
              75.19751162181818,
              4.151424
            ],
            [
              72.65684474181818,
              4.151424
            ],
            [
              71.99181818181818,
              3.4863974399999993
            ],
            [
              71.99181818181818,
              1.7936025599999996
            ],
            [
              72.65684474181818,
              1.1285759999999998
            ]
          ]
        ]
      }
    },
    {
      "type": "Feature",
      "properties": {
        "kind": "compartment",
        "zone_id": "Gym",
        "deck": "6_Explorer",
        "room_type": "Free"
      },
      "geometry": {
        "type": "Polygon",
        "coordinates": [
          [
            [
              150.1383047961944,
              7.939944766220854
            ],
            [
              154.44169520380558,
              7.939944766220854
            ],
            [
              155.5681195066684,
              9.06636906908368
            ],
            [
              155.5681195066684,
              11.93363093091632
            ],
            [
              154.44169520380558,
              13.060055233779146
            ],
            [
              150.1383047961944,
              13.060055233779146
            ],
            [
              149.01188049333157,
              11.93363093091632
            ],
            [
              149.01188049333157,
              9.06636906908368
            ],
            [
              150.1383047961944,
              7.939944766220854
            ]
          ]
        ]
      }
    },
    {
      "type": "Feature",
      "properties": {
        "kind": "compartment",
        "zone_id": "Spa",
        "deck": "6_Explorer",
        "room_type": "Free"
      },
      "geometry": {
        "type": "Polygon",
        "coordinates": [
          [
            [
              136.84499867075968,
              8.086356778643538
            ],
            [
              140.90227405651305,
              8.086356778643538
            ],
            [
              141.9642770739099,
              9.148359796040381
            ],
            [
              141.9642770739099,
              11.851640203959619
            ],
            [
              140.90227405651305,
              12.913643221356462
            ],
            [
              136.84499867075968,
              12.913643221356462
            ],
            [
              135.78299565336283,
              11.851640203959619
            ],
            [
              135.78299565336283,
              9.148359796040381
            ],
            [
              136.84499867075968,
              8.086356778643538
            ]
          ]
        ]
      }
    },
    {
      "type": "Feature",
      "properties": {
        "kind": "compartment",
        "zone_id": "Buffet_Lido",
        "deck": "6_Explorer",
        "room_type": "Dining"
      },
      "geometry": {
        "type": "Polygon",
        "coordinates": [
          [
            [
              39.89063793474853,
              6.303313306905077
            ],
            [
              50.027543883433275,
              6.303313306905077
            ],
            [
              51.87408602839504,
              8.149855451866843
            ],
            [
              51.87408602839504,
              12.850144548133157
            ],
            [
              50.027543883433275,
              14.696686693094923
            ],
            [
              39.89063793474853,
              14.696686693094923
            ],
            [
              38.044095789786766,
              12.850144548133157
            ],
            [
              38.044095789786766,
              8.149855451866843
            ],
            [
              39.89063793474853,
              6.303313306905077
            ]
          ]
        ]
      }
    },
    {
      "type": "Feature",
      "properties": {
        "kind": "compartment",
        "zone_id": "Expedition_Lounge",
        "deck": "6_Explorer",
        "room_type": "Free"
      },
      "geometry": {
        "type": "Polygon",
        "coordinates": [
          [
            [
              2.404897937816124,
              7.3070501413269895
            ],
            [
              7.7721687734196365,
              7.3070501413269895
            ],
            [
              9.17706671123576,
              8.711948079143115
            ],
            [
              9.17706671123576,
              12.288051920856885
            ],
            [
              7.7721687734196365,
              13.69294985867301
            ],
            [
              2.404897937816124,
              13.69294985867301
            ],
            [
              0.9999999999999991,
              12.288051920856885
            ],
            [
              0.9999999999999991,
              8.711948079143115
            ],
            [
              2.404897937816124,
              7.3070501413269895
            ]
          ]
        ]
      }
    },
    {
      "type": "Feature",
      "properties": {
        "kind": "compartment",
        "zone_id": "Cabin_Deck6_Port",
        "deck": "6_Explorer",
        "room_type": "Room"
      },
      "geometry": {
        "type": "Polygon",
        "coordinates": [
          [
            [
              95.61643166087596,
              1.118257315834387
            ],
            [
              101.63265924821492,
              1.118257315834387
            ],
            [
              103.65264263873136,
              3.138240706350822
            ],
            [
              103.65264263873136,
              8.280016609483564
            ],
            [
              101.63265924821492,
              10.3
            ],
            [
              95.61643166087596,
              10.3
            ],
            [
              93.59644827035952,
              8.280016609483564
            ],
            [
              93.59644827035952,
              3.138240706350822
            ],
            [
              95.61643166087596,
              1.118257315834387
            ]
          ]
        ]
      }
    },
    {
      "type": "Feature",
      "properties": {
        "kind": "compartment",
        "zone_id": "Cabin_Deck6_Stbd",
        "deck": "6_Explorer",
        "room_type": "Room"
      },
      "geometry": {
        "type": "Polygon",
        "coordinates": [
          [
            [
              95.61643166087596,
              10.700000000000001
            ],
            [
              101.63265924821492,
              10.700000000000001
            ],
            [
              103.65264263873136,
              12.719983390516436
            ],
            [
              103.65264263873136,
              17.86175929364918
            ],
            [
              101.63265924821492,
              19.881742684165616
            ],
            [
              95.61643166087596,
              19.881742684165616
            ],
            [
              93.59644827035952,
              17.86175929364918
            ],
            [
              93.59644827035952,
              12.719983390516436
            ],
            [
              95.61643166087596,
              10.700000000000001
            ]
          ]
        ]
      }
    },
    {
      "type": "Feature",
      "properties": {
        "kind": "compartment",
        "zone_id": "HD_6E_M",
        "deck": "6_Explorer",
        "room_type": "Sanitary"
      },
      "geometry": {
        "type": "Polygon",
        "coordinates": [
          [
            [
              81.80248837818179,
              2.1885760000000003
            ],
            [
              84.3431552581818,
              2.1885760000000003
            ],
            [
              85.0081818181818,
              2.8536025600000006
            ],
            [
              85.0081818181818,
              4.54639744
            ],
            [
              84.3431552581818,
              5.211424
            ],
            [
              81.80248837818179,
              5.211424
            ],
            [
              81.13746181818179,
              4.54639744
            ],
            [
              81.13746181818179,
              2.8536025600000006
            ],
            [
              81.80248837818179,
              2.1885760000000003
            ]
          ]
        ]
      }
    },
    {
      "type": "Feature",
      "properties": {
        "kind": "compartment",
        "zone_id": "HD_6E_F",
        "deck": "6_Explorer",
        "room_type": "Sanitary"
      },
      "geometry": {
        "type": "Polygon",
        "coordinates": [
          [
            [
              86.0732083781818,
              2.1885760000000003
            ],
            [
              88.6138752581818,
              2.1885760000000003
            ],
            [
              89.27890181818181,
              2.8536025600000006
            ],
            [
              89.27890181818181,
              4.54639744
            ],
            [
              88.6138752581818,
              5.211424
            ],
            [
              86.0732083781818,
              5.211424
            ],
            [
              85.4081818181818,
              4.54639744
            ],
            [
              85.4081818181818,
              2.8536025600000006
            ],
            [
              86.0732083781818,
              2.1885760000000003
            ]
          ]
        ]
      }
    },
    {
      "type": "Feature",
      "properties": {
        "kind": "compartment",
        "zone_id": "Main_Dining_Room",
        "deck": "5_Panorama",
        "room_type": "Dining"
      },
      "geometry": {
        "type": "Polygon",
        "coordinates": [
          [
            [
              3.3838756585023457,
              5.082100776131029
            ],
            [
              16.470564965611302,
              5.082100776131029
            ],
            [
              18.854440624113654,
              7.465976434633378
            ],
            [
              18.854440624113654,
              13.534023565366622
            ],
            [
              16.470564965611302,
              15.917899223868972
            ],
            [
              3.3838756585023457,
              15.917899223868972
            ],
            [
              0.9999999999999982,
              13.534023565366622
            ],
            [
              0.9999999999999982,
              7.465976434633378
            ],
            [
              3.3838756585023457,
              5.082100776131029
            ]
          ]
        ]
      }
    },
    {
      "type": "Feature",
      "properties": {
        "kind": "compartment",
        "zone_id": "Theater_Lounge",
        "deck": "5_Panorama",
        "room_type": "Free"
      },
      "geometry": {
        "type": "Polygon",
        "coordinates": [
          [
            [
              60.84852435497684,
              4.991638174556795
            ],
            [
              70.10794623325843,
              4.991638174556795
            ],
            [
              72.53162543645345,
              7.415317377751807
            ],
            [
              72.53162543645345,
              13.584682622248193
            ],
            [
              70.10794623325843,
              16.008361825443206
            ],
            [
              60.84852435497684,
              16.008361825443206
            ],
            [
              58.42484515178184,
              13.584682622248193
            ],
            [
              58.42484515178184,
              7.415317377751807
            ],
            [
              60.84852435497684,
              4.991638174556795
            ]
          ]
        ]
      }
    },
    {
      "type": "Feature",
      "properties": {
        "kind": "compartment",
        "zone_id": "Casino",
        "deck": "5_Panorama",
        "room_type": "Free"
      },
      "geometry": {
        "type": "Polygon",
        "coordinates": [
          [
            [
              116.35416044019249,
              17.118022009539416
            ],
            [
              118.77642779510157,
              17.118022009539416
            ],
            [
              119.41046295300289,
              17.752057167440743
            ],
            [
              119.41046295300289,
              19.365964842098673
            ],
            [
              118.77642779510157,
              20.0
            ],
            [
              116.35416044019249,
              20.0
            ],
            [
              115.72012528229116,
              19.365964842098673
            ],
            [
              115.72012528229116,
              17.752057167440743
            ],
            [
              116.35416044019249,
              17.118022009539416
            ]
          ]
        ]
      }
    },
    {
      "type": "Feature",
      "properties": {
        "kind": "compartment",
        "zone_id": "Library",
        "deck": "5_Panorama",
        "room_type": "Free"
      },
      "geometry": {
        "type": "Polygon",
        "coordinates": [
          [
            [
              150.9116,
              8.86
            ],
            [
              153.6684,
              8.86
            ],
            [
              154.39,
              9.5816
            ],
            [
              154.39,
              11.4184
            ],
            [
              153.6684,
              12.14
            ],
            [
              150.9116,
              12.14
            ],
            [
              150.19,
              11.4184
            ],
            [
              150.19,
              9.5816
            ],
            [
              150.9116,
              8.86
            ]
          ]
        ]
      }
    },
    {
      "type": "Feature",
      "properties": {
        "kind": "compartment",
        "zone_id": "Cabin_Deck5_Port",
        "deck": "5_Panorama",
        "room_type": "Room"
      },
      "geometry": {
        "type": "Polygon",
        "coordinates": [
          [
            [
              114.55718032397755,
              1.0926962855799074
            ],
            [
              120.57340791131651,
              1.0926962855799074
            ],
            [
              122.59339130183295,
              3.1126796760963424
            ],
            [
              122.59339130183295,
              8.254455579229084
            ],
            [
              120.57340791131651,
              10.274438969745521
            ],
            [
              114.55718032397755,
              10.274438969745521
            ],
            [
              112.5371969334611,
              8.254455579229084
            ],
            [
              112.5371969334611,
              3.1126796760963424
            ],
            [
              114.55718032397755,
              1.0926962855799074
            ]
          ]
        ]
      }
    },
    {
      "type": "Feature",
      "properties": {
        "kind": "compartment",
        "zone_id": "Cabin_Deck5_Stbd",
        "deck": "5_Panorama",
        "room_type": "Room"
      },
      "geometry": {
        "type": "Polygon",
        "coordinates": [
          [
            [
              115.48207305222238,
              10.674438969745522
            ],
            [
              119.64851518307168,
              10.674438969745522
            ],
            [
              121.04742235200513,
              12.073346138678948
            ],
            [
              121.04742235200513,
              15.634200750509494
            ],
            [
              119.64851518307168,
              17.033107919442923
            ],
            [
              115.48207305222238,
              17.033107919442923
            ],
            [
              114.08316588328893,
              15.634200750509494
            ],
            [
              114.08316588328893,
              12.073346138678948
            ],
            [
              115.48207305222238,
              10.674438969745522
            ]
          ]
        ]
      }
    },
    {
      "type": "Feature",
      "properties": {
        "kind": "compartment",
        "zone_id": "HD_5P_M",
        "deck": "5_Panorama",
        "room_type": "Sanitary"
      },
      "geometry": {
        "type": "Polygon",
        "coordinates": [
          [
            [
              81.60518891294114,
              4.738576
            ],
            [
              84.14585579294115,
              4.738576
            ],
            [
              84.81088235294115,
              5.4036025599999995
            ],
            [
              84.81088235294115,
              7.0963974400000005
            ],
            [
              84.14585579294115,
              7.761424
            ],
            [
              81.60518891294114,
              7.761424
            ],
            [
              80.94016235294114,
              7.0963974400000005
            ],
            [
              80.94016235294114,
              5.4036025599999995
            ],
            [
              81.60518891294114,
              4.738576
            ]
          ]
        ]
      }
    },
    {
      "type": "Feature",
      "properties": {
        "kind": "compartment",
        "zone_id": "HD_5P_F",
        "deck": "5_Panorama",
        "room_type": "Sanitary"
      },
      "geometry": {
        "type": "Polygon",
        "coordinates": [
          [
            [
              85.87590891294116,
              4.738576
            ],
            [
              88.41657579294116,
              4.738576
            ],
            [
              89.08160235294116,
              5.4036025599999995
            ],
            [
              89.08160235294116,
              7.0963974400000005
            ],
            [
              88.41657579294116,
              7.761424
            ],
            [
              85.87590891294116,
              7.761424
            ],
            [
              85.21088235294116,
              7.0963974400000005
            ],
            [
              85.21088235294116,
              5.4036025599999995
            ],
            [
              85.87590891294116,
              4.738576
            ]
          ]
        ]
      }
    },
    {
      "type": "Feature",
      "properties": {
        "kind": "compartment",
        "zone_id": "MedBay",
        "deck": "4_Voyager",
        "room_type": "Medical"
      },
      "geometry": {
        "type": "Polygon",
        "coordinates": [
          [
            [
              52.52493333333333,
              8.86
            ],
            [
              55.28173333333333,
              8.86
            ],
            [
              56.00333333333333,
              9.5816
            ],
            [
              56.00333333333333,
              11.4184
            ],
            [
              55.28173333333333,
              12.14
            ],
            [
              52.52493333333333,
              12.14
            ],
            [
              51.80333333333333,
              11.4184
            ],
            [
              51.80333333333333,
              9.5816
            ],
            [
              52.52493333333333,
              8.86
            ]
          ]
        ]
      }
    },
    {
      "type": "Feature",
      "properties": {
        "kind": "compartment",
        "zone_id": "Reception_Lobby",
        "deck": "4_Voyager",
        "room_type": "Free"
      },
      "geometry": {
        "type": "Polygon",
        "coordinates": [
          [
            [
              2.282490485890635,
              7.585248895703099
            ],
            [
              7.1821160007233775,
              7.585248895703099
            ],
            [
              8.464606486614013,
              8.867739381593736
            ],
            [
              8.464606486614013,
              12.132260618406264
            ],
            [
              7.1821160007233775,
              13.4147511042969
            ],
            [
              2.282490485890635,
              13.4147511042969
            ],
            [
              0.9999999999999987,
              12.132260618406264
            ],
            [
              0.9999999999999987,
              8.867739381593736
            ],
            [
              2.282490485890635,
              7.585248895703099
            ]
          ]
        ]
      }
    },
    {
      "type": "Feature",
      "properties": {
        "kind": "compartment",
        "zone_id": "Cabin_Deck4_Port",
        "deck": "4_Voyager",
        "room_type": "Room"
      },
      "geometry": {
        "type": "Polygon",
        "coordinates": [
          [
            [
              144.827657263675,
              1.1527255420490432
            ],
            [
              150.82129995612286,
              1.1527255420490432
            ],
            [
              152.83370033687208,
              3.1651259227982536
            ],
            [
              152.83370033687208,
              8.28759961925079
            ],
            [
              150.82129995612286,
              10.3
            ],
            [
              144.827657263675,
              10.3
            ],
            [
              142.81525688292578,
              8.28759961925079
            ],
            [
              142.81525688292578,
              3.1651259227982536
            ],
            [
              144.827657263675,
              1.1527255420490432
            ]
          ]
        ]
      }
    },
    {
      "type": "Feature",
      "properties": {
        "kind": "compartment",
        "zone_id": "Cabin_Deck4_Stbd",
        "deck": "4_Voyager",
        "room_type": "Room"
      },
      "geometry": {
        "type": "Polygon",
        "coordinates": [
          [
            [
              144.827657263675,
              10.700000000000001
            ],
            [
              150.82129995612286,
              10.700000000000001
            ],
            [
              152.83370033687208,
              12.71240038074921
            ],
            [
              152.83370033687208,
              17.83487407720175
            ],
            [
              150.82129995612286,
              19.84727445795096
            ],
            [
              144.827657263675,
              19.84727445795096
            ],
            [
              142.81525688292578,
              17.83487407720175
            ],
            [
              142.81525688292578,
              12.71240038074921
            ],
            [
              144.827657263675,
              10.700000000000001
            ]
          ]
        ]
      }
    },
    {
      "type": "Feature",
      "properties": {
        "kind": "compartment",
        "zone_id": "HD_4V_M",
        "deck": "4_Voyager",
        "room_type": "Sanitary"
      },
      "geometry": {
        "type": "Polygon",
        "coordinates": [
          [
            [
              25.900973226666665,
              2.1885760000000003
            ],
            [
              28.441640106666668,
              2.1885760000000003
            ],
            [
              29.106666666666666,
              2.8536025600000006
            ],
            [
              29.106666666666666,
              4.54639744
            ],
            [
              28.441640106666668,
              5.211424
            ],
            [
              25.900973226666665,
              5.211424
            ],
            [
              25.235946666666667,
              4.54639744
            ],
            [
              25.235946666666667,
              2.8536025600000006
            ],
            [
              25.900973226666665,
              2.1885760000000003
            ]
          ]
        ]
      }
    },
    {
      "type": "Feature",
      "properties": {
        "kind": "compartment",
        "zone_id": "HD_4V_F",
        "deck": "4_Voyager",
        "room_type": "Sanitary"
      },
      "geometry": {
        "type": "Polygon",
        "coordinates": [
          [
            [
              30.17169322666666,
              2.1885760000000003
            ],
            [
              32.712360106666665,
              2.1885760000000003
            ],
            [
              33.377386666666666,
              2.8536025600000006
            ],
            [
              33.377386666666666,
              4.54639744
            ],
            [
              32.712360106666665,
              5.211424
            ],
            [
              30.17169322666666,
              5.211424
            ],
            [
              29.506666666666664,
              4.54639744
            ],
            [
              29.506666666666664,
              2.8536025600000006
            ],
            [
              30.17169322666666,
              2.1885760000000003
            ]
          ]
        ]
      }
    },
    {
      "type": "Feature",
      "properties": {
        "kind": "compartment",
        "zone_id": "Galley",
        "deck": "3_Marina",
        "room_type": "Dining"
      },
      "geometry": {
        "type": "Polygon",
        "coordinates": [
          [
            [
              2.6856546436325557,
              6.668966719016918
            ],
            [
              11.939341395970782,
              6.668966719016918
            ],
            [
              13.624996039603339,
              8.354621362649475
            ],
            [
              13.624996039603339,
              12.645378637350525
            ],
            [
              11.939341395970782,
              14.331033280983082
            ],
            [
              2.6856546436325557,
              14.331033280983082
            ],
            [
              0.9999999999999991,
              12.645378637350525
            ],
            [
              0.9999999999999991,
              8.354621362649475
            ],
            [
              2.6856546436325557,
              6.668966719016918
            ]
          ]
        ]
      }
    },
    {
      "type": "Feature",
      "properties": {
        "kind": "compartment",
        "zone_id": "Crew_Mess",
        "deck": "3_Marina",
        "room_type": "Dining"
      },
      "geometry": {
        "type": "Polygon",
        "coordinates": [
          [
            [
              31.299727310888475,
              8.077041808037126
            ],
            [
              37.15227268911153,
              8.077041808037126
            ],
            [
              38.21837429357519,
              9.143143412500791
            ],
            [
              38.21837429357519,
              11.856856587499209
            ],
            [
              37.15227268911153,
              12.922958191962874
            ],
            [
              31.299727310888475,
              12.922958191962874
            ],
            [
              30.23362570642481,
              11.856856587499209
            ],
            [
              30.23362570642481,
              9.143143412500791
            ],
            [
              31.299727310888475,
              8.077041808037126
            ]
          ]
        ]
      }
    },
    {
      "type": "Feature",
      "properties": {
        "kind": "compartment",
        "zone_id": "Laundry",
        "deck": "3_Marina",
        "room_type": "Free"
      },
      "geometry": {
        "type": "Polygon",
        "coordinates": [
          [
            [
              111.23805326738308,
              8.48060119837611
            ],
            [
              114.63261339928353,
              8.48060119837611
            ],
            [
              115.52114887199804,
              9.369136671090622
            ],
            [
              115.52114887199804,
              11.630863328909378
            ],
            [
              114.63261339928353,
              12.51939880162389
            ],
            [
              111.23805326738308,
              12.51939880162389
            ],
            [
              110.34951779466857,
              11.630863328909378
            ],
            [
              110.34951779466857,
              9.369136671090622
            ],
            [
              111.23805326738308,
              8.48060119837611
            ]
          ]
        ]
      }
    },
    {
      "type": "Feature",
      "properties": {
        "kind": "compartment",
        "zone_id": "Crew_Quarters",
        "deck": "3_Marina",
        "room_type": "Room"
      },
      "geometry": {
        "type": "Polygon",
        "coordinates": [
          [
            [
              68.54210392177984,
              4.620666040316365
            ],
            [
              78.61922941155348,
              4.620666040316365
            ],
            [
              82.00268288268389,
              8.004119511446767
            ],
            [
              82.00268288268389,
              16.6165465288696
            ],
            [
              78.61922941155348,
              20.0
            ],
            [
              68.54210392177984,
              20.0
            ],
            [
              65.15865045064943,
              16.6165465288696
            ],
            [
              65.15865045064943,
              8.004119511446767
            ],
            [
              68.54210392177984,
              4.620666040316365
            ]
          ]
        ]
      }
    },
    {
      "type": "Feature",
      "properties": {
        "kind": "compartment",
        "zone_id": "Stores",
        "deck": "3_Marina",
        "room_type": "Free"
      },
      "geometry": {
        "type": "Polygon",
        "coordinates": [
          [
            [
              149.22783122658038,
              7.3070501413269895
            ],
            [
              154.59510206218388,
              7.3070501413269895
            ],
            [
              156.0,
              8.711948079143115
            ],
            [
              156.0,
              12.288051920856885
            ],
            [
              154.59510206218388,
              13.69294985867301
            ],
            [
              149.22783122658038,
              13.69294985867301
            ],
            [
              147.82293328876426,
              12.288051920856885
            ],
            [
              147.82293328876426,
              8.711948079143115
            ],
            [
              149.22783122658038,
              7.3070501413269895
            ]
          ]
        ]
      }
    },
    {
      "type": "Feature",
      "properties": {
        "kind": "compartment",
        "zone_id": "HD_3M_M",
        "deck": "3_Marina",
        "room_type": "Sanitary"
      },
      "geometry": {
        "type": "Polygon",
        "coordinates": [
          [
            [
              72.63463989333331,
              1.1285759999999998
            ],
            [
              75.17530677333332,
              1.1285759999999998
            ],
            [
              75.84033333333332,
              1.7936025599999996
            ],
            [
              75.84033333333332,
              3.4863974399999993
            ],
            [
              75.17530677333332,
              4.151424
            ],
            [
              72.63463989333331,
              4.151424
            ],
            [
              71.96961333333331,
              3.4863974399999993
            ],
            [
              71.96961333333331,
              1.7936025599999996
            ],
            [
              72.63463989333331,
              1.1285759999999998
            ]
          ]
        ]
      }
    },
    {
      "type": "Feature",
      "properties": {
        "kind": "compartment",
        "zone_id": "HD_3M_F",
        "deck": "3_Marina",
        "room_type": "Sanitary"
      },
      "geometry": {
        "type": "Polygon",
        "coordinates": [
          [
            [
              76.90535989333333,
              1.1285759999999998
            ],
            [
              79.44602677333333,
              1.1285759999999998
            ],
            [
              80.11105333333333,
              1.7936025599999996
            ],
            [
              80.11105333333333,
              3.4863974399999993
            ],
            [
              79.44602677333333,
              4.151424
            ],
            [
              76.90535989333333,
              4.151424
            ],
            [
              76.24033333333333,
              3.4863974399999993
            ],
            [
              76.24033333333333,
              1.7936025599999996
            ],
            [
              76.90535989333333,
              1.1285759999999998
            ]
          ]
        ]
      }
    },
    {
      "type": "Feature",
      "properties": {
        "kind": "compartment",
        "zone_id": "Engine_Room",
        "deck": "2_Engine",
        "room_type": "Free"
      },
      "geometry": {
        "type": "Polygon",
        "coordinates": [
          [
            [
              71.92646257072494,
              4.357804143918926
            ],
            [
              85.07353742927506,
              4.357804143918926
            ],
            [
              88.51482051761289,
              7.7990872322567615
            ],
            [
              88.51482051761289,
              16.558716911662167
            ],
            [
              85.07353742927506,
              20.0
            ],
            [
              71.92646257072494,
              20.0
            ],
            [
              68.48517948238711,
              16.558716911662167
            ],
            [
              68.48517948238711,
              7.7990872322567615
            ],
            [
              71.92646257072494,
              4.357804143918926
            ]
          ]
        ]
      }
    },
    {
      "type": "Feature",
      "properties": {
        "kind": "compartment",
        "zone_id": "HD_2E_M",
        "deck": "2_Engine",
        "room_type": "Sanitary"
      },
      "geometry": {
        "type": "Polygon",
        "coordinates": [
          [
            [
              77.1216,
              0.9999999999999993
            ],
            [
              79.8784,
              0.9999999999999993
            ],
            [
              80.6,
              1.7215999999999994
            ],
            [
              80.6,
              3.5584
            ],
            [
              79.8784,
              4.279999999999999
            ],
            [
              77.1216,
              4.279999999999999
            ],
            [
              76.4,
              3.5584
            ],
            [
              76.4,
              1.7215999999999994
            ],
            [
              77.1216,
              0.9999999999999993
            ]
          ]
        ]
      }
    },
    {
      "type": "Feature",
      "properties": {
        "kind": "hvac_path",
        "from": "Bridge",
        "to": "Observation_Lounge"
      },
      "geometry": {
        "type": "LineString",
        "coordinates": [
          [
            152.29,
            17.909723654633197
          ],
          [
            5.57111925571845,
            16.4301735336294
          ]
        ]
      }
    },
    {
      "type": "Feature",
      "properties": {
        "kind": "hvac_path",
        "from": "Observation_Lounge",
        "to": "Pool_Deck"
      },
      "geometry": {
        "type": "LineString",
        "coordinates": [
          [
            5.57111925571845,
            16.4301735336294
          ],
          [
            58.375454545454545,
            14.951502995940276
          ]
        ]
      }
    },
    {
      "type": "Feature",
      "properties": {
        "kind": "hvac_path",
        "from": "Gym",
        "to": "Spa"
      },
      "geometry": {
        "type": "LineString",
        "coordinates": [
          [
            152.29,
            10.5
          ],
          [
            138.87363636363636,
            10.5
          ]
        ]
      }
    },
    {
      "type": "Feature",
      "properties": {
        "kind": "hvac_path",
        "from": "Spa",
        "to": "Cabin_Deck6_Port"
      },
      "geometry": {
        "type": "LineString",
        "coordinates": [
          [
            138.87363636363636,
            10.5
          ],
          [
            98.62454545454544,
            5.709128657917193
          ]
        ]
      }
    },
    {
      "type": "Feature",
      "properties": {
        "kind": "hvac_path",
        "from": "Buffet_Lido",
        "to": "Cabin_Deck6_Stbd"
      },
      "geometry": {
        "type": "LineString",
        "coordinates": [
          [
            44.959090909090904,
            10.5
          ],
          [
            98.62454545454544,
            15.290871342082808
          ]
        ]
      }
    },
    {
      "type": "Feature",
      "properties": {
        "kind": "hvac_path",
        "from": "Expedition_Lounge",
        "to": "Buffet_Lido"
      },
      "geometry": {
        "type": "LineString",
        "coordinates": [
          [
            5.08853335561788,
            10.5
          ],
          [
            44.959090909090904,
            10.5
          ]
        ]
      }
    },
    {
      "type": "Feature",
      "properties": {
        "kind": "hvac_path",
        "from": "Cabin_Deck6_Port",
        "to": "Cabin_Deck6_Stbd"
      },
      "geometry": {
        "type": "LineString",
        "coordinates": [
          [
            98.62454545454544,
            5.709128657917193
          ],
          [
            98.62454545454544,
            15.290871342082808
          ]
        ]
      }
    },
    {
      "type": "Feature",
      "properties": {
        "kind": "hvac_path",
        "from": "Main_Dining_Room",
        "to": "Theater_Lounge"
      },
      "geometry": {
        "type": "LineString",
        "coordinates": [
          [
            9.927220312056825,
            10.5
          ],
          [
            65.47823529411764,
            10.5
          ]
        ]
      }
    },
    {
      "type": "Feature",
      "properties": {
        "kind": "hvac_path",
        "from": "Theater_Lounge",
        "to": "Casino"
      },
      "geometry": {
        "type": "LineString",
        "coordinates": [
          [
            65.47823529411764,
            10.5
          ],
          [
            117.56529411764703,
            18.559011004769708
          ]
        ]
      }
    },
    {
      "type": "Feature",
      "properties": {
        "kind": "hvac_path",
        "from": "Casino",
        "to": "Library"
      },
      "geometry": {
        "type": "LineString",
        "coordinates": [
          [
            117.56529411764703,
            18.559011004769708
          ],
          [
            152.29,
            10.5
          ]
        ]
      }
    },
    {
      "type": "Feature",
      "properties": {
        "kind": "hvac_path",
        "from": "Cabin_Deck5_Port",
        "to": "Cabin_Deck5_Stbd"
      },
      "geometry": {
        "type": "LineString",
        "coordinates": [
          [
            117.56529411764703,
            5.683567627662714
          ],
          [
            117.56529411764703,
            13.853773444594221
          ]
        ]
      }
    },
    {
      "type": "Feature",
      "properties": {
        "kind": "hvac_path",
        "from": "Cabin_Deck5_Port",
        "to": "Main_Dining_Room"
      },
      "geometry": {
        "type": "LineString",
        "coordinates": [
          [
            117.56529411764703,
            5.683567627662714
          ],
          [
            9.927220312056825,
            10.5
          ]
        ]
      }
    },
    {
      "type": "Feature",
      "properties": {
        "kind": "hvac_path",
        "from": "MedBay",
        "to": "Reception_Lobby"
      },
      "geometry": {
        "type": "LineString",
        "coordinates": [
          [
            53.90333333333333,
            10.5
          ],
          [
            4.7323032433070065,
            10.5
          ]
        ]
      }
    },
    {
      "type": "Feature",
      "properties": {
        "kind": "hvac_path",
        "from": "Reception_Lobby",
        "to": "Cabin_Deck4_Port"
      },
      "geometry": {
        "type": "LineString",
        "coordinates": [
          [
            4.7323032433070065,
            10.5
          ],
          [
            147.82447860989893,
            5.7263627710245215
          ]
        ]
      }
    },
    {
      "type": "Feature",
      "properties": {
        "kind": "hvac_path",
        "from": "Cabin_Deck4_Port",
        "to": "Cabin_Deck4_Stbd"
      },
      "geometry": {
        "type": "LineString",
        "coordinates": [
          [
            147.82447860989893,
            5.7263627710245215
          ],
          [
            147.82447860989893,
            15.273637228975481
          ]
        ]
      }
    },
    {
      "type": "Feature",
      "properties": {
        "kind": "hvac_path",
        "from": "Reception_Lobby",
        "to": "Cabin_Deck4_Stbd"
      },
      "geometry": {
        "type": "LineString",
        "coordinates": [
          [
            4.7323032433070065,
            10.5
          ],
          [
            147.82447860989893,
            15.273637228975481
          ]
        ]
      }
    },
    {
      "type": "Feature",
      "properties": {
        "kind": "hvac_path",
        "from": "Galley",
        "to": "Crew_Mess"
      },
      "geometry": {
        "type": "LineString",
        "coordinates": [
          [
            7.312498019801669,
            10.5
          ],
          [
            34.226,
            10.5
          ]
        ]
      }
    },
    {
      "type": "Feature",
      "properties": {
        "kind": "hvac_path",
        "from": "Crew_Mess",
        "to": "Crew_Quarters"
      },
      "geometry": {
        "type": "LineString",
        "coordinates": [
          [
            34.226,
            10.5
          ],
          [
            73.58066666666666,
            12.310333020158183
          ]
        ]
      }
    },
    {
      "type": "Feature",
      "properties": {
        "kind": "hvac_path",
        "from": "Crew_Quarters",
        "to": "Laundry"
      },
      "geometry": {
        "type": "LineString",
        "coordinates": [
          [
            73.58066666666666,
            12.310333020158183
          ],
          [
            112.9353333333333,
            10.5
          ]
        ]
      }
    },
    {
      "type": "Feature",
      "properties": {
        "kind": "hvac_path",
        "from": "Stores",
        "to": "Galley"
      },
      "geometry": {
        "type": "LineString",
        "coordinates": [
          [
            151.91146664438213,
            10.5
          ],
          [
            7.312498019801669,
            10.5
          ]
        ]
      }
    }
  ]
}